{
"type": "FeatureCollection",
"name": "daily_stops_wifi_enriched",
"crs": { "type": "name", "properties": { "name": "urn:ogc:def:crs:OGC:1.3:CRS84" } },
"features": [
{ "type": "Feature", "properties": { "feature_id": "stop-01", "name": "116 St–Columbia University subway entrance", "feature_type": "stop", "sequence": 1, "activity": "arrival / departure", "narrative": "Transit access anchors the west end of the route.", "privacy_level": "public place", "nearest_wifi_objectid": 11390, "nearest_wifi_name": "116 St-Columbia University (1)", "nearest_provider": "Transit Wireless", "nearest_access_type": "Free", "nearest_location_type": "Subway Station", "nearest_distance_m": 8.8832776005809446, "distance_along_route_m": 0.0, "wifi_records_within_250m": 7 }, "geometry": { "type": "Point", "coordinates": [ -73.96419, 40.80767 ] } },
{ "type": "Feature", "properties": { "feature_id": "stop-02", "name": "Fayerweather Hall", "feature_type": "stop", "sequence": 2, "activity": "studio / class", "narrative": "The route's primary daytime destination.", "privacy_level": "public institutional place", "nearest_wifi_objectid": 12896, "nearest_wifi_name": "mn-09-120546", "nearest_provider": "LinkNYC - Citybridge", "nearest_access_type": "Free", "nearest_location_type": "Outdoor Kiosk", "nearest_distance_m": 160.72651425357168, "distance_along_route_m": 323.13505868547799, "wifi_records_within_250m": 3 }, "geometry": { "type": "Point", "coordinates": [ -73.96073, 40.80876 ] } },
{ "type": "Feature", "properties": { "feature_id": "stop-03", "name": "Butler Library", "feature_type": "stop", "sequence": 3, "activity": "study", "narrative": "A second indoor work location along the routine.", "privacy_level": "public institutional place", "nearest_wifi_objectid": 11390, "nearest_wifi_name": "116 St-Columbia University (1)", "nearest_provider": "Transit Wireless", "nearest_access_type": "Free", "nearest_location_type": "Subway Station", "nearest_distance_m": 143.97382142418124, "distance_along_route_m": 637.88211358221258, "wifi_records_within_250m": 8 }, "geometry": { "type": "Point", "coordinates": [ -73.96317, 40.80664 ] } },
{ "type": "Feature", "properties": { "feature_id": "stop-04", "name": "Morningside Park west entrance", "feature_type": "stop", "sequence": 4, "activity": "outdoor break", "narrative": "The park edge marks a shift from campus interiors to public open space.", "privacy_level": "public place", "nearest_wifi_objectid": 11389, "nearest_wifi_name": "116 St (A, B,C)", "nearest_provider": "Transit Wireless", "nearest_access_type": "Free", "nearest_location_type": "Subway Station", "nearest_distance_m": 183.37903982989999, "distance_along_route_m": 1177.1280846674215, "wifi_records_within_250m": 4 }, "geometry": { "type": "Point", "coordinates": [ -73.95704, 40.80528 ] } }
]
}
