{
"type": "FeatureCollection",
"name": "nearest_wifi_connections",
"crs": { "type": "name", "properties": { "name": "urn:ogc:def:crs:OGC:1.3:CRS84" } },
"features": [
{ "type": "Feature", "properties": { "feature_id": "stop-01", "stop_name": "116 St–Columbia University subway entrance", "distance_m": 8.8832776005809446 }, "geometry": { "type": "LineString", "coordinates": [ [ -73.96419, 40.80767 ], [ -73.964109999900003, 40.807722000299997 ] ] } },
{ "type": "Feature", "properties": { "feature_id": "stop-02", "stop_name": "Fayerweather Hall", "distance_m": 160.72651425357168 }, "geometry": { "type": "LineString", "coordinates": [ [ -73.96073, 40.80876 ], [ -73.959029510400001, 40.8094122201 ] ] } },
{ "type": "Feature", "properties": { "feature_id": "stop-03", "stop_name": "Butler Library", "distance_m": 143.97382142418124 }, "geometry": { "type": "LineString", "coordinates": [ [ -73.96317, 40.80664 ], [ -73.964109999900003, 40.807722000299997 ] ] } },
{ "type": "Feature", "properties": { "feature_id": "stop-04", "stop_name": "Morningside Park west entrance", "distance_m": 183.37903982989999 }, "geometry": { "type": "LineString", "coordinates": [ [ -73.95704, 40.80528 ], [ -73.954882000500007, 40.805085000400005 ] ] } }
]
}
