{
"type": "FeatureCollection",
"name": "route_proximity_samples",
"crs": { "type": "name", "properties": { "name": "urn:ogc:def:crs:OGC:1.3:CRS84" } },
"features": [
{ "type": "Feature", "properties": { "sample_id": "sample-000", "distance_along_route_m": 0.0, "nearest_wifi_objectid": 11390, "nearest_wifi_name": "116 St-Columbia University (1)", "nearest_provider": "Transit Wireless", "nearest_access_type": "Free", "nearest_distance_m": 8.8832776005809446, "within_250m": true }, "geometry": { "type": "Point", "coordinates": [ -73.96419, 40.80767 ] } },
{ "type": "Feature", "properties": { "sample_id": "sample-001", "distance_along_route_m": 25.0, "nearest_wifi_objectid": 11390, "nearest_wifi_name": "116 St-Columbia University (1)", "nearest_provider": "Transit Wireless", "nearest_access_type": "Free", "nearest_distance_m": 16.760686497975001, "within_250m": true }, "geometry": { "type": "Point", "coordinates": [ -73.963916834693109, 40.807757180733013 ] } },
{ "type": "Feature", "properties": { "sample_id": "sample-002", "distance_along_route_m": 50.0, "nearest_wifi_objectid": 11390, "nearest_wifi_name": "116 St-Columbia University (1)", "nearest_provider": "Transit Wireless", "nearest_access_type": "Free", "nearest_distance_m": 41.526525433904901, "within_250m": true }, "geometry": { "type": "Point", "coordinates": [ -73.963637767450265, 40.807827295247186 ] } },
{ "type": "Feature", "properties": { "sample_id": "sample-003", "distance_along_route_m": 75.0, "nearest_wifi_objectid": 11390, "nearest_wifi_name": "116 St-Columbia University (1)", "nearest_provider": "Transit Wireless", "nearest_access_type": "Free", "nearest_distance_m": 66.303290151134988, "within_250m": true }, "geometry": { "type": "Point", "coordinates": [ -73.96334348237508, 40.807853402205737 ] } },
{ "type": "Feature", "properties": { "sample_id": "sample-004", "distance_along_route_m": 100.0, "nearest_wifi_objectid": 11390, "nearest_wifi_name": "116 St-Columbia University (1)", "nearest_provider": "Transit Wireless", "nearest_access_type": "Free", "nearest_distance_m": 91.201975061493897, "within_250m": true }, "geometry": { "type": "Point", "coordinates": [ -73.96304919706904, 40.807879508412967 ] } },
{ "type": "Feature", "properties": { "sample_id": "sample-005", "distance_along_route_m": 125.0, "nearest_wifi_objectid": 11390, "nearest_wifi_name": "116 St-Columbia University (1)", "nearest_provider": "Transit Wireless", "nearest_access_type": "Free", "nearest_distance_m": 116.1441958316321, "within_250m": true }, "geometry": { "type": "Point", "coordinates": [ -73.962754911532159, 40.80790561386889 ] } },
{ "type": "Feature", "properties": { "sample_id": "sample-006", "distance_along_route_m": 150.0, "nearest_wifi_objectid": 11390, "nearest_wifi_name": "116 St-Columbia University (1)", "nearest_provider": "Transit Wireless", "nearest_access_type": "Free", "nearest_distance_m": 141.02920484297491, "within_250m": true }, "geometry": { "type": "Point", "coordinates": [ -73.962462704592696, 40.807936853018219 ] } },
{ "type": "Feature", "properties": { "sample_id": "sample-007", "distance_along_route_m": 175.00000000000003, "nearest_wifi_objectid": 11390, "nearest_wifi_name": "116 St-Columbia University (1)", "nearest_provider": "Transit Wireless", "nearest_access_type": "Free", "nearest_distance_m": 165.00934411456819, "within_250m": true }, "geometry": { "type": "Point", "coordinates": [ -73.962199994740473, 40.808040946945333 ] } },
{ "type": "Feature", "properties": { "sample_id": "sample-008", "distance_along_route_m": 200.0, "nearest_wifi_objectid": 11390, "nearest_wifi_name": "116 St-Columbia University (1)", "nearest_provider": "Transit Wireless", "nearest_access_type": "Free", "nearest_distance_m": 189.25361468568826, "within_250m": true }, "geometry": { "type": "Point", "coordinates": [ -73.961937284066508, 40.808145040272073 ] } },
{ "type": "Feature", "properties": { "sample_id": "sample-009", "distance_along_route_m": 225.0, "nearest_wifi_objectid": 11390, "nearest_wifi_name": "116 St-Columbia University (1)", "nearest_provider": "Transit Wireless", "nearest_access_type": "Free", "nearest_distance_m": 213.67212662881121, "within_250m": true }, "geometry": { "type": "Point", "coordinates": [ -73.961674572570843, 40.808249132998384 ] } },
{ "type": "Feature", "properties": { "sample_id": "sample-010", "distance_along_route_m": 250.0, "nearest_wifi_objectid": 12896, "nearest_wifi_name": "mn-09-120546", "nearest_provider": "LinkNYC - Citybridge", "nearest_access_type": "Free", "nearest_distance_m": 232.89524063484365, "within_250m": true }, "geometry": { "type": "Point", "coordinates": [ -73.961412768720876, 40.808354296894763 ] } },
{ "type": "Feature", "properties": { "sample_id": "sample-011", "distance_along_route_m": 275.0, "nearest_wifi_objectid": 12896, "nearest_wifi_name": "mn-09-120546", "nearest_provider": "LinkNYC - Citybridge", "nearest_access_type": "Free", "nearest_distance_m": 208.1496954410442, "within_250m": true }, "geometry": { "type": "Point", "coordinates": [ -73.961179376557794, 40.808492980192476 ] } },
{ "type": "Feature", "properties": { "sample_id": "sample-012", "distance_along_route_m": 300.0, "nearest_wifi_objectid": 12896, "nearest_wifi_name": "mn-09-120546", "nearest_provider": "LinkNYC - Citybridge", "nearest_access_type": "Free", "nearest_distance_m": 183.4731542053251, "within_250m": true }, "geometry": { "type": "Point", "coordinates": [ -73.960945983422121, 40.808631663014587 ] } },
{ "type": "Feature", "properties": { "sample_id": "sample-013", "distance_along_route_m": 325.0, "nearest_wifi_objectid": 12896, "nearest_wifi_name": "mn-09-120546", "nearest_provider": "LinkNYC - Citybridge", "nearest_access_type": "Free", "nearest_distance_m": 162.39245340387021, "within_250m": true }, "geometry": { "type": "Point", "coordinates": [ -73.960743102352822, 40.808746475153129 ] } },
{ "type": "Feature", "properties": { "sample_id": "sample-014", "distance_along_route_m": 350.00000000000006, "nearest_wifi_objectid": 12896, "nearest_wifi_name": "mn-09-120546", "nearest_provider": "LinkNYC - Citybridge", "nearest_access_type": "Free", "nearest_distance_m": 185.09168217922957, "within_250m": true }, "geometry": { "type": "Point", "coordinates": [ -73.960918742121777, 40.808565171085817 ] } },
{ "type": "Feature", "properties": { "sample_id": "sample-015", "distance_along_route_m": 375.0, "nearest_wifi_objectid": 12896, "nearest_wifi_name": "mn-09-120546", "nearest_provider": "LinkNYC - Citybridge", "nearest_access_type": "Free", "nearest_distance_m": 208.31839261418793, "within_250m": true }, "geometry": { "type": "Point", "coordinates": [ -73.961094380933844, 40.808383866745615 ] } },
{ "type": "Feature", "properties": { "sample_id": "sample-016", "distance_along_route_m": 400.0, "nearest_wifi_objectid": 12896, "nearest_wifi_name": "mn-09-120546", "nearest_provider": "LinkNYC - Citybridge", "nearest_access_type": "Free", "nearest_distance_m": 231.91415349385045, "within_250m": true }, "geometry": { "type": "Point", "coordinates": [ -73.961270018789037, 40.808202562132543 ] } },
{ "type": "Feature", "properties": { "sample_id": "sample-017", "distance_along_route_m": 425.0, "nearest_wifi_objectid": 11390, "nearest_wifi_name": "116 St-Columbia University (1)", "nearest_provider": "Transit Wireless", "nearest_access_type": "Free", "nearest_distance_m": 225.25398358428208, "within_250m": true }, "geometry": { "type": "Point", "coordinates": [ -73.961473708970061, 40.808041277230288 ] } },
{ "type": "Feature", "properties": { "sample_id": "sample-018", "distance_along_route_m": 450.0, "nearest_wifi_objectid": 11390, "nearest_wifi_name": "116 St-Columbia University (1)", "nearest_provider": "Transit Wireless", "nearest_access_type": "Free", "nearest_distance_m": 204.20410779598998, "within_250m": true }, "geometry": { "type": "Point", "coordinates": [ -73.961700854480796, 40.807896731311004 ] } },
{ "type": "Feature", "properties": { "sample_id": "sample-019", "distance_along_route_m": 475.00000000000006, "nearest_wifi_objectid": 11390, "nearest_wifi_name": "116 St-Columbia University (1)", "nearest_provider": "Transit Wireless", "nearest_access_type": "Free", "nearest_distance_m": 184.14472069794419, "within_250m": true }, "geometry": { "type": "Point", "coordinates": [ -73.961927999004942, 40.80775218494086 ] } },
{ "type": "Feature", "properties": { "sample_id": "sample-020", "distance_along_route_m": 500.0, "nearest_wifi_objectid": 11390, "nearest_wifi_name": "116 St-Columbia University (1)", "nearest_provider": "Transit Wireless", "nearest_access_type": "Free", "nearest_distance_m": 165.43650951676645, "within_250m": true }, "geometry": { "type": "Point", "coordinates": [ -73.9621551425425, 40.807607638119777 ] } },
{ "type": "Feature", "properties": { "sample_id": "sample-021", "distance_along_route_m": 525.0, "nearest_wifi_objectid": 11390, "nearest_wifi_name": "116 St-Columbia University (1)", "nearest_provider": "Transit Wireless", "nearest_access_type": "Free", "nearest_distance_m": 149.51662830429311, "within_250m": true }, "geometry": { "type": "Point", "coordinates": [ -73.96237286559797, 40.80745634298853 ] } },
{ "type": "Feature", "properties": { "sample_id": "sample-022", "distance_along_route_m": 550.0, "nearest_wifi_objectid": 11390, "nearest_wifi_name": "116 St-Columbia University (1)", "nearest_provider": "Transit Wireless", "nearest_access_type": "Free", "nearest_distance_m": 140.70497713790331, "within_250m": true }, "geometry": { "type": "Point", "coordinates": [ -73.962549408627737, 40.807275548003545 ] } },
{ "type": "Feature", "properties": { "sample_id": "sample-023", "distance_along_route_m": 575.0, "nearest_wifi_objectid": 11390, "nearest_wifi_name": "116 St-Columbia University (1)", "nearest_provider": "Transit Wireless", "nearest_access_type": "Free", "nearest_distance_m": 135.97999501129243, "within_250m": true }, "geometry": { "type": "Point", "coordinates": [ -73.962725950698427, 40.807094752742941 ] } },
{ "type": "Feature", "properties": { "sample_id": "sample-024", "distance_along_route_m": 600.0, "nearest_wifi_objectid": 11390, "nearest_wifi_name": "116 St-Columbia University (1)", "nearest_provider": "Transit Wireless", "nearest_access_type": "Free", "nearest_distance_m": 135.76902259044144, "within_250m": true }, "geometry": { "type": "Point", "coordinates": [ -73.962902491810027, 40.806913957206739 ] } },
{ "type": "Feature", "properties": { "sample_id": "sample-025", "distance_along_route_m": 625.0, "nearest_wifi_objectid": 11390, "nearest_wifi_name": "116 St-Columbia University (1)", "nearest_provider": "Transit Wireless", "nearest_access_type": "Free", "nearest_distance_m": 140.09245499689106, "within_250m": true }, "geometry": { "type": "Point", "coordinates": [ -73.96307903196255, 40.806733161394924 ] } },
{ "type": "Feature", "properties": { "sample_id": "sample-026", "distance_along_route_m": 650.0, "nearest_wifi_objectid": 11390, "nearest_wifi_name": "116 St-Columbia University (1)", "nearest_provider": "Transit Wireless", "nearest_access_type": "Free", "nearest_distance_m": 153.71462204916486, "within_250m": true }, "geometry": { "type": "Point", "coordinates": [ -73.963033936612973, 40.806605090003316 ] } },
{ "type": "Feature", "properties": { "sample_id": "sample-027", "distance_along_route_m": 675.0, "nearest_wifi_objectid": 11390, "nearest_wifi_name": "116 St-Columbia University (1)", "nearest_provider": "Transit Wireless", "nearest_access_type": "Free", "nearest_distance_m": 174.75255034887155, "within_250m": true }, "geometry": { "type": "Point", "coordinates": [ -73.962753229310252, 40.806533067866511 ] } },
{ "type": "Feature", "properties": { "sample_id": "sample-028", "distance_along_route_m": 700.00000000000011, "nearest_wifi_objectid": 11390, "nearest_wifi_name": "116 St-Columbia University (1)", "nearest_provider": "Transit Wireless", "nearest_access_type": "Free", "nearest_distance_m": 196.71990919872002, "within_250m": true }, "geometry": { "type": "Point", "coordinates": [ -73.962472522615016, 40.806461045045403 ] } },
{ "type": "Feature", "properties": { "sample_id": "sample-029", "distance_along_route_m": 725.0, "nearest_wifi_objectid": 11390, "nearest_wifi_name": "116 St-Columbia University (1)", "nearest_provider": "Transit Wireless", "nearest_access_type": "Free", "nearest_distance_m": 219.33761988512342, "within_250m": true }, "geometry": { "type": "Point", "coordinates": [ -73.962191816527266, 40.806389021539907 ] } },
{ "type": "Feature", "properties": { "sample_id": "sample-030", "distance_along_route_m": 750.0, "nearest_wifi_objectid": 11296, "nearest_wifi_name": "Morningside Heights", "nearest_provider": "NYPL", "nearest_access_type": "Free", "nearest_distance_m": 241.8723825982982, "within_250m": true }, "geometry": { "type": "Point", "coordinates": [ -73.961911111047016, 40.806316997350109 ] } },
{ "type": "Feature", "properties": { "sample_id": "sample-031", "distance_along_route_m": 775.0, "nearest_wifi_objectid": 11296, "nearest_wifi_name": "Morningside Heights", "nearest_provider": "NYPL", "nearest_access_type": "Free", "nearest_distance_m": 264.81490973531112, "within_250m": false }, "geometry": { "type": "Point", "coordinates": [ -73.96163030582187, 40.806245204205304 ] } },
{ "type": "Feature", "properties": { "sample_id": "sample-032", "distance_along_route_m": 800.0, "nearest_wifi_objectid": 11296, "nearest_wifi_name": "Morningside Heights", "nearest_provider": "NYPL", "nearest_access_type": "Free", "nearest_distance_m": 288.22388690715053, "within_250m": false }, "geometry": { "type": "Point", "coordinates": [ -73.961348163877403, 40.806176498438155 ] } },
{ "type": "Feature", "properties": { "sample_id": "sample-033", "distance_along_route_m": 825.00000000000011, "nearest_wifi_objectid": 11296, "nearest_wifi_name": "Morningside Heights", "nearest_provider": "NYPL", "nearest_access_type": "Free", "nearest_distance_m": 311.8799152712312, "within_250m": false }, "geometry": { "type": "Point", "coordinates": [ -73.961066022515382, 40.806107791979734 ] } },
{ "type": "Feature", "properties": { "sample_id": "sample-034", "distance_along_route_m": 850.0, "nearest_wifi_objectid": 11296, "nearest_wifi_name": "Morningside Heights", "nearest_provider": "NYPL", "nearest_access_type": "Free", "nearest_distance_m": 335.73077624092906, "within_250m": false }, "geometry": { "type": "Point", "coordinates": [ -73.960783881735864, 40.806039084830076 ] } },
{ "type": "Feature", "properties": { "sample_id": "sample-035", "distance_along_route_m": 875.0, "nearest_wifi_objectid": 11296, "nearest_wifi_name": "Morningside Heights", "nearest_provider": "NYPL", "nearest_access_type": "Free", "nearest_distance_m": 359.73771929151292, "within_250m": false }, "geometry": { "type": "Point", "coordinates": [ -73.960501741538806, 40.805970376989109 ] } },
{ "type": "Feature", "properties": { "sample_id": "sample-036", "distance_along_route_m": 900.0, "nearest_wifi_objectid": 11296, "nearest_wifi_name": "Morningside Heights", "nearest_provider": "NYPL", "nearest_access_type": "Free", "nearest_distance_m": 383.87146188119715, "within_250m": false }, "geometry": { "type": "Point", "coordinates": [ -73.960219601924237, 40.805901668456904 ] } },
{ "type": "Feature", "properties": { "sample_id": "sample-037", "distance_along_route_m": 925.0, "nearest_wifi_objectid": 12896, "nearest_wifi_name": "mn-09-120546", "nearest_provider": "LinkNYC - Citybridge", "nearest_access_type": "Free", "nearest_distance_m": 404.79088714220649, "within_250m": false }, "geometry": { "type": "Point", "coordinates": [ -73.959937462892171, 40.805832959233449 ] } },
{ "type": "Feature", "properties": { "sample_id": "sample-038", "distance_along_route_m": 950.00000000000011, "nearest_wifi_objectid": 10135, "nearest_wifi_name": null, "nearest_provider": "Harlem", "nearest_access_type": "Free", "nearest_distance_m": 392.70907953435506, "within_250m": false }, "geometry": { "type": "Point", "coordinates": [ -73.95965404262725, 40.805767695358469 ] } },
{ "type": "Feature", "properties": { "sample_id": "sample-039", "distance_along_route_m": 975.0, "nearest_wifi_objectid": 10135, "nearest_wifi_name": null, "nearest_provider": "Harlem", "nearest_access_type": "Free", "nearest_distance_m": 370.46287400526711, "within_250m": false }, "geometry": { "type": "Point", "coordinates": [ -73.959366312944255, 40.80571401761015 ] } },
{ "type": "Feature", "properties": { "sample_id": "sample-040", "distance_along_route_m": 1000.0, "nearest_wifi_objectid": 10135, "nearest_wifi_name": null, "nearest_provider": "Harlem", "nearest_access_type": "Free", "nearest_distance_m": 348.59010439732782, "within_250m": false }, "geometry": { "type": "Point", "coordinates": [ -73.959078583725358, 40.805660339143252 ] } },
{ "type": "Feature", "properties": { "sample_id": "sample-041", "distance_along_route_m": 1025.0, "nearest_wifi_objectid": 10135, "nearest_wifi_name": null, "nearest_provider": "Harlem", "nearest_access_type": "Free", "nearest_distance_m": 327.16567783194904, "within_250m": false }, "geometry": { "type": "Point", "coordinates": [ -73.958790854970516, 40.805606659957753 ] } },
{ "type": "Feature", "properties": { "sample_id": "sample-042", "distance_along_route_m": 1050.0, "nearest_wifi_objectid": 10135, "nearest_wifi_name": null, "nearest_provider": "Harlem", "nearest_access_type": "Free", "nearest_distance_m": 306.28369303433902, "within_250m": false }, "geometry": { "type": "Point", "coordinates": [ -73.958503126679773, 40.805552980053655 ] } },
{ "type": "Feature", "properties": { "sample_id": "sample-043", "distance_along_route_m": 1075.0, "nearest_wifi_objectid": 11389, "nearest_wifi_name": "116 St (A, B,C)", "nearest_provider": "Transit Wireless", "nearest_access_type": "Free", "nearest_distance_m": 285.015684536317, "within_250m": false }, "geometry": { "type": "Point", "coordinates": [ -73.958215398853142, 40.80549929943097 ] } },
{ "type": "Feature", "properties": { "sample_id": "sample-044", "distance_along_route_m": 1100.0, "nearest_wifi_objectid": 11389, "nearest_wifi_name": "116 St (A, B,C)", "nearest_provider": "Transit Wireless", "nearest_access_type": "Free", "nearest_distance_m": 260.10039993696569, "within_250m": false }, "geometry": { "type": "Point", "coordinates": [ -73.957927671490594, 40.805445618089685 ] } },
{ "type": "Feature", "properties": { "sample_id": "sample-045", "distance_along_route_m": 1125.0, "nearest_wifi_objectid": 11389, "nearest_wifi_name": "116 St (A, B,C)", "nearest_provider": "Transit Wireless", "nearest_access_type": "Free", "nearest_distance_m": 235.20309450135841, "within_250m": true }, "geometry": { "type": "Point", "coordinates": [ -73.95763994459216, 40.8053919360298 ] } },
{ "type": "Feature", "properties": { "sample_id": "sample-046", "distance_along_route_m": 1150.0, "nearest_wifi_objectid": 11389, "nearest_wifi_name": "116 St (A, B,C)", "nearest_provider": "Transit Wireless", "nearest_access_type": "Free", "nearest_distance_m": 210.33015304197878, "within_250m": true }, "geometry": { "type": "Point", "coordinates": [ -73.957352218157808, 40.805338253251328 ] } },
{ "type": "Feature", "properties": { "sample_id": "sample-047", "distance_along_route_m": 1175.0, "nearest_wifi_objectid": 11389, "nearest_wifi_name": "116 St (A, B,C)", "nearest_provider": "Transit Wireless", "nearest_access_type": "Free", "nearest_distance_m": 185.49137687322079, "within_250m": true }, "geometry": { "type": "Point", "coordinates": [ -73.957064492187598, 40.805284569754278 ] } },
{ "type": "Feature", "properties": { "sample_id": "sample-048", "distance_along_route_m": 1177.1280846674215, "nearest_wifi_objectid": 11389, "nearest_wifi_name": "116 St (A, B,C)", "nearest_provider": "Transit Wireless", "nearest_access_type": "Free", "nearest_distance_m": 183.37903982989999, "within_250m": true }, "geometry": { "type": "Point", "coordinates": [ -73.95704, 40.80528 ] } }
]
}
