{
"type": "FeatureCollection",
"name": "route_wifi_context",
"crs": { "type": "name", "properties": { "name": "urn:ogc:def:crs:OGC:1.3:CRS84" } },
"features": [
{ "type": "Feature", "properties": { "objectid": 11390, "name": "116 St-Columbia University (1)", "provider": "Transit Wireless", "type": "Free", "location_t": "Subway Station", "boroname": "Manhattan", "distance_to_route_m": 2.7099308187360802 }, "geometry": { "type": "Point", "coordinates": [ -73.964109999900003, 40.807722000299997 ] } },
{ "type": "Feature", "properties": { "objectid": 12483, "name": "mn-09-137848", "provider": "LinkNYC - Citybridge", "type": "Free", "location_t": "Outdoor Kiosk", "boroname": "Manhattan", "distance_to_route_m": 30.917781590784699 }, "geometry": { "type": "Point", "coordinates": [ -73.964488000499998, 40.807507999600006 ] } },
{ "type": "Feature", "properties": { "objectid": 12482, "name": "mn-09-120262", "provider": "LinkNYC - Citybridge", "type": "Free", "location_t": "Outdoor Kiosk", "boroname": "Manhattan", "distance_to_route_m": 38.673871417287735 }, "geometry": { "type": "Point", "coordinates": [ -73.964210340500003, 40.808041240100017 ] } },
{ "type": "Feature", "properties": { "objectid": 12484, "name": "mn-09-120261", "provider": "LinkNYC - Citybridge", "type": "Free", "location_t": "Outdoor Kiosk", "boroname": "Manhattan", "distance_to_route_m": 56.606086273227234 }, "geometry": { "type": "Point", "coordinates": [ -73.964645550400007, 40.807295809700022 ] } },
{ "type": "Feature", "properties": { "objectid": 12485, "name": "mn-09-120387", "provider": "LinkNYC - Citybridge", "type": "Free", "location_t": "Outdoor Kiosk", "boroname": "Manhattan", "distance_to_route_m": 127.32708105495881 }, "geometry": { "type": "Point", "coordinates": [ -73.965108000100003, 40.806760000100006 ] } },
{ "type": "Feature", "properties": { "objectid": 11296, "name": "Morningside Heights", "provider": "NYPL", "type": "Free", "location_t": "Library", "boroname": "Manhattan", "distance_to_route_m": 147.53381823664338 }, "geometry": { "type": "Point", "coordinates": [ -73.964762060300004, 40.806090815600008 ] } },
{ "type": "Feature", "properties": { "objectid": 12896, "name": "mn-09-120546", "provider": "LinkNYC - Citybridge", "type": "Free", "location_t": "Outdoor Kiosk", "boroname": "Manhattan", "distance_to_route_m": 160.72651425357168 }, "geometry": { "type": "Point", "coordinates": [ -73.959029510400001, 40.8094122201 ] } },
{ "type": "Feature", "properties": { "objectid": 12474, "name": "mn-09-120408", "provider": "LinkNYC - Citybridge", "type": "Free", "location_t": "Outdoor Kiosk", "boroname": "Manhattan", "distance_to_route_m": 179.83780120209073 }, "geometry": { "type": "Point", "coordinates": [ -73.965081000300003, 40.805923000400007 ] } },
{ "type": "Feature", "properties": { "objectid": 11389, "name": "116 St (A, B,C)", "provider": "Transit Wireless", "type": "Free", "location_t": "Subway Station", "boroname": "Manhattan", "distance_to_route_m": 183.37903982989999 }, "geometry": { "type": "Point", "coordinates": [ -73.954882000500007, 40.805085000400005 ] } },
{ "type": "Feature", "properties": { "objectid": 12783, "name": "mn-09-120545", "provider": "LinkNYC - Citybridge", "type": "Free", "location_t": "Outdoor Kiosk", "boroname": "Manhattan", "distance_to_route_m": 205.02684956795235 }, "geometry": { "type": "Point", "coordinates": [ -73.958888999900012, 40.809965000100007 ] } },
{ "type": "Feature", "properties": { "objectid": 10135, "name": null, "provider": "Harlem", "type": "Free", "location_t": "Outdoor", "boroname": "Manhattan", "distance_to_route_m": 214.20799950784451 }, "geometry": { "type": "Point", "coordinates": [ -73.956093999700002, 40.80349 ] } },
{ "type": "Feature", "properties": { "objectid": 11853, "name": "mn-10-118276", "provider": "LinkNYC - Citybridge", "type": "Free", "location_t": "Outdoor Kiosk", "boroname": "Manhattan", "distance_to_route_m": 226.39461480515826 }, "geometry": { "type": "Point", "coordinates": [ -73.956003490300006, 40.803399600399999 ] } },
{ "type": "Feature", "properties": { "objectid": 12784, "name": "mn-09-142793", "provider": "LinkNYC - Citybridge", "type": "Free", "location_t": "Outdoor Kiosk", "boroname": "Manhattan", "distance_to_route_m": 228.8113095577464 }, "geometry": { "type": "Point", "coordinates": [ -73.958744000500005, 40.810163000200006 ] } },
{ "type": "Feature", "properties": { "objectid": 12472, "name": "mn-09-120409", "provider": "LinkNYC - Citybridge", "type": "Free", "location_t": "Outdoor Kiosk", "boroname": "Manhattan", "distance_to_route_m": 237.37652524504961 }, "geometry": { "type": "Point", "coordinates": [ -73.965526100100007, 40.805472040399998 ] } },
{ "type": "Feature", "properties": { "objectid": 11087, "name": "mn-10-119988", "provider": "LinkNYC - Citybridge", "type": "Free", "location_t": "Outdoor Kiosk", "boroname": "Manhattan", "distance_to_route_m": 241.16048821344509 }, "geometry": { "type": "Point", "coordinates": [ -73.954262736499999, 40.805792474300006 ] } }
]
}
