{
"type": "FeatureCollection",
"name": "route_250m_buffer",
"crs": { "type": "name", "properties": { "name": "urn:ogc:def:crs:OGC:1.3:CRS84" } },
"features": [
{ "type": "Feature", "properties": { "feature_id": "route-buffer-250m", "buffer_m": 250.0, "method": "Euclidean buffer around generalized route in EPSG:2263" }, "geometry": { "type": "Polygon", "coordinates": [ [ [ -73.965950457466519, 40.805862611953955 ], [ -73.966058181572478, 40.805922690230723 ], [ -73.966274583283607, 40.80607023929953 ], [ -73.966470910761061, 40.806233194747691 ], [ -73.966645273238967, 40.806409987331115 ], [ -73.966795991431951, 40.806598914542597 ], [ -73.966921613710568, 40.806798157004067 ], [ -73.967020930086363, 40.807005795984558 ], [ -73.967092983871481, 40.807219831875443 ], [ -73.967137080900471, 40.80743820344513 ], [ -73.967152796224937, 40.807658807687915 ], [ -73.967139978216522, 40.807879520075808 ], [ -73.967098750037877, 40.808098215018475 ], [ -73.967029508467363, 40.808312786334241 ], [ -73.966932920088368, 40.808521167534877 ], [ -73.96680991487932, 40.808721351728849 ], [ -73.966661677265989, 40.808911410951403 ], [ -73.966489634721768, 40.809089514735106 ], [ -73.966295444025619, 40.809253947741716 ], [ -73.966080975309566, 40.80940312628578 ], [ -73.965848294049465, 40.809535613590484 ], [ -73.965599641172489, 40.809650133628615 ], [ -73.96533741147266, 40.809745583415307 ], [ -73.964867399401584, 40.809895588042814 ], [ -73.964606477366956, 40.809968124931743 ], [ -73.964337759694786, 40.810021772565399 ], [ -73.964063609461718, 40.810056059169113 ], [ -73.963365888239522, 40.810117955485687 ], [ -73.963031079750081, 40.810250615946522 ], [ -73.962555251949681, 40.810533357745562 ], [ -73.962315799562433, 40.810661666602925 ], [ -73.962060837574441, 40.810771377749631 ], [ -73.961792859527108, 40.810861418175712 ], [ -73.961514486297887, 40.810930907253301 ], [ -73.961228440461909, 40.810979165351611 ], [ -73.960937519657463, 40.811005720486143 ], [ -73.960644569216456, 40.811010312936006 ], [ -73.960352454327506, 40.810992897785056 ], [ -73.960064032004709, 40.810953645361089 ], [ -73.959782123136364, 40.810892939569733 ], [ -73.959509484887604, 40.810811374138396 ], [ -73.959248783727176, 40.810709746807746 ], [ -73.959002569342502, 40.810589051527387 ], [ -73.958773249698552, 40.810450468731972 ], [ -73.958563067484519, 40.81029535379357 ], [ -73.958374078179034, 40.810125223762455 ], [ -73.958208129948289, 40.809941742526966 ], [ -73.958066845573882, 40.809746704537552 ], [ -73.957951606586946, 40.809542017253825 ], [ -73.957863539763522, 40.809329682487217 ], [ -73.957803506113081, 40.809111776821062 ], [ -73.95777209246765, 40.808890431300469 ], [ -73.957769605753143, 40.808667810589995 ], [ -73.957796069998878, 40.808446091803589 ], [ -73.957851226113888, 40.80822744321339 ], [ -73.957934534431814, 40.808014003046061 ], [ -73.958045179998976, 40.80780785857349 ], [ -73.95805884661516, 40.807788209046883 ], [ -73.956333477140802, 40.807466303222355 ], [ -73.956054850410666, 40.807403154099305 ], [ -73.955785712114633, 40.807319557233946 ], [ -73.955528654403508, 40.807216317784238 ], [ -73.955286153042891, 40.807094430090395 ], [ -73.955060543564116, 40.80695506809537 ], [ -73.954853998767547, 40.806799574035466 ], [ -73.954668507795105, 40.806629445509749 ], [ -73.95450585697364, 40.806446321053471 ], [ -73.954367612613623, 40.806251964353784 ], [ -73.954255105928851, 40.806048247260925 ], [ -73.954169420222044, 40.80583713175772 ], [ -73.954111380459651, 40.805620651061787 ], [ -73.954081545335981, 40.805400890042129 ], [ -73.954080201902684, 40.80517996513926 ], [ -73.954107362814923, 40.804960003981691 ], [ -73.954162766220335, 40.8047431248959 ], [ -73.954245878291516, 40.804531416506194 ], [ -73.954355898377187, 40.8043269176219 ], [ -73.954491766721929, 40.804131597604581 ], [ -73.954652174679993, 40.803947337404935 ], [ -73.954835577324445, 40.803775911451531 ], [ -73.955040208329763, 40.803618970565971 ], [ -73.955264096984934, 40.803478026068468 ], [ -73.955505087172412, 40.803354435227092 ], [ -73.955760858130745, 40.803249388190622 ], [ -73.956028946800785, 40.803163896530485 ], [ -73.956306771540184, 40.80309878350225 ], [ -73.956591656978532, 40.803054676120112 ], [ -73.956880859773605, 40.803031999120591 ], [ -73.957171595021293, 40.803030970873976 ], [ -73.957461063065026, 40.803051601281787 ], [ -73.957746476447213, 40.803093691681724 ], [ -73.960426393727303, 40.803593675433817 ], [ -73.960624227381658, 40.803636162929457 ], [ -73.962554171604992, 40.804106147953178 ], [ -73.962597860695965, 40.804117071652485 ], [ -73.964117817542331, 40.804507059288632 ], [ -73.96439096913808, 40.804588806764592 ], [ -73.964652133319234, 40.804690694056063 ], [ -73.964898745922184, 40.804811720835403 ], [ -73.965128385613255, 40.804950698857951 ], [ -73.965338797658674, 40.805106263625255 ], [ -73.965527916060992, 40.80527688777881 ], [ -73.965693883844509, 40.80546089609259 ], [ -73.965835071290485, 40.805656481917637 ], [ -73.965950091943398, 40.805861724917342 ], [ -73.965950457466519, 40.805862611953955 ] ] ] } }
]
}
