{
"type": "FeatureCollection",
"name": "bryant_park_visual_exposure",
"crs": { "type": "name", "properties": { "name": "urn:ogc:def:crs:OGC:1.3:CRS84" } },
"features": [
{ "type": "Feature", "properties": { "segment_id": "SEG_0001", "tree_distance_m": 95.722499977070072, "building_distance_m": 74.741218101141882, "tree_class": "Tree Far", "building_class": "Building Far", "exposure_condition": "Open Exposure" }, "geometry": { "type": "LineString", "coordinates": [ [ -73.988039396698994, 40.749031247007991 ], [ -73.988238911798021, 40.749138416443003 ] ] } },
{ "type": "Feature", "properties": { "segment_id": "SEG_0002", "tree_distance_m": 74.116365018807883, "building_distance_m": 65.740021692448664, "tree_class": "Tree Far", "building_class": "Building Far", "exposure_condition": "Open Exposure" }, "geometry": { "type": "LineString", "coordinates": [ [ -73.988039396698994, 40.749031247007991 ], [ -73.987974873945006, 40.749499026089005 ] ] } },
{ "type": "Feature", "properties": { "segment_id": "SEG_0003", "tree_distance_m": 77.615183409529507, "building_distance_m": 75.497230967423349, "tree_class": "Tree Far", "building_class": "Building Far", "exposure_condition": "Open Exposure" }, "geometry": { "type": "LineString", "coordinates": [ [ -73.988238911798021, 40.749138416443003 ], [ -73.987974873945006, 40.749499026089005 ] ] } },
{ "type": "Feature", "properties": { "segment_id": "SEG_0004", "tree_distance_m": 12.551026069647561, "building_distance_m": 14.860461410380905, "tree_class": "Tree Near", "building_class": "Building Far", "exposure_condition": "Low Visual Exposure" }, "geometry": { "type": "LineString", "coordinates": [ [ -73.986080220735005, 40.749085066028996 ], [ -73.987770356401001, 40.749795276561009 ] ] } },
{ "type": "Feature", "properties": { "segment_id": "SEG_0005", "tree_distance_m": 46.685494173632257, "building_distance_m": 37.325363766462857, "tree_class": "Tree Far", "building_class": "Building Far", "exposure_condition": "Open Exposure" }, "geometry": { "type": "LineString", "coordinates": [ [ -73.987974873945006, 40.749499026089005 ], [ -73.987770356401001, 40.749795276561009 ] ] } },
{ "type": "Feature", "properties": { "segment_id": "SEG_0006", "tree_distance_m": 53.611567657831323, "building_distance_m": 41.450937729350009, "tree_class": "Tree Far", "building_class": "Building Far", "exposure_condition": "Open Exposure" }, "geometry": { "type": "LineString", "coordinates": [ [ -73.987974873945006, 40.749499026089005 ], [ -73.987938172371997, 40.749863214209995 ] ] } },
{ "type": "Feature", "properties": { "segment_id": "SEG_0007", "tree_distance_m": 47.857494750079248, "building_distance_m": 28.066107667234402, "tree_class": "Tree Far", "building_class": "Building Far", "exposure_condition": "Open Exposure" }, "geometry": { "type": "LineString", "coordinates": [ [ -73.987770356401001, 40.749795276561009 ], [ -73.987938172371997, 40.749863214209995 ] ] } },
{ "type": "Feature", "properties": { "segment_id": "SEG_0008", "tree_distance_m": 52.595827642723002, "building_distance_m": 13.825922288640017, "tree_class": "Tree Far", "building_class": "Building Near", "exposure_condition": "High Visual Exposure" }, "geometry": { "type": "LineString", "coordinates": [ [ -73.987770356401001, 40.749795276561009 ], [ -73.98729506734901, 40.750459856589998 ] ] } },
{ "type": "Feature", "properties": { "segment_id": "SEG_0009", "tree_distance_m": 79.17651587366359, "building_distance_m": 19.538796146727666, "tree_class": "Tree Far", "building_class": "Building Far", "exposure_condition": "Open Exposure" }, "geometry": { "type": "LineString", "coordinates": [ [ -73.987938172371997, 40.749863214209995 ], [ -73.987780396469006, 40.750668961757 ] ] } },
{ "type": "Feature", "properties": { "segment_id": "SEG_0010", "tree_distance_m": 83.50458747242854, "building_distance_m": 11.012235142497756, "tree_class": "Tree Far", "building_class": "Building Near", "exposure_condition": "High Visual Exposure" }, "geometry": { "type": "LineString", "coordinates": [ [ -73.987153995637001, 40.750400689984005 ], [ -73.98729506734901, 40.750459856589998 ] ] } },
{ "type": "Feature", "properties": { "segment_id": "SEG_0011", "tree_distance_m": 32.574750829436887, "building_distance_m": 10.260044307198049, "tree_class": "Tree Near", "building_class": "Building Near", "exposure_condition": "Screened Exposure" }, "geometry": { "type": "LineString", "coordinates": [ [ -73.984077656669996, 40.749110372489 ], [ -73.984366425671993, 40.749231497601023 ] ] } },
{ "type": "Feature", "properties": { "segment_id": "SEG_0012", "tree_distance_m": 11.857154462115417, "building_distance_m": 9.1902603729838255, "tree_class": "Tree Near", "building_class": "Building Near", "exposure_condition": "Screened Exposure" }, "geometry": { "type": "LineString", "coordinates": [ [ -73.983622880070996, 40.749732019398998 ], [ -73.982025940129006, 40.749057787568994 ] ] } },
{ "type": "Feature", "properties": { "segment_id": "SEG_0013", "tree_distance_m": 12.171935734688425, "building_distance_m": 15.2490253806446, "tree_class": "Tree Near", "building_class": "Building Far", "exposure_condition": "Low Visual Exposure" }, "geometry": { "type": "LineString", "coordinates": [ [ -73.984077656669996, 40.749110372489 ], [ -73.983622880070996, 40.749732019398998 ] ] } },
{ "type": "Feature", "properties": { "segment_id": "SEG_0014", "tree_distance_m": 76.967776370302317, "building_distance_m": 8.8639389107119921, "tree_class": "Tree Far", "building_class": "Building Near", "exposure_condition": "High Visual Exposure" }, "geometry": { "type": "LineString", "coordinates": [ [ -73.984366425671993, 40.749231497601023 ], [ -73.987153995637001, 40.750400689984005 ] ] } },
{ "type": "Feature", "properties": { "segment_id": "SEG_0015", "tree_distance_m": 9.1480034547111018, "building_distance_m": 13.491110676828363, "tree_class": "Tree Near", "building_class": "Building Near", "exposure_condition": "Screened Exposure" }, "geometry": { "type": "LineString", "coordinates": [ [ -73.983622880070996, 40.749732019398998 ], [ -73.983175458439007, 40.75035045707299 ] ] } },
{ "type": "Feature", "properties": { "segment_id": "SEG_0016", "tree_distance_m": 83.212293846294642, "building_distance_m": 8.5222867187927935, "tree_class": "Tree Far", "building_class": "Building Near", "exposure_condition": "High Visual Exposure" }, "geometry": { "type": "LineString", "coordinates": [ [ -73.983622880070996, 40.749732019398998 ], [ -73.985096389247005, 40.750351867807993 ], [ -73.986851208049004, 40.75108992680201 ] ] } },
{ "type": "Feature", "properties": { "segment_id": "SEG_0017", "tree_distance_m": 8.5231784685457406, "building_distance_m": 14.94080543171601, "tree_class": "Tree Near", "building_class": "Building Far", "exposure_condition": "Low Visual Exposure" }, "geometry": { "type": "LineString", "coordinates": [ [ -73.983175458439007, 40.75035045707299 ], [ -73.98272517025201, 40.750967192469986 ] ] } },
{ "type": "Feature", "properties": { "segment_id": "SEG_0018", "tree_distance_m": 4.7811150460639338, "building_distance_m": 10.256378138467413, "tree_class": "Tree Near", "building_class": "Building Near", "exposure_condition": "Screened Exposure" }, "geometry": { "type": "LineString", "coordinates": [ [ -73.983175458439007, 40.75035045707299 ], [ -73.986400605143004, 40.751708233784996 ] ] } },
{ "type": "Feature", "properties": { "segment_id": "SEG_0019", "tree_distance_m": 71.652007650197334, "building_distance_m": 9.17455840120296, "tree_class": "Tree Far", "building_class": "Building Near", "exposure_condition": "High Visual Exposure" }, "geometry": { "type": "LineString", "coordinates": [ [ -73.98272517025201, 40.750967192469986 ], [ -73.985947828041006, 40.752325053232006 ] ] } },
{ "type": "Feature", "properties": { "segment_id": "SEG_0020", "tree_distance_m": 56.191599275651157, "building_distance_m": 15.157079599463845, "tree_class": "Tree Far", "building_class": "Building Far", "exposure_condition": "Open Exposure" }, "geometry": { "type": "LineString", "coordinates": [ [ -73.986400605143004, 40.751708233784996 ], [ -73.985947828041006, 40.752325053232006 ] ] } },
{ "type": "Feature", "properties": { "segment_id": "SEG_0021", "tree_distance_m": 84.122372485224417, "building_distance_m": 9.8985054274880557, "tree_class": "Tree Far", "building_class": "Building Near", "exposure_condition": "High Visual Exposure" }, "geometry": { "type": "LineString", "coordinates": [ [ -73.98729506734901, 40.750459856589998 ], [ -73.987780396469006, 40.750668961757 ] ] } },
{ "type": "Feature", "properties": { "segment_id": "SEG_0022", "tree_distance_m": 49.887536568052205, "building_distance_m": 15.238330240909637, "tree_class": "Tree Far", "building_class": "Building Far", "exposure_condition": "Open Exposure" }, "geometry": { "type": "LineString", "coordinates": [ [ -73.98729506734901, 40.750459856589998 ], [ -73.987116703661997, 40.750713049671013 ], [ -73.986851208049004, 40.75108992680201 ] ] } },
{ "type": "Feature", "properties": { "segment_id": "SEG_0023", "tree_distance_m": 48.640128919382029, "building_distance_m": 15.665007538256656, "tree_class": "Tree Far", "building_class": "Building Far", "exposure_condition": "Open Exposure" }, "geometry": { "type": "LineString", "coordinates": [ [ -73.987780396469006, 40.750668961757 ], [ -73.987645834873007, 40.751427479343988 ] ] } },
{ "type": "Feature", "properties": { "segment_id": "SEG_0024", "tree_distance_m": 5.5999682115351757, "building_distance_m": 9.6459267201531596, "tree_class": "Tree Near", "building_class": "Building Near", "exposure_condition": "Screened Exposure" }, "geometry": { "type": "LineString", "coordinates": [ [ -73.986851208049004, 40.75108992680201 ], [ -73.987645834873007, 40.751427479343988 ] ] } },
{ "type": "Feature", "properties": { "segment_id": "SEG_0025", "tree_distance_m": 15.513938319413928, "building_distance_m": 15.637922997187315, "tree_class": "Tree Near", "building_class": "Building Far", "exposure_condition": "Low Visual Exposure" }, "geometry": { "type": "LineString", "coordinates": [ [ -73.986851208049004, 40.75108992680201 ], [ -73.986400605143004, 40.751708233784996 ] ] } },
{ "type": "Feature", "properties": { "segment_id": "SEG_0026", "tree_distance_m": 15.889857490489476, "building_distance_m": 15.330125754394366, "tree_class": "Tree Near", "building_class": "Building Far", "exposure_condition": "Low Visual Exposure" }, "geometry": { "type": "LineString", "coordinates": [ [ -73.987645834873007, 40.751427479343988 ], [ -73.987492315782006, 40.752167183131014 ] ] } },
{ "type": "Feature", "properties": { "segment_id": "SEG_0027", "tree_distance_m": 53.03368859402007, "building_distance_m": 8.9379255899755758, "tree_class": "Tree Far", "building_class": "Building Near", "exposure_condition": "High Visual Exposure" }, "geometry": { "type": "LineString", "coordinates": [ [ -73.986400605143004, 40.751708233784996 ], [ -73.987492315782006, 40.752167183131014 ] ] } },
{ "type": "Feature", "properties": { "segment_id": "SEG_0028", "tree_distance_m": 95.539979886874335, "building_distance_m": 15.48396770443795, "tree_class": "Tree Far", "building_class": "Building Far", "exposure_condition": "Open Exposure" }, "geometry": { "type": "LineString", "coordinates": [ [ -73.987492315782006, 40.752167183131014 ], [ -73.987311617523005, 40.752900670773982 ] ] } },
{ "type": "Feature", "properties": { "segment_id": "SEG_0029", "tree_distance_m": 126.05838689320004, "building_distance_m": 9.0689871697860891, "tree_class": "Tree Far", "building_class": "Building Near", "exposure_condition": "High Visual Exposure" }, "geometry": { "type": "LineString", "coordinates": [ [ -73.985947828041006, 40.752325053232006 ], [ -73.987311617523005, 40.752900670773982 ] ] } },
{ "type": "Feature", "properties": { "segment_id": "SEG_0030", "tree_distance_m": 64.488353306464575, "building_distance_m": 15.656098021932575, "tree_class": "Tree Far", "building_class": "Building Far", "exposure_condition": "Open Exposure" }, "geometry": { "type": "LineString", "coordinates": [ [ -73.987311617523005, 40.752900670773982 ], [ -73.987089923376999, 40.753614963192014 ] ] } },
{ "type": "Feature", "properties": { "segment_id": "SEG_0031", "tree_distance_m": 6.767653430634347, "building_distance_m": 9.08226336176436, "tree_class": "Tree Near", "building_class": "Building Near", "exposure_condition": "Screened Exposure" }, "geometry": { "type": "LineString", "coordinates": [ [ -73.982276199667993, 40.751585546568982 ], [ -73.985489487248003, 40.752943427467009 ] ] } },
{ "type": "Feature", "properties": { "segment_id": "SEG_0032", "tree_distance_m": 80.836546213276975, "building_distance_m": 15.052860968059269, "tree_class": "Tree Far", "building_class": "Building Far", "exposure_condition": "Open Exposure" }, "geometry": { "type": "LineString", "coordinates": [ [ -73.985947828041006, 40.752325053232006 ], [ -73.985489487248003, 40.752943427467009 ] ] } },
{ "type": "Feature", "properties": { "segment_id": "SEG_0033", "tree_distance_m": 73.736852816407378, "building_distance_m": 9.1865657545238388, "tree_class": "Tree Far", "building_class": "Building Near", "exposure_condition": "High Visual Exposure" }, "geometry": { "type": "LineString", "coordinates": [ [ -73.981823738616995, 40.752205375223006 ], [ -73.983459959876996, 40.752894698731993 ], [ -73.983607423413019, 40.75295682189001 ], [ -73.985044934377001, 40.753562396667995 ] ] } },
{ "type": "Feature", "properties": { "segment_id": "SEG_0034", "tree_distance_m": 76.007305059616101, "building_distance_m": 14.905254269714272, "tree_class": "Tree Far", "building_class": "Building Far", "exposure_condition": "Open Exposure" }, "geometry": { "type": "LineString", "coordinates": [ [ -73.985489487248003, 40.752943427467009 ], [ -73.985044934377001, 40.753562396667995 ] ] } },
{ "type": "Feature", "properties": { "segment_id": "SEG_0035", "tree_distance_m": 94.435474518378143, "building_distance_m": 8.9502380249440314, "tree_class": "Tree Far", "building_class": "Building Near", "exposure_condition": "High Visual Exposure" }, "geometry": { "type": "LineString", "coordinates": [ [ -73.985489487248003, 40.752943427467009 ], [ -73.987089923376999, 40.753614963192014 ] ] } },
{ "type": "Feature", "properties": { "segment_id": "SEG_0036", "tree_distance_m": 132.0436573483002, "building_distance_m": 15.211504058120985, "tree_class": "Tree Far", "building_class": "Building Far", "exposure_condition": "Open Exposure" }, "geometry": { "type": "LineString", "coordinates": [ [ -73.985044934377001, 40.753562396667995 ], [ -73.984597139024004, 40.754185190461996 ] ] } },
{ "type": "Feature", "properties": { "segment_id": "SEG_0037", "tree_distance_m": 94.066239699452098, "building_distance_m": 9.3453868703523035, "tree_class": "Tree Far", "building_class": "Building Near", "exposure_condition": "High Visual Exposure" }, "geometry": { "type": "LineString", "coordinates": [ [ -73.985044934377001, 40.753562396667995 ], [ -73.986866875326001, 40.754326067271009 ] ] } },
{ "type": "Feature", "properties": { "segment_id": "SEG_0038", "tree_distance_m": 21.293171036374034, "building_distance_m": 14.598171948851922, "tree_class": "Tree Near", "building_class": "Building Near", "exposure_condition": "Screened Exposure" }, "geometry": { "type": "LineString", "coordinates": [ [ -73.980888393886005, 40.753489237314994 ], [ -73.984118844291999, 40.754850301700003 ] ] } },
{ "type": "Feature", "properties": { "segment_id": "SEG_0039", "tree_distance_m": 59.954289925483891, "building_distance_m": 17.799585034995982, "tree_class": "Tree Far", "building_class": "Building Far", "exposure_condition": "Open Exposure" }, "geometry": { "type": "LineString", "coordinates": [ [ -73.984597139024004, 40.754185190461996 ], [ -73.984118844291999, 40.754850301700003 ] ] } },
{ "type": "Feature", "properties": { "segment_id": "SEG_0040", "tree_distance_m": 128.02626917231569, "building_distance_m": 9.3524961860901179, "tree_class": "Tree Far", "building_class": "Building Near", "exposure_condition": "High Visual Exposure" }, "geometry": { "type": "LineString", "coordinates": [ [ -73.984597139024004, 40.754185190461996 ], [ -73.986640422567007, 40.755042771347995 ] ] } },
{ "type": "Feature", "properties": { "segment_id": "SEG_0041", "tree_distance_m": 10.382027248745926, "building_distance_m": 13.802024437520988, "tree_class": "Tree Near", "building_class": "Building Near", "exposure_condition": "Screened Exposure" }, "geometry": { "type": "LineString", "coordinates": [ [ -73.987089923376999, 40.753614963192014 ], [ -73.986866875326001, 40.754326067271009 ] ] } },
{ "type": "Feature", "properties": { "segment_id": "SEG_0042", "tree_distance_m": 49.901103029536564, "building_distance_m": 9.258919008322529, "tree_class": "Tree Far", "building_class": "Building Near", "exposure_condition": "High Visual Exposure" }, "geometry": { "type": "LineString", "coordinates": [ [ -73.986866875326001, 40.754326067271009 ], [ -73.987892926642004, 40.754757639093022 ] ] } },
{ "type": "Feature", "properties": { "segment_id": "SEG_0043", "tree_distance_m": 60.235739621838576, "building_distance_m": 15.36980151137757, "tree_class": "Tree Far", "building_class": "Building Far", "exposure_condition": "Open Exposure" }, "geometry": { "type": "LineString", "coordinates": [ [ -73.986866875326001, 40.754326067271009 ], [ -73.986640422567007, 40.755042771347995 ] ] } },
{ "type": "Feature", "properties": { "segment_id": "SEG_0044", "tree_distance_m": 47.023506684310838, "building_distance_m": 14.599011699527763, "tree_class": "Tree Far", "building_class": "Building Far", "exposure_condition": "Open Exposure" }, "geometry": { "type": "LineString", "coordinates": [ [ -73.987892926642004, 40.754757639093022 ], [ -73.987447719578, 40.755381209221994 ] ] } },
{ "type": "Feature", "properties": { "segment_id": "SEG_0045", "tree_distance_m": 102.21239649761458, "building_distance_m": 9.359994708541997, "tree_class": "Tree Far", "building_class": "Building Near", "exposure_condition": "High Visual Exposure" }, "geometry": { "type": "LineString", "coordinates": [ [ -73.986640422567007, 40.755042771347995 ], [ -73.987447719578, 40.755381209221994 ] ] } },
{ "type": "Feature", "properties": { "segment_id": "SEG_0046", "tree_distance_m": 120.78694266598997, "building_distance_m": 16.335425831155003, "tree_class": "Tree Far", "building_class": "Building Far", "exposure_condition": "Open Exposure" }, "geometry": { "type": "LineString", "coordinates": [ [ -73.987447719578, 40.755381209221994 ], [ -73.986950035562003, 40.756044151139989 ] ] } },
{ "type": "Feature", "properties": { "segment_id": "SEG_0047", "tree_distance_m": 169.43917768370173, "building_distance_m": 14.502005082926679, "tree_class": "Tree Far", "building_class": "Building Near", "exposure_condition": "High Visual Exposure" }, "geometry": { "type": "LineString", "coordinates": [ [ -73.986405663940999, 40.755816278139008 ], [ -73.986950035562003, 40.756044151139989 ] ] } },
{ "type": "Feature", "properties": { "segment_id": "SEG_0048", "tree_distance_m": 204.24539403619497, "building_distance_m": 15.281013514133534, "tree_class": "Tree Far", "building_class": "Building Far", "exposure_condition": "Open Exposure" }, "geometry": { "type": "LineString", "coordinates": [ [ -73.986950035562003, 40.756044151139989 ], [ -73.986459551794994, 40.756718320456002 ] ] } },
{ "type": "Feature", "properties": { "segment_id": "SEG_0049", "tree_distance_m": 49.01595117426519, "building_distance_m": 16.081302686184635, "tree_class": "Tree Far", "building_class": "Building Far", "exposure_condition": "Open Exposure" }, "geometry": { "type": "LineString", "coordinates": [ [ -73.984118844291999, 40.754850301700003 ], [ -73.983625628466996, 40.755524594220006 ] ] } },
{ "type": "Feature", "properties": { "segment_id": "SEG_0050", "tree_distance_m": 113.32114414411203, "building_distance_m": 14.770533192280606, "tree_class": "Tree Far", "building_class": "Building Far", "exposure_condition": "Open Exposure" }, "geometry": { "type": "LineString", "coordinates": [ [ -73.984118844291999, 40.754850301700003 ], [ -73.986405663940999, 40.755816278139008 ] ] } },
{ "type": "Feature", "properties": { "segment_id": "SEG_0051", "tree_distance_m": 144.79554304212181, "building_distance_m": 15.379018422026384, "tree_class": "Tree Far", "building_class": "Building Far", "exposure_condition": "Open Exposure" }, "geometry": { "type": "LineString", "coordinates": [ [ -73.986640422567007, 40.755042771347995 ], [ -73.986405663940999, 40.755816278139008 ] ] } },
{ "type": "Feature", "properties": { "segment_id": "SEG_0052", "tree_distance_m": 40.04334539774306, "building_distance_m": 16.170129989437683, "tree_class": "Tree Far", "building_class": "Building Far", "exposure_condition": "Open Exposure" }, "geometry": { "type": "LineString", "coordinates": [ [ -73.983625628466996, 40.755524594220006 ], [ -73.983169256965994, 40.756148470659987 ] ] } },
{ "type": "Feature", "properties": { "segment_id": "SEG_0053", "tree_distance_m": 78.248120531690688, "building_distance_m": 9.2740127427328947, "tree_class": "Tree Far", "building_class": "Building Near", "exposure_condition": "High Visual Exposure" }, "geometry": { "type": "LineString", "coordinates": [ [ -73.983625628466996, 40.755524594220006 ], [ -73.986107954001014, 40.756568977102006 ] ] } },
{ "type": "Feature", "properties": { "segment_id": "SEG_0054", "tree_distance_m": 194.45290411590895, "building_distance_m": 13.632055472363238, "tree_class": "Tree Far", "building_class": "Building Near", "exposure_condition": "High Visual Exposure" }, "geometry": { "type": "LineString", "coordinates": [ [ -73.986405663940999, 40.755816278139008 ], [ -73.986107954001014, 40.756568977102006 ] ] } },
{ "type": "Feature", "properties": { "segment_id": "SEG_0055", "tree_distance_m": 43.791256353244918, "building_distance_m": 16.236976340405516, "tree_class": "Tree Far", "building_class": "Building Far", "exposure_condition": "Open Exposure" }, "geometry": { "type": "LineString", "coordinates": [ [ -73.983169256965994, 40.756148470659987 ], [ -73.982713348507005, 40.756779477389998 ] ] } },
{ "type": "Feature", "properties": { "segment_id": "SEG_0056", "tree_distance_m": 203.82333483538426, "building_distance_m": 9.2623501814600715, "tree_class": "Tree Far", "building_class": "Building Near", "exposure_condition": "High Visual Exposure" }, "geometry": { "type": "LineString", "coordinates": [ [ -73.986107954001014, 40.756568977102006 ], [ -73.986459551794994, 40.756718320456002 ] ] } },
{ "type": "Feature", "properties": { "segment_id": "SEG_0057", "tree_distance_m": 9.3916093137202115, "building_distance_m": 12.594596115223496, "tree_class": "Tree Near", "building_class": "Building Near", "exposure_condition": "Screened Exposure" }, "geometry": { "type": "LineString", "coordinates": [ [ -73.980047466246006, 40.749031824181998 ], [ -73.979598614270003, 40.749650852716975 ] ] } },
{ "type": "Feature", "properties": { "segment_id": "SEG_0058", "tree_distance_m": 4.8095228403515877, "building_distance_m": 10.669629596466503, "tree_class": "Tree Near", "building_class": "Building Near", "exposure_condition": "Screened Exposure" }, "geometry": { "type": "LineString", "coordinates": [ [ -73.981573991673997, 40.749676336817998 ], [ -73.980047466246006, 40.749031824181998 ] ] } },
{ "type": "Feature", "properties": { "segment_id": "SEG_0059", "tree_distance_m": 7.3823538552939185, "building_distance_m": 12.609326679033913, "tree_class": "Tree Near", "building_class": "Building Near", "exposure_condition": "Screened Exposure" }, "geometry": { "type": "LineString", "coordinates": [ [ -73.982025940129006, 40.749057787568994 ], [ -73.981573991673997, 40.749676336817998 ] ] } },
{ "type": "Feature", "properties": { "segment_id": "SEG_0060", "tree_distance_m": 15.321254841018282, "building_distance_m": 19.24199769887716, "tree_class": "Tree Near", "building_class": "Building Far", "exposure_condition": "Low Visual Exposure" }, "geometry": { "type": "LineString", "coordinates": [ [ -73.979598614270003, 40.749650852716975 ], [ -73.979504987824996, 40.749611591757009 ] ] } },
{ "type": "Feature", "properties": { "segment_id": "SEG_0061", "tree_distance_m": 8.364209555455508, "building_distance_m": 9.6622866248342092, "tree_class": "Tree Near", "building_class": "Building Near", "exposure_condition": "Screened Exposure" }, "geometry": { "type": "LineString", "coordinates": [ [ -73.981124523486002, 40.750290706209988 ], [ -73.980660657279003, 40.750096201118993 ], [ -73.979598614270003, 40.749650852716975 ] ] } },
{ "type": "Feature", "properties": { "segment_id": "SEG_0062", "tree_distance_m": 9.3774599361554039, "building_distance_m": 11.455592154739394, "tree_class": "Tree Near", "building_class": "Building Near", "exposure_condition": "Screened Exposure" }, "geometry": { "type": "LineString", "coordinates": [ [ -73.981573991673997, 40.749676336817998 ], [ -73.981124523486002, 40.750290706209988 ] ] } },
{ "type": "Feature", "properties": { "segment_id": "SEG_0063", "tree_distance_m": 20.924327477182814, "building_distance_m": 9.0735596451893041, "tree_class": "Tree Near", "building_class": "Building Near", "exposure_condition": "Screened Exposure" }, "geometry": { "type": "LineString", "coordinates": [ [ -73.983175458439007, 40.75035045707299 ], [ -73.981573991673997, 40.749676336817998 ] ] } },
{ "type": "Feature", "properties": { "segment_id": "SEG_0064", "tree_distance_m": 36.161542745723025, "building_distance_m": 2.6501771001152465, "tree_class": "Tree Far", "building_class": "Building Near", "exposure_condition": "High Visual Exposure" }, "geometry": { "type": "LineString", "coordinates": [ [ -73.98022095492, 40.750720807618009 ], [ -73.980247383573996, 40.750684260297014 ], [ -73.980452354300994, 40.750400797829997 ], [ -73.980455767544996, 40.750389884249017 ], [ -73.980459122620999, 40.750377503297017 ], [ -73.980461588010002, 40.750369452743996 ], [ -73.980463222755006, 40.750367211186997 ], [ -73.980594320389002, 40.750186897828016 ], [ -73.980600290769004, 40.750178704125013 ], [ -73.980632677120994, 40.750134431914013 ], [ -73.980660657279003, 40.750096201118993 ] ] } },
{ "type": "Feature", "properties": { "segment_id": "SEG_0065", "tree_distance_m": 9.3434174091226811, "building_distance_m": 9.4140323964599855, "tree_class": "Tree Near", "building_class": "Building Near", "exposure_condition": "Screened Exposure" }, "geometry": { "type": "LineString", "coordinates": [ [ -73.980674747877998, 40.750913349534002 ], [ -73.98022095492, 40.750720807618009 ], [ -73.979148901794005, 40.750265943938999 ] ] } },
{ "type": "Feature", "properties": { "segment_id": "SEG_0066", "tree_distance_m": 40.958594519321146, "building_distance_m": 11.7009166553205, "tree_class": "Tree Far", "building_class": "Building Near", "exposure_condition": "High Visual Exposure" }, "geometry": { "type": "LineString", "coordinates": [ [ -73.981124523486002, 40.750290706209988 ], [ -73.980674747877998, 40.750913349534002 ] ] } },
{ "type": "Feature", "properties": { "segment_id": "SEG_0067", "tree_distance_m": 15.285815663056317, "building_distance_m": 18.713110407030026, "tree_class": "Tree Near", "building_class": "Building Far", "exposure_condition": "Low Visual Exposure" }, "geometry": { "type": "LineString", "coordinates": [ [ -73.979504987824996, 40.749611591757009 ], [ -73.979401522979998, 40.74956791699401 ] ] } },
{ "type": "Feature", "properties": { "segment_id": "SEG_0068", "tree_distance_m": 6.4343026962081176, "building_distance_m": 11.633016292792492, "tree_class": "Tree Near", "building_class": "Building Near", "exposure_condition": "Screened Exposure" }, "geometry": { "type": "LineString", "coordinates": [ [ -73.979401522979998, 40.74956791699401 ], [ -73.978951193276004, 40.75018385368201 ] ] } },
{ "type": "Feature", "properties": { "segment_id": "SEG_0069", "tree_distance_m": 1.9850219340262363, "building_distance_m": 21.670226116235998, "tree_class": "Tree Near", "building_class": "Building Far", "exposure_condition": "Low Visual Exposure" }, "geometry": { "type": "LineString", "coordinates": [ [ -73.979504987824996, 40.749611591757009 ], [ -73.979056376368007, 40.750226790870997 ] ] } },
{ "type": "Feature", "properties": { "segment_id": "SEG_0070", "tree_distance_m": 5.2239905218997889, "building_distance_m": 13.089993211866165, "tree_class": "Tree Near", "building_class": "Building Near", "exposure_condition": "Screened Exposure" }, "geometry": { "type": "LineString", "coordinates": [ [ -73.979598614270003, 40.749650852716975 ], [ -73.979148901794005, 40.750265943938999 ] ] } },
{ "type": "Feature", "properties": { "segment_id": "SEG_0071", "tree_distance_m": 12.343826394487051, "building_distance_m": 18.090801246033731, "tree_class": "Tree Near", "building_class": "Building Far", "exposure_condition": "Low Visual Exposure" }, "geometry": { "type": "LineString", "coordinates": [ [ -73.979056376368007, 40.750226790870997 ], [ -73.978951193276004, 40.75018385368201 ] ] } },
{ "type": "Feature", "properties": { "segment_id": "SEG_0072", "tree_distance_m": 12.257407696203067, "building_distance_m": 19.712393027201419, "tree_class": "Tree Near", "building_class": "Building Far", "exposure_condition": "Low Visual Exposure" }, "geometry": { "type": "LineString", "coordinates": [ [ -73.979148901794005, 40.750265943938999 ], [ -73.979056376368007, 40.750226790870997 ] ] } },
{ "type": "Feature", "properties": { "segment_id": "SEG_0073", "tree_distance_m": 5.7706576739691249, "building_distance_m": 10.961745405440514, "tree_class": "Tree Near", "building_class": "Building Near", "exposure_condition": "Screened Exposure" }, "geometry": { "type": "LineString", "coordinates": [ [ -73.978951193276004, 40.75018385368201 ], [ -73.978486327859002, 40.750796489934011 ] ] } },
{ "type": "Feature", "properties": { "segment_id": "SEG_0074", "tree_distance_m": 14.458698027808037, "building_distance_m": 21.975439146854242, "tree_class": "Tree Near", "building_class": "Building Far", "exposure_condition": "Low Visual Exposure" }, "geometry": { "type": "LineString", "coordinates": [ [ -73.979056376368007, 40.750226790870997 ], [ -73.978608535399999, 40.750850732521002 ] ] } },
{ "type": "Feature", "properties": { "segment_id": "SEG_0075", "tree_distance_m": 6.594593001526535, "building_distance_m": 17.212645396068702, "tree_class": "Tree Near", "building_class": "Building Far", "exposure_condition": "Low Visual Exposure" }, "geometry": { "type": "LineString", "coordinates": [ [ -73.979148901794005, 40.750265943938999 ], [ -73.978707715826999, 40.750892894268993 ] ] } },
{ "type": "Feature", "properties": { "segment_id": "SEG_0076", "tree_distance_m": 22.396593211039185, "building_distance_m": 18.786295551075838, "tree_class": "Tree Near", "building_class": "Building Far", "exposure_condition": "Low Visual Exposure" }, "geometry": { "type": "LineString", "coordinates": [ [ -73.978608535399999, 40.750850732521002 ], [ -73.978486327859002, 40.750796489934011 ] ] } },
{ "type": "Feature", "properties": { "segment_id": "SEG_0077", "tree_distance_m": 18.78062029549378, "building_distance_m": 21.442585416272674, "tree_class": "Tree Near", "building_class": "Building Far", "exposure_condition": "Low Visual Exposure" }, "geometry": { "type": "LineString", "coordinates": [ [ -73.978486327859002, 40.750796489934011 ], [ -73.978556611997007, 40.750922214136999 ] ] } },
{ "type": "Feature", "properties": { "segment_id": "SEG_0078", "tree_distance_m": 21.974600658453674, "building_distance_m": 18.686219127268533, "tree_class": "Tree Near", "building_class": "Building Far", "exposure_condition": "Low Visual Exposure" }, "geometry": { "type": "LineString", "coordinates": [ [ -73.978707715826999, 40.750892894268993 ], [ -73.978608535399999, 40.750850732521002 ] ] } },
{ "type": "Feature", "properties": { "segment_id": "SEG_0079", "tree_distance_m": 23.063295203060488, "building_distance_m": 21.525547589748346, "tree_class": "Tree Near", "building_class": "Building Far", "exposure_condition": "Low Visual Exposure" }, "geometry": { "type": "LineString", "coordinates": [ [ -73.978608535399999, 40.750850732521002 ], [ -73.978556611997007, 40.750922214136999 ] ] } },
{ "type": "Feature", "properties": { "segment_id": "SEG_0080", "tree_distance_m": 26.208072237989395, "building_distance_m": 16.878618335531058, "tree_class": "Tree Near", "building_class": "Building Far", "exposure_condition": "Low Visual Exposure" }, "geometry": { "type": "LineString", "coordinates": [ [ -73.978707715826999, 40.750892894268993 ], [ -73.978556611997007, 40.750922214136999 ] ] } },
{ "type": "Feature", "properties": { "segment_id": "SEG_0081", "tree_distance_m": 5.7156795830948335, "building_distance_m": 33.85906079139145, "tree_class": "Tree Near", "building_class": "Building Far", "exposure_condition": "Low Visual Exposure" }, "geometry": { "type": "LineString", "coordinates": [ [ -73.978486327859002, 40.750796489934011 ], [ -73.978437782613, 40.750859426787997 ], [ -73.978015462494, 40.751406944435999 ] ] } },
{ "type": "Feature", "properties": { "segment_id": "SEG_0082", "tree_distance_m": 17.897179104736757, "building_distance_m": 21.312907189646364, "tree_class": "Tree Near", "building_class": "Building Far", "exposure_condition": "Low Visual Exposure" }, "geometry": { "type": "LineString", "coordinates": [ [ -73.978556611997007, 40.750922214136999 ], [ -73.978154464344996, 40.751459995573015 ] ] } },
{ "type": "Feature", "properties": { "segment_id": "SEG_0083", "tree_distance_m": 28.747028446669084, "building_distance_m": 10.537445347132357, "tree_class": "Tree Near", "building_class": "Building Near", "exposure_condition": "Screened Exposure" }, "geometry": { "type": "LineString", "coordinates": [ [ -73.978707715826999, 40.750892894268993 ], [ -73.978662567678001, 40.750958253768999 ], [ -73.978277926301004, 40.751512843753005 ] ] } },
{ "type": "Feature", "properties": { "segment_id": "SEG_0084", "tree_distance_m": 14.11606870367369, "building_distance_m": 9.432053075112524, "tree_class": "Tree Near", "building_class": "Building Near", "exposure_condition": "Screened Exposure" }, "geometry": { "type": "LineString", "coordinates": [ [ -73.980222194316994, 40.751530227337014 ], [ -73.978707715826999, 40.750892894268993 ] ] } },
{ "type": "Feature", "properties": { "segment_id": "SEG_0085", "tree_distance_m": 25.038996251542169, "building_distance_m": 29.639294111018184, "tree_class": "Tree Near", "building_class": "Building Far", "exposure_condition": "Low Visual Exposure" }, "geometry": { "type": "LineString", "coordinates": [ [ -73.978154464344996, 40.751459995573015 ], [ -73.978015462494, 40.751406944435999 ] ] } },
{ "type": "Feature", "properties": { "segment_id": "SEG_0086", "tree_distance_m": 30.693842927960471, "building_distance_m": 17.99106969924668, "tree_class": "Tree Near", "building_class": "Building Far", "exposure_condition": "Low Visual Exposure" }, "geometry": { "type": "LineString", "coordinates": [ [ -73.978277926301004, 40.751512843753005 ], [ -73.978154464344996, 40.751459995573015 ] ] } },
{ "type": "Feature", "properties": { "segment_id": "SEG_0087", "tree_distance_m": 49.959482423304586, "building_distance_m": 9.4418772758276255, "tree_class": "Tree Far", "building_class": "Building Near", "exposure_condition": "High Visual Exposure" }, "geometry": { "type": "LineString", "coordinates": [ [ -73.98272517025201, 40.750967192469986 ], [ -73.981124523486002, 40.750290706209988 ] ] } },
{ "type": "Feature", "properties": { "segment_id": "SEG_0088", "tree_distance_m": 21.28030306445963, "building_distance_m": 11.55844324012123, "tree_class": "Tree Near", "building_class": "Building Near", "exposure_condition": "Screened Exposure" }, "geometry": { "type": "LineString", "coordinates": [ [ -73.980674747877998, 40.750913349534002 ], [ -73.980222194316994, 40.751530227337014 ] ] } },
{ "type": "Feature", "properties": { "segment_id": "SEG_0089", "tree_distance_m": 9.0028660311258797, "building_distance_m": 9.2284949860312935, "tree_class": "Tree Near", "building_class": "Building Near", "exposure_condition": "Screened Exposure" }, "geometry": { "type": "LineString", "coordinates": [ [ -73.982276199667993, 40.751585546568982 ], [ -73.980674747877998, 40.750913349534002 ] ] } },
{ "type": "Feature", "properties": { "segment_id": "SEG_0090", "tree_distance_m": 10.122590044562187, "building_distance_m": 13.150364065766235, "tree_class": "Tree Near", "building_class": "Building Near", "exposure_condition": "Screened Exposure" }, "geometry": { "type": "LineString", "coordinates": [ [ -73.98272517025201, 40.750967192469986 ], [ -73.982276199667993, 40.751585546568982 ] ] } },
{ "type": "Feature", "properties": { "segment_id": "SEG_0091", "tree_distance_m": 49.821394233621945, "building_distance_m": 11.24924655327677, "tree_class": "Tree Far", "building_class": "Building Near", "exposure_condition": "High Visual Exposure" }, "geometry": { "type": "LineString", "coordinates": [ [ -73.980222194316994, 40.751530227337014 ], [ -73.979769940861004, 40.752149021368012 ] ] } },
{ "type": "Feature", "properties": { "segment_id": "SEG_0092", "tree_distance_m": 68.454010831002492, "building_distance_m": 8.5336230452548776, "tree_class": "Tree Far", "building_class": "Building Near", "exposure_condition": "High Visual Exposure" }, "geometry": { "type": "LineString", "coordinates": [ [ -73.981823738616995, 40.752205375223006 ], [ -73.980222194316994, 40.751530227337014 ] ] } },
{ "type": "Feature", "properties": { "segment_id": "SEG_0093", "tree_distance_m": 14.909914107480301, "building_distance_m": 15.312469915100467, "tree_class": "Tree Near", "building_class": "Building Far", "exposure_condition": "Low Visual Exposure" }, "geometry": { "type": "LineString", "coordinates": [ [ -73.982276199667993, 40.751585546568982 ], [ -73.981823738616995, 40.752205375223006 ] ] } },
{ "type": "Feature", "properties": { "segment_id": "SEG_0094", "tree_distance_m": 15.714246972508333, "building_distance_m": 10.6084421678898, "tree_class": "Tree Near", "building_class": "Building Near", "exposure_condition": "Screened Exposure" }, "geometry": { "type": "LineString", "coordinates": [ [ -73.981372799080006, 40.752822101050015 ], [ -73.979769940861004, 40.752149021368012 ] ] } },
{ "type": "Feature", "properties": { "segment_id": "SEG_0095", "tree_distance_m": 8.3411879447224848, "building_distance_m": 15.12323431508255, "tree_class": "Tree Near", "building_class": "Building Far", "exposure_condition": "Low Visual Exposure" }, "geometry": { "type": "LineString", "coordinates": [ [ -73.981823738616995, 40.752205375223006 ], [ -73.981372799080006, 40.752822101050015 ] ] } },
{ "type": "Feature", "properties": { "segment_id": "SEG_0096", "tree_distance_m": 10.989168960617308, "building_distance_m": 15.559189464732112, "tree_class": "Tree Near", "building_class": "Building Far", "exposure_condition": "Low Visual Exposure" }, "geometry": { "type": "LineString", "coordinates": [ [ -73.980888393886005, 40.753489237314994 ], [ -73.979288156691993, 40.752808745438024 ] ] } },
{ "type": "Feature", "properties": { "segment_id": "SEG_0097", "tree_distance_m": 36.333665738463893, "building_distance_m": 9.1480391220262653, "tree_class": "Tree Far", "building_class": "Building Near", "exposure_condition": "High Visual Exposure" }, "geometry": { "type": "LineString", "coordinates": [ [ -73.979769940861004, 40.752149021368012 ], [ -73.978277926301004, 40.751512843753005 ] ] } },
{ "type": "Feature", "properties": { "segment_id": "SEG_0098", "tree_distance_m": 7.1302343535559585, "building_distance_m": 12.822466736706174, "tree_class": "Tree Near", "building_class": "Building Near", "exposure_condition": "Screened Exposure" }, "geometry": { "type": "LineString", "coordinates": [ [ -73.979769940861004, 40.752149021368012 ], [ -73.979317664513005, 40.752768366735999 ], [ -73.979288156691993, 40.752808745438024 ] ] } },
{ "type": "Feature", "properties": { "segment_id": "SEG_0099", "tree_distance_m": 57.462567026792307, "building_distance_m": 14.975930228404296, "tree_class": "Tree Far", "building_class": "Building Far", "exposure_condition": "Open Exposure" }, "geometry": { "type": "LineString", "coordinates": [ [ -73.979288156691993, 40.752808745438024 ], [ -73.978772857842998, 40.75259431609998 ], [ -73.978350064479017, 40.752418378089004 ] ] } },
{ "type": "Feature", "properties": { "segment_id": "SEG_0100", "tree_distance_m": 14.053067196554203, "building_distance_m": 12.294935698360215, "tree_class": "Tree Near", "building_class": "Building Near", "exposure_condition": "Screened Exposure" }, "geometry": { "type": "LineString", "coordinates": [ [ -73.979288156691993, 40.752808745438024 ], [ -73.978784508207994, 40.75348846350601 ] ] } },
{ "type": "Feature", "properties": { "segment_id": "SEG_0101", "tree_distance_m": 14.393468674465494, "building_distance_m": 12.280238983757355, "tree_class": "Tree Near", "building_class": "Building Near", "exposure_condition": "Screened Exposure" }, "geometry": { "type": "LineString", "coordinates": [ [ -73.978784508207994, 40.75348846350601 ], [ -73.978333447124996, 40.754108278881006 ] ] } },
{ "type": "Feature", "properties": { "segment_id": "SEG_0102", "tree_distance_m": 15.4730711118684, "building_distance_m": 9.2446528560169732, "tree_class": "Tree Near", "building_class": "Building Near", "exposure_condition": "Screened Exposure" }, "geometry": { "type": "LineString", "coordinates": [ [ -73.979937767097994, 40.754790792233003 ], [ -73.978333447124996, 40.754108278881006 ] ] } },
{ "type": "Feature", "properties": { "segment_id": "SEG_0103", "tree_distance_m": 55.032670266001055, "building_distance_m": 15.102350510249295, "tree_class": "Tree Far", "building_class": "Building Far", "exposure_condition": "Open Exposure" }, "geometry": { "type": "LineString", "coordinates": [ [ -73.979484433151995, 40.755413214286008 ], [ -73.979299767334993, 40.755665338217 ], [ -73.979025262682001, 40.756040117102998 ] ] } },
{ "type": "Feature", "properties": { "segment_id": "SEG_0104", "tree_distance_m": 11.972027775899667, "building_distance_m": 15.079323712275086, "tree_class": "Tree Near", "building_class": "Building Far", "exposure_condition": "Low Visual Exposure" }, "geometry": { "type": "LineString", "coordinates": [ [ -73.979025262682001, 40.756040117102998 ], [ -73.978566547697994, 40.75666309214899 ] ] } },
{ "type": "Feature", "properties": { "segment_id": "SEG_0105", "tree_distance_m": 83.270374363398901, "building_distance_m": 15.116587002776043, "tree_class": "Tree Far", "building_class": "Building Far", "exposure_condition": "Open Exposure" }, "geometry": { "type": "LineString", "coordinates": [ [ -73.981372799080006, 40.752822101050015 ], [ -73.980941958878006, 40.753415455986001 ], [ -73.980888393886005, 40.753489237314994 ] ] } },
{ "type": "Feature", "properties": { "segment_id": "SEG_0106", "tree_distance_m": 15.700130253166071, "building_distance_m": 9.3680777715459396, "tree_class": "Tree Near", "building_class": "Building Near", "exposure_condition": "Screened Exposure" }, "geometry": { "type": "LineString", "coordinates": [ [ -73.980396896819997, 40.754163057076006 ], [ -73.978784508207994, 40.75348846350601 ] ] } },
{ "type": "Feature", "properties": { "segment_id": "SEG_0107", "tree_distance_m": 13.469263158154686, "building_distance_m": 15.456927412727325, "tree_class": "Tree Near", "building_class": "Building Far", "exposure_condition": "Low Visual Exposure" }, "geometry": { "type": "LineString", "coordinates": [ [ -73.980888393886005, 40.753489237314994 ], [ -73.980616278932004, 40.753862295824014 ], [ -73.980396896819997, 40.754163057076006 ] ] } },
{ "type": "Feature", "properties": { "segment_id": "SEG_0108", "tree_distance_m": 57.025060618635848, "building_distance_m": 15.357744832588292, "tree_class": "Tree Far", "building_class": "Building Far", "exposure_condition": "Open Exposure" }, "geometry": { "type": "LineString", "coordinates": [ [ -73.980396896819997, 40.754163057076006 ], [ -73.980172019305996, 40.754470517994001 ], [ -73.979937767097994, 40.754790792233003 ] ] } },
{ "type": "Feature", "properties": { "segment_id": "SEG_0109", "tree_distance_m": 79.38068389068566, "building_distance_m": 9.2364713063948933, "tree_class": "Tree Far", "building_class": "Building Near", "exposure_condition": "High Visual Exposure" }, "geometry": { "type": "LineString", "coordinates": [ [ -73.980396896819997, 40.754163057076006 ], [ -73.983625628466996, 40.755524594220006 ] ] } },
{ "type": "Feature", "properties": { "segment_id": "SEG_0110", "tree_distance_m": 72.08231734813026, "building_distance_m": 15.428029939560457, "tree_class": "Tree Far", "building_class": "Building Far", "exposure_condition": "Open Exposure" }, "geometry": { "type": "LineString", "coordinates": [ [ -73.979937767097994, 40.754790792233003 ], [ -73.979484433151995, 40.755413214286008 ] ] } },
{ "type": "Feature", "properties": { "segment_id": "SEG_0111", "tree_distance_m": 10.863806288325655, "building_distance_m": 9.1529949265291712, "tree_class": "Tree Near", "building_class": "Building Near", "exposure_condition": "Screened Exposure" }, "geometry": { "type": "LineString", "coordinates": [ [ -73.979937767097994, 40.754790792233003 ], [ -73.983169256965994, 40.756148470659987 ] ] } },
{ "type": "Feature", "properties": { "segment_id": "SEG_0112", "tree_distance_m": 75.98058835678701, "building_distance_m": 8.8421793159393562, "tree_class": "Tree Far", "building_class": "Building Near", "exposure_condition": "High Visual Exposure" }, "geometry": { "type": "LineString", "coordinates": [ [ -73.979484433151995, 40.755413214286008 ], [ -73.982713348507005, 40.756779477389998 ] ] } }
]
}
