{
"type": "FeatureCollection",
"name": "destroyed_buildings",
"crs": { "type": "name", "properties": { "name": "urn:ogc:def:crs:OGC:1.3:CRS84" } },
"features": [
{ "type": "Feature", "properties": { "SiteID": "Building (General / Default)", "Neighbrhd": "Al Jalloum", "DmgCls_4": "Destroyed" }, "geometry": { "type": "Point", "coordinates": [ 37.160414051000089, 36.197772479000037 ] } },
{ "type": "Feature", "properties": { "SiteID": "Building (General / Default)", "Neighbrhd": "Al Jalloum", "DmgCls_4": "Destroyed" }, "geometry": { "type": "Point", "coordinates": [ 37.15442263500006, 36.196741519000057 ] } },
{ "type": "Feature", "properties": { "SiteID": "Building (General / Default)", "Neighbrhd": "Al Jalloum", "DmgCls_4": "Destroyed" }, "geometry": { "type": "Point", "coordinates": [ 37.156711256000051, 36.195083161000071 ] } },
{ "type": "Feature", "properties": { "SiteID": "Building (General / Default)", "Neighbrhd": "Qalat Al-Sharif", "DmgCls_4": "Destroyed" }, "geometry": { "type": "Point", "coordinates": [ 37.159066922000079, 36.193983850000052 ] } },
{ "type": "Feature", "properties": { "SiteID": "Building (General / Default)", "Neighbrhd": "Qalat Al-Sharif", "DmgCls_4": "Destroyed" }, "geometry": { "type": "Point", "coordinates": [ 37.159000297000034, 36.194010024000079 ] } },
{ "type": "Feature", "properties": { "SiteID": "Building (General / Default)", "Neighbrhd": "Al Jalloum", "DmgCls_4": "Destroyed" }, "geometry": { "type": "Point", "coordinates": [ 37.158303115000081, 36.196460869000077 ] } },
{ "type": "Feature", "properties": { "SiteID": "Building (General / Default)", "Neighbrhd": "Qalat Al-Sharif", "DmgCls_4": "Destroyed" }, "geometry": { "type": "Point", "coordinates": [ 37.158360222000056, 36.196422798000071 ] } },
{ "type": "Feature", "properties": { "SiteID": "Building (General / Default)", "Neighbrhd": "Farafira", "DmgCls_4": "Destroyed" }, "geometry": { "type": "Point", "coordinates": [ 37.160680197000033, 36.200496435000048 ] } },
{ "type": "Feature", "properties": { "SiteID": "Building (General / Default)", "Neighbrhd": "Aleppo Citadel", "DmgCls_4": "Destroyed" }, "geometry": { "type": "Point", "coordinates": [ 37.162598035000087, 36.199370248000037 ] } },
{ "type": "Feature", "properties": { "SiteID": "Building (General / Default)", "Neighbrhd": "Farafira", "DmgCls_4": "Destroyed" }, "geometry": { "type": "Point", "coordinates": [ 37.162294773000042, 36.203641560000051 ] } },
{ "type": "Feature", "properties": { "SiteID": "Building (General / Default)", "Neighbrhd": "Bayadah", "DmgCls_4": "Destroyed" }, "geometry": { "type": "Point", "coordinates": [ 37.163555887000086, 36.202449450000074 ] } },
{ "type": "Feature", "properties": { "SiteID": "Building (General / Default)", "Neighbrhd": "Al Tunbougha", "DmgCls_4": "Destroyed" }, "geometry": { "type": "Point", "coordinates": [ 37.166865717000064, 36.197705400000075 ] } },
{ "type": "Feature", "properties": { "SiteID": "Building (General / Default)", "Neighbrhd": "Al Jalloum", "DmgCls_4": "Destroyed" }, "geometry": { "type": "Point", "coordinates": [ 37.160691016000044, 36.197871962000079 ] } },
{ "type": "Feature", "properties": { "SiteID": "Building (General / Default)", "Neighbrhd": "Al Jalloum", "DmgCls_4": "Destroyed" }, "geometry": { "type": "Point", "coordinates": [ 37.160331718000066, 36.197950484000046 ] } },
{ "type": "Feature", "properties": { "SiteID": "Building (General / Default)", "Neighbrhd": "Al Jalloum", "DmgCls_4": "Destroyed" }, "geometry": { "type": "Point", "coordinates": [ 37.160462588000087, 36.197572150000042 ] } },
{ "type": "Feature", "properties": { "SiteID": "Building (General / Default)", "Neighbrhd": "Farafira", "DmgCls_4": "Destroyed" }, "geometry": { "type": "Point", "coordinates": [ 37.157663028000059, 36.203305740000076 ] } },
{ "type": "Feature", "properties": { "SiteID": "Building (General / Default)", "Neighbrhd": "Farafira", "DmgCls_4": "Destroyed" }, "geometry": { "type": "Point", "coordinates": [ 37.157565891000047, 36.202351430000078 ] } },
{ "type": "Feature", "properties": { "SiteID": "Building (General / Default)", "Neighbrhd": "Farafira", "DmgCls_4": "Destroyed" }, "geometry": { "type": "Point", "coordinates": [ 37.157417852000037, 36.202382938000085 ] } },
{ "type": "Feature", "properties": { "SiteID": "Building (General / Default)", "Neighbrhd": "Farafira", "DmgCls_4": "Destroyed" }, "geometry": { "type": "Point", "coordinates": [ 37.157087716000035, 36.202357581000058 ] } },
{ "type": "Feature", "properties": { "SiteID": "Building (General / Default)", "Neighbrhd": "Farafira", "DmgCls_4": "Destroyed" }, "geometry": { "type": "Point", "coordinates": [ 37.15726182800006, 36.202517939000074 ] } },
{ "type": "Feature", "properties": { "SiteID": "Building (General / Default)", "Neighbrhd": "Farafira", "DmgCls_4": "Destroyed" }, "geometry": { "type": "Point", "coordinates": [ 37.157560929000056, 36.202563090000069 ] } },
{ "type": "Feature", "properties": { "SiteID": "Building (General / Default)", "Neighbrhd": "Farafira", "DmgCls_4": "Destroyed" }, "geometry": { "type": "Point", "coordinates": [ 37.157652506000034, 36.20256900600009 ] } },
{ "type": "Feature", "properties": { "SiteID": "Building (General / Default)", "Neighbrhd": "Farafira", "DmgCls_4": "Destroyed" }, "geometry": { "type": "Point", "coordinates": [ 37.157828644000062, 36.202524415000084 ] } },
{ "type": "Feature", "properties": { "SiteID": "Building (General / Default)", "Neighbrhd": "Farafira", "DmgCls_4": "Destroyed" }, "geometry": { "type": "Point", "coordinates": [ 37.157983857000033, 36.202542572000084 ] } },
{ "type": "Feature", "properties": { "SiteID": "Building (General / Default)", "Neighbrhd": "Farafira", "DmgCls_4": "Destroyed" }, "geometry": { "type": "Point", "coordinates": [ 37.158076489000052, 36.202503453000077 ] } },
{ "type": "Feature", "properties": { "SiteID": "Building (General / Default)", "Neighbrhd": "Farafira", "DmgCls_4": "Destroyed" }, "geometry": { "type": "Point", "coordinates": [ 37.157498832000044, 36.203077960000087 ] } },
{ "type": "Feature", "properties": { "SiteID": "Building (General / Default)", "Neighbrhd": "Farafira", "DmgCls_4": "Destroyed" }, "geometry": { "type": "Point", "coordinates": [ 37.15934659900006, 36.201554417000068 ] } },
{ "type": "Feature", "properties": { "SiteID": "Building (General / Default)", "Neighbrhd": "Farafira", "DmgCls_4": "Destroyed" }, "geometry": { "type": "Point", "coordinates": [ 37.15693355600007, 36.200161256000058 ] } },
{ "type": "Feature", "properties": { "SiteID": "Building (General / Default)", "Neighbrhd": "Farafira", "DmgCls_4": "Destroyed" }, "geometry": { "type": "Point", "coordinates": [ 37.161100613000087, 36.200827721000053 ] } },
{ "type": "Feature", "properties": { "SiteID": "Building (General / Default)", "Neighbrhd": "Farafira", "DmgCls_4": "Destroyed" }, "geometry": { "type": "Point", "coordinates": [ 37.161240637000049, 36.200901026000054 ] } },
{ "type": "Feature", "properties": { "SiteID": "Building (General / Default)", "Neighbrhd": "Farafira", "DmgCls_4": "Destroyed" }, "geometry": { "type": "Point", "coordinates": [ 37.161169285000085, 36.200981020000086 ] } },
{ "type": "Feature", "properties": { "SiteID": "Building (General / Default)", "Neighbrhd": "Farafira", "DmgCls_4": "Destroyed" }, "geometry": { "type": "Point", "coordinates": [ 37.162369446000071, 36.202783453000052 ] } },
{ "type": "Feature", "properties": { "SiteID": "Building (General / Default)", "Neighbrhd": "Farafira", "DmgCls_4": "Destroyed" }, "geometry": { "type": "Point", "coordinates": [ 37.159310590000075, 36.201905255000042 ] } },
{ "type": "Feature", "properties": { "SiteID": "Building (General / Default)", "Neighbrhd": "Farafira", "DmgCls_4": "Destroyed" }, "geometry": { "type": "Point", "coordinates": [ 37.159424831000081, 36.201774114000045 ] } },
{ "type": "Feature", "properties": { "SiteID": "Building (General / Default)", "Neighbrhd": "Al Jalloum", "DmgCls_4": "Destroyed" }, "geometry": { "type": "Point", "coordinates": [ 37.157597632000034, 36.199771770000041 ] } },
{ "type": "Feature", "properties": { "SiteID": "Building (General / Default)", "Neighbrhd": "Al Jalloum", "DmgCls_4": "Destroyed" }, "geometry": { "type": "Point", "coordinates": [ 37.157623869000076, 36.198937191000084 ] } },
{ "type": "Feature", "properties": { "SiteID": "Building (General / Default)", "Neighbrhd": "Al Jalloum", "DmgCls_4": "Destroyed" }, "geometry": { "type": "Point", "coordinates": [ 37.160113885000044, 36.198263154000074 ] } },
{ "type": "Feature", "properties": { "SiteID": "Building (General / Default)", "Neighbrhd": "Al Jalloum", "DmgCls_4": "Destroyed" }, "geometry": { "type": "Point", "coordinates": [ 37.159376427000041, 36.197829812000066 ] } },
{ "type": "Feature", "properties": { "SiteID": "Building (General / Default)", "Neighbrhd": "Al Jalloum", "DmgCls_4": "Destroyed" }, "geometry": { "type": "Point", "coordinates": [ 37.159838905000072, 36.197748558000058 ] } },
{ "type": "Feature", "properties": { "SiteID": "Building (General / Default)", "Neighbrhd": "Al Jalloum", "DmgCls_4": "Destroyed" }, "geometry": { "type": "Point", "coordinates": [ 37.160197520000054, 36.197636850000038 ] } },
{ "type": "Feature", "properties": { "SiteID": "Building (General / Default)", "Neighbrhd": "Al Jalloum", "DmgCls_4": "Destroyed" }, "geometry": { "type": "Point", "coordinates": [ 37.160846331000073, 36.197865038000089 ] } },
{ "type": "Feature", "properties": { "SiteID": "Building (General / Default)", "Neighbrhd": "Al Jalloum", "DmgCls_4": "Destroyed" }, "geometry": { "type": "Point", "coordinates": [ 37.160876246000043, 36.197917797000059 ] } },
{ "type": "Feature", "properties": { "SiteID": "Building (General / Default)", "Neighbrhd": "Al Jalloum", "DmgCls_4": "Destroyed" }, "geometry": { "type": "Point", "coordinates": [ 37.16090863900007, 36.197959774000083 ] } },
{ "type": "Feature", "properties": { "SiteID": "Building (General / Default)", "Neighbrhd": "Al Jalloum", "DmgCls_4": "Destroyed" }, "geometry": { "type": "Point", "coordinates": [ 37.160897993000049, 36.197844191000058 ] } },
{ "type": "Feature", "properties": { "SiteID": "Building (General / Default)", "Neighbrhd": "Al Jalloum", "DmgCls_4": "Destroyed" }, "geometry": { "type": "Point", "coordinates": [ 37.160927867000055, 36.197898753000061 ] } },
{ "type": "Feature", "properties": { "SiteID": "Building (General / Default)", "Neighbrhd": "Al Jalloum", "DmgCls_4": "Destroyed" }, "geometry": { "type": "Point", "coordinates": [ 37.16096325500007, 36.197812733000035 ] } },
{ "type": "Feature", "properties": { "SiteID": "Building (General / Default)", "Neighbrhd": "Al Jalloum", "DmgCls_4": "Destroyed" }, "geometry": { "type": "Point", "coordinates": [ 37.160990946000084, 36.197865458000081 ] } },
{ "type": "Feature", "properties": { "SiteID": "Building (General / Default)", "Neighbrhd": "Al Jalloum", "DmgCls_4": "Destroyed" }, "geometry": { "type": "Point", "coordinates": [ 37.161026123000056, 36.197788451000065 ] } },
{ "type": "Feature", "properties": { "SiteID": "Building (General / Default)", "Neighbrhd": "Al Jalloum", "DmgCls_4": "Destroyed" }, "geometry": { "type": "Point", "coordinates": [ 37.161054025000055, 36.197832162000054 ] } },
{ "type": "Feature", "properties": { "SiteID": "Building (General / Default)", "Neighbrhd": "Al Jalloum", "DmgCls_4": "Destroyed" }, "geometry": { "type": "Point", "coordinates": [ 37.161089075000064, 36.197760564000077 ] } },
{ "type": "Feature", "properties": { "SiteID": "Building (General / Default)", "Neighbrhd": "Al Jalloum", "DmgCls_4": "Destroyed" }, "geometry": { "type": "Point", "coordinates": [ 37.161114880000071, 36.197798832000046 ] } },
{ "type": "Feature", "properties": { "SiteID": "Building (General / Default)", "Neighbrhd": "Al Jalloum", "DmgCls_4": "Destroyed" }, "geometry": { "type": "Point", "coordinates": [ 37.161158785000055, 36.197729174000074 ] } },
{ "type": "Feature", "properties": { "SiteID": "Building (General / Default)", "Neighbrhd": "Al Jalloum", "DmgCls_4": "Destroyed" }, "geometry": { "type": "Point", "coordinates": [ 37.158873716000073, 36.198108822000052 ] } },
{ "type": "Feature", "properties": { "SiteID": "Building (General / Default)", "Neighbrhd": "Al Jalloum", "DmgCls_4": "Destroyed" }, "geometry": { "type": "Point", "coordinates": [ 37.159247695000033, 36.198291311000048 ] } },
{ "type": "Feature", "properties": { "SiteID": "Building (General / Default)", "Neighbrhd": "Al Jalloum", "DmgCls_4": "Destroyed" }, "geometry": { "type": "Point", "coordinates": [ 37.15924171100005, 36.198166783000033 ] } },
{ "type": "Feature", "properties": { "SiteID": "Mosque", "Neighbrhd": "Al Jalloum", "DmgCls_4": "Destroyed" }, "geometry": { "type": "Point", "coordinates": [ 37.160696786000074, 36.196908819000043 ] } },
{ "type": "Feature", "properties": { "SiteID": "Building (General / Default)", "Neighbrhd": "Al Jalloum", "DmgCls_4": "Destroyed" }, "geometry": { "type": "Point", "coordinates": [ 37.159571739000057, 36.197416421000071 ] } },
{ "type": "Feature", "properties": { "SiteID": "Building (General / Default)", "Neighbrhd": "Al Jalloum", "DmgCls_4": "Destroyed" }, "geometry": { "type": "Point", "coordinates": [ 37.159818439000048, 36.197004845000038 ] } },
{ "type": "Feature", "properties": { "SiteID": "Building (General / Default)", "Neighbrhd": "Al Jalloum", "DmgCls_4": "Destroyed" }, "geometry": { "type": "Point", "coordinates": [ 37.159655076000035, 36.197171595000043 ] } },
{ "type": "Feature", "properties": { "SiteID": "Building (General / Default)", "Neighbrhd": "Al Jalloum", "DmgCls_4": "Destroyed" }, "geometry": { "type": "Point", "coordinates": [ 37.159333247000063, 36.196735661000048 ] } },
{ "type": "Feature", "properties": { "SiteID": "Building (General / Default)", "Neighbrhd": "Al Jalloum", "DmgCls_4": "Destroyed" }, "geometry": { "type": "Point", "coordinates": [ 37.159333864000075, 36.196953386000075 ] } },
{ "type": "Feature", "properties": { "SiteID": "Building (General / Default)", "Neighbrhd": "Al Jalloum", "DmgCls_4": "Destroyed" }, "geometry": { "type": "Point", "coordinates": [ 37.159568455000056, 36.196697589000053 ] } },
{ "type": "Feature", "properties": { "SiteID": "Building (General / Default)", "Neighbrhd": "Al Jalloum", "DmgCls_4": "Destroyed" }, "geometry": { "type": "Point", "coordinates": [ 37.159456510000041, 36.196719028000075 ] } },
{ "type": "Feature", "properties": { "SiteID": "Building (General / Default)", "Neighbrhd": "Al Jalloum", "DmgCls_4": "Destroyed" }, "geometry": { "type": "Point", "coordinates": [ 37.15887739100009, 36.198264234000078 ] } },
{ "type": "Feature", "properties": { "SiteID": "Building (General / Default)", "Neighbrhd": "Al Jalloum", "DmgCls_4": "Destroyed" }, "geometry": { "type": "Point", "coordinates": [ 37.157782290000057, 36.199755171000049 ] } },
{ "type": "Feature", "properties": { "SiteID": "Building (General / Default)", "Neighbrhd": "Al Jalloum", "DmgCls_4": "Destroyed" }, "geometry": { "type": "Point", "coordinates": [ 37.153799137000078, 36.19808856700007 ] } },
{ "type": "Feature", "properties": { "SiteID": "Building (General / Default)", "Neighbrhd": "al Aqabeh", "DmgCls_4": "Destroyed" }, "geometry": { "type": "Point", "coordinates": [ 37.156181755000034, 36.199234182000055 ] } },
{ "type": "Feature", "properties": { "SiteID": "Building (General / Default)", "Neighbrhd": "al Aqabeh", "DmgCls_4": "Destroyed" }, "geometry": { "type": "Point", "coordinates": [ 37.155857740000044, 36.199862189000044 ] } },
{ "type": "Feature", "properties": { "SiteID": "Building (General / Default)", "Neighbrhd": "al Aqabeh", "DmgCls_4": "Destroyed" }, "geometry": { "type": "Point", "coordinates": [ 37.15523440700008, 36.200430659000062 ] } },
{ "type": "Feature", "properties": { "SiteID": "Building (General / Default)", "Neighbrhd": "al Aqabeh", "DmgCls_4": "Destroyed" }, "geometry": { "type": "Point", "coordinates": [ 37.154575726000076, 36.20024787300008 ] } },
{ "type": "Feature", "properties": { "SiteID": "Building (General / Default)", "Neighbrhd": "al Aqabeh", "DmgCls_4": "Destroyed" }, "geometry": { "type": "Point", "coordinates": [ 37.154727954000066, 36.200408261000064 ] } },
{ "type": "Feature", "properties": { "SiteID": "Building (General / Default)", "Neighbrhd": "al Aqabeh", "DmgCls_4": "Destroyed" }, "geometry": { "type": "Point", "coordinates": [ 37.154570134000039, 36.200486063000085 ] } },
{ "type": "Feature", "properties": { "SiteID": "Building (General / Default)", "Neighbrhd": "al Aqabeh", "DmgCls_4": "Destroyed" }, "geometry": { "type": "Point", "coordinates": [ 37.15492893000004, 36.200408929000048 ] } },
{ "type": "Feature", "properties": { "SiteID": "Building (General / Default)", "Neighbrhd": "al Aqabeh", "DmgCls_4": "Destroyed" }, "geometry": { "type": "Point", "coordinates": [ 37.15494721500005, 36.200652350000041 ] } },
{ "type": "Feature", "properties": { "SiteID": "Building (General / Default)", "Neighbrhd": "al Aqabeh", "DmgCls_4": "Destroyed" }, "geometry": { "type": "Point", "coordinates": [ 37.155058188000055, 36.20026990100007 ] } },
{ "type": "Feature", "properties": { "SiteID": "Building (General / Default)", "Neighbrhd": "al Aqabeh", "DmgCls_4": "Destroyed" }, "geometry": { "type": "Point", "coordinates": [ 37.154877801000055, 36.200240374000089 ] } },
{ "type": "Feature", "properties": { "SiteID": "Building (General / Default)", "Neighbrhd": "al Aqabeh", "DmgCls_4": "Destroyed" }, "geometry": { "type": "Point", "coordinates": [ 37.15450620900009, 36.200142251000045 ] } },
{ "type": "Feature", "properties": { "SiteID": "Building (General / Default)", "Neighbrhd": "al Aqabeh", "DmgCls_4": "Destroyed" }, "geometry": { "type": "Point", "coordinates": [ 37.154407654000067, 36.200379007000038 ] } },
{ "type": "Feature", "properties": { "SiteID": "Building (General / Default)", "Neighbrhd": "Qalat Al-Sharif", "DmgCls_4": "Destroyed" }, "geometry": { "type": "Point", "coordinates": [ 37.158678414000065, 36.195981681000035 ] } },
{ "type": "Feature", "properties": { "SiteID": "Building (General / Default)", "Neighbrhd": "Qalat Al-Sharif", "DmgCls_4": "Destroyed" }, "geometry": { "type": "Point", "coordinates": [ 37.158815079000078, 36.195950870000047 ] } },
{ "type": "Feature", "properties": { "SiteID": "Building (General / Default)", "Neighbrhd": "Sahel Bizzeh", "DmgCls_4": "Destroyed" }, "geometry": { "type": "Point", "coordinates": [ 37.159876027000053, 36.195067266000081 ] } },
{ "type": "Feature", "properties": { "SiteID": "Building (General / Default)", "Neighbrhd": "Sahel Bizzeh", "DmgCls_4": "Destroyed" }, "geometry": { "type": "Point", "coordinates": [ 37.159907589000056, 36.194975928000076 ] } },
{ "type": "Feature", "properties": { "SiteID": "Building (General / Default)", "Neighbrhd": "Sahel Bizzeh", "DmgCls_4": "Destroyed" }, "geometry": { "type": "Point", "coordinates": [ 37.159992415000033, 36.19499750500006 ] } },
{ "type": "Feature", "properties": { "SiteID": "Building (General / Default)", "Neighbrhd": "Al Aajam", "DmgCls_4": "Destroyed" }, "geometry": { "type": "Point", "coordinates": [ 37.163934449000067, 36.196603677000041 ] } },
{ "type": "Feature", "properties": { "SiteID": "Building (General / Default)", "Neighbrhd": "Al Aajam", "DmgCls_4": "Destroyed" }, "geometry": { "type": "Point", "coordinates": [ 37.164028979000079, 36.196607867000068 ] } },
{ "type": "Feature", "properties": { "SiteID": "Building (General / Default)", "Neighbrhd": "Al Aajam", "DmgCls_4": "Destroyed" }, "geometry": { "type": "Point", "coordinates": [ 37.164127971000084, 36.196613951000074 ] } },
{ "type": "Feature", "properties": { "SiteID": "Building (General / Default)", "Neighbrhd": "Al Aajam", "DmgCls_4": "Destroyed" }, "geometry": { "type": "Point", "coordinates": [ 37.16426410400004, 36.196621519000075 ] } },
{ "type": "Feature", "properties": { "SiteID": "Building (General / Default)", "Neighbrhd": "Al Aajam", "DmgCls_4": "Destroyed" }, "geometry": { "type": "Point", "coordinates": [ 37.164396816000078, 36.196630859000038 ] } },
{ "type": "Feature", "properties": { "SiteID": "Building (General / Default)", "Neighbrhd": "Al Aajam", "DmgCls_4": "Destroyed" }, "geometry": { "type": "Point", "coordinates": [ 37.161856368000088, 36.197130562000041 ] } },
{ "type": "Feature", "properties": { "SiteID": "Government Building", "Neighbrhd": "Al Aajam", "DmgCls_4": "Destroyed" }, "geometry": { "type": "Point", "coordinates": [ 37.162892654000075, 36.197486342000047 ] } },
{ "type": "Feature", "properties": { "SiteID": "Building (General / Default)", "Neighbrhd": "Farafira", "DmgCls_4": "Destroyed" }, "geometry": { "type": "Point", "coordinates": [ 37.157875447000038, 36.201677023000059 ] } },
{ "type": "Feature", "properties": { "SiteID": "Building (General / Default)", "Neighbrhd": "Farafira", "DmgCls_4": "Destroyed" }, "geometry": { "type": "Point", "coordinates": [ 37.15780551000006, 36.202383384000086 ] } },
{ "type": "Feature", "properties": { "SiteID": "Building (General / Default)", "Neighbrhd": "Farafira", "DmgCls_4": "Destroyed" }, "geometry": { "type": "Point", "coordinates": [ 37.157907769000076, 36.202387200000089 ] } },
{ "type": "Feature", "properties": { "SiteID": "Building (General / Default)", "Neighbrhd": "Farafira", "DmgCls_4": "Destroyed" }, "geometry": { "type": "Point", "coordinates": [ 37.15801018500008, 36.20238429300008 ] } },
{ "type": "Feature", "properties": { "SiteID": "Building (General / Default)", "Neighbrhd": "Farafira", "DmgCls_4": "Destroyed" }, "geometry": { "type": "Point", "coordinates": [ 37.158098775000042, 36.202381174000038 ] } },
{ "type": "Feature", "properties": { "SiteID": "Building (General / Default)", "Neighbrhd": "Farafira", "DmgCls_4": "Destroyed" }, "geometry": { "type": "Point", "coordinates": [ 37.158195766000063, 36.202373699000077 ] } },
{ "type": "Feature", "properties": { "SiteID": "Building (General / Default)", "Neighbrhd": "Farafira", "DmgCls_4": "Destroyed" }, "geometry": { "type": "Point", "coordinates": [ 37.158273296000061, 36.202370409000082 ] } },
{ "type": "Feature", "properties": { "SiteID": "Building (General / Default)", "Neighbrhd": "Farafira", "DmgCls_4": "Destroyed" }, "geometry": { "type": "Point", "coordinates": [ 37.158358964000058, 36.202373969000064 ] } },
{ "type": "Feature", "properties": { "SiteID": "Building (General / Default)", "Neighbrhd": "Farafira", "DmgCls_4": "Destroyed" }, "geometry": { "type": "Point", "coordinates": [ 37.158453085000076, 36.202370934000044 ] } },
{ "type": "Feature", "properties": { "SiteID": "Building (General / Default)", "Neighbrhd": "Farafira", "DmgCls_4": "Destroyed" }, "geometry": { "type": "Point", "coordinates": [ 37.157681130000071, 36.202379227000051 ] } },
{ "type": "Feature", "properties": { "SiteID": "Building (General / Default)", "Neighbrhd": "Farafira", "DmgCls_4": "Destroyed" }, "geometry": { "type": "Point", "coordinates": [ 37.158187142000088, 36.200183434000053 ] } },
{ "type": "Feature", "properties": { "SiteID": "Building (General / Default)", "Neighbrhd": "Farafira", "DmgCls_4": "Destroyed" }, "geometry": { "type": "Point", "coordinates": [ 37.159529401000043, 36.201441402000057 ] } },
{ "type": "Feature", "properties": { "SiteID": "Building (General / Default)", "Neighbrhd": "Farafira", "DmgCls_4": "Destroyed" }, "geometry": { "type": "Point", "coordinates": [ 37.159791846000076, 36.201346912000076 ] } },
{ "type": "Feature", "properties": { "SiteID": "Building (General / Default)", "Neighbrhd": "Farafira", "DmgCls_4": "Destroyed" }, "geometry": { "type": "Point", "coordinates": [ 37.160274389000051, 36.201287975000071 ] } },
{ "type": "Feature", "properties": { "SiteID": "Building (General / Default)", "Neighbrhd": "Farafira", "DmgCls_4": "Destroyed" }, "geometry": { "type": "Point", "coordinates": [ 37.159648919000063, 36.20131800200005 ] } },
{ "type": "Feature", "properties": { "SiteID": "Building (General / Default)", "Neighbrhd": "Farafira", "DmgCls_4": "Destroyed" }, "geometry": { "type": "Point", "coordinates": [ 37.160101750000081, 36.201226596000083 ] } },
{ "type": "Feature", "properties": { "SiteID": "Building (General / Default)", "Neighbrhd": "Farafira", "DmgCls_4": "Destroyed" }, "geometry": { "type": "Point", "coordinates": [ 37.159498708000058, 36.201706357000035 ] } },
{ "type": "Feature", "properties": { "SiteID": "Building (General / Default)", "Neighbrhd": "Farafira", "DmgCls_4": "Destroyed" }, "geometry": { "type": "Point", "coordinates": [ 37.16110042300005, 36.200732017000064 ] } },
{ "type": "Feature", "properties": { "SiteID": "Building (General / Default)", "Neighbrhd": "Farafira", "DmgCls_4": "Destroyed" }, "geometry": { "type": "Point", "coordinates": [ 37.158481074000065, 36.202071525000065 ] } },
{ "type": "Feature", "properties": { "SiteID": "Building (General / Default)", "Neighbrhd": "Farafira", "DmgCls_4": "Destroyed" }, "geometry": { "type": "Point", "coordinates": [ 37.159148755000047, 36.201833757000088 ] } },
{ "type": "Feature", "properties": { "SiteID": "Building (General / Default)", "Neighbrhd": "Farafira", "DmgCls_4": "Destroyed" }, "geometry": { "type": "Point", "coordinates": [ 37.159077839000076, 36.201908987000081 ] } },
{ "type": "Feature", "properties": { "SiteID": "Building (General / Default)", "Neighbrhd": "Farafira", "DmgCls_4": "Destroyed" }, "geometry": { "type": "Point", "coordinates": [ 37.15835280500005, 36.20208266800006 ] } },
{ "type": "Feature", "properties": { "SiteID": "Building (General / Default)", "Neighbrhd": "Farafira", "DmgCls_4": "Destroyed" }, "geometry": { "type": "Point", "coordinates": [ 37.160829036000052, 36.201519732000065 ] } },
{ "type": "Feature", "properties": { "SiteID": "Building (General / Default)", "Neighbrhd": "Farafira", "DmgCls_4": "Destroyed" }, "geometry": { "type": "Point", "coordinates": [ 37.160436362000041, 36.201009264000049 ] } },
{ "type": "Feature", "properties": { "SiteID": "Building (General / Default)", "Neighbrhd": "Farafira", "DmgCls_4": "Destroyed" }, "geometry": { "type": "Point", "coordinates": [ 37.160065159000055, 36.201027407000083 ] } },
{ "type": "Feature", "properties": { "SiteID": "Building (General / Default)", "Neighbrhd": "Farafira", "DmgCls_4": "Destroyed" }, "geometry": { "type": "Point", "coordinates": [ 37.160395171000062, 36.201071834000061 ] } },
{ "type": "Feature", "properties": { "SiteID": "Building (General / Default)", "Neighbrhd": "Farafira", "DmgCls_4": "Destroyed" }, "geometry": { "type": "Point", "coordinates": [ 37.16040795400005, 36.201154314000064 ] } },
{ "type": "Feature", "properties": { "SiteID": "Building (General / Default)", "Neighbrhd": "Farafira", "DmgCls_4": "Destroyed" }, "geometry": { "type": "Point", "coordinates": [ 37.160316178000073, 36.20117794500004 ] } },
{ "type": "Feature", "properties": { "SiteID": "Building (General / Default)", "Neighbrhd": "Farafira", "DmgCls_4": "Destroyed" }, "geometry": { "type": "Point", "coordinates": [ 37.160286921000079, 36.201233543000058 ] } },
{ "type": "Feature", "properties": { "SiteID": "Building (General / Default)", "Neighbrhd": "Farafira", "DmgCls_4": "Destroyed" }, "geometry": { "type": "Point", "coordinates": [ 37.160573355000054, 36.201128236000045 ] } },
{ "type": "Feature", "properties": { "SiteID": "Building (General / Default)", "Neighbrhd": "Farafira", "DmgCls_4": "Destroyed" }, "geometry": { "type": "Point", "coordinates": [ 37.160180628000035, 36.201060188000042 ] } },
{ "type": "Feature", "properties": { "SiteID": "Building (General / Default)", "Neighbrhd": "Farafira", "DmgCls_4": "Destroyed" }, "geometry": { "type": "Point", "coordinates": [ 37.160089589000052, 36.201178039000069 ] } },
{ "type": "Feature", "properties": { "SiteID": "Building (General / Default)", "Neighbrhd": "Farafira", "DmgCls_4": "Destroyed" }, "geometry": { "type": "Point", "coordinates": [ 37.159763746000067, 36.201081204000047 ] } },
{ "type": "Feature", "properties": { "SiteID": "Building (General / Default)", "Neighbrhd": "Farafira", "DmgCls_4": "Destroyed" }, "geometry": { "type": "Point", "coordinates": [ 37.159770857000069, 36.201028843000074 ] } },
{ "type": "Feature", "properties": { "SiteID": "Building (General / Default)", "Neighbrhd": "Farafira", "DmgCls_4": "Destroyed" }, "geometry": { "type": "Point", "coordinates": [ 37.159848671000077, 36.20103600300007 ] } },
{ "type": "Feature", "properties": { "SiteID": "Building (General / Default)", "Neighbrhd": "Farafira", "DmgCls_4": "Destroyed" }, "geometry": { "type": "Point", "coordinates": [ 37.159931008000058, 36.201038461000053 ] } },
{ "type": "Feature", "properties": { "SiteID": "Building (General / Default)", "Neighbrhd": "Farafira", "DmgCls_4": "Destroyed" }, "geometry": { "type": "Point", "coordinates": [ 37.16021846700005, 36.200952251000047 ] } },
{ "type": "Feature", "properties": { "SiteID": "Building (General / Default)", "Neighbrhd": "Farafira", "DmgCls_4": "Destroyed" }, "geometry": { "type": "Point", "coordinates": [ 37.159576813000058, 36.201084292000075 ] } },
{ "type": "Feature", "properties": { "SiteID": "Building (General / Default)", "Neighbrhd": "Farafira", "DmgCls_4": "Destroyed" }, "geometry": { "type": "Point", "coordinates": [ 37.15959887300005, 36.200896215000057 ] } },
{ "type": "Feature", "properties": { "SiteID": "Building (General / Default)", "Neighbrhd": "Farafira", "DmgCls_4": "Destroyed" }, "geometry": { "type": "Point", "coordinates": [ 37.161112754000044, 36.200643782000043 ] } },
{ "type": "Feature", "properties": { "SiteID": "Building (General / Default)", "Neighbrhd": "Farafira", "DmgCls_4": "Destroyed" }, "geometry": { "type": "Point", "coordinates": [ 37.161224612000069, 36.200705127000049 ] } },
{ "type": "Feature", "properties": { "SiteID": "Building (General / Default)", "Neighbrhd": "Farafira", "DmgCls_4": "Destroyed" }, "geometry": { "type": "Point", "coordinates": [ 37.161427318000051, 36.200845381000079 ] } },
{ "type": "Feature", "properties": { "SiteID": "Building (General / Default)", "Neighbrhd": "Farafira", "DmgCls_4": "Destroyed" }, "geometry": { "type": "Point", "coordinates": [ 37.158203126000046, 36.202093047000062 ] } },
{ "type": "Feature", "properties": { "SiteID": "Building (General / Default)", "Neighbrhd": "Farafira", "DmgCls_4": "Destroyed" }, "geometry": { "type": "Point", "coordinates": [ 37.158057204000045, 36.202095262000057 ] } },
{ "type": "Feature", "properties": { "SiteID": "Building (General / Default)", "Neighbrhd": "Farafira", "DmgCls_4": "Destroyed" }, "geometry": { "type": "Point", "coordinates": [ 37.157900016000042, 36.202108457000065 ] } },
{ "type": "Feature", "properties": { "SiteID": "Building (General / Default)", "Neighbrhd": "Farafira", "DmgCls_4": "Destroyed" }, "geometry": { "type": "Point", "coordinates": [ 37.158085467000035, 36.201946243000066 ] } },
{ "type": "Feature", "properties": { "SiteID": "Building (General / Default)", "Neighbrhd": "Farafira", "DmgCls_4": "Destroyed" }, "geometry": { "type": "Point", "coordinates": [ 37.161298403000046, 36.200750956000036 ] } },
{ "type": "Feature", "properties": { "SiteID": "Building (General / Default)", "Neighbrhd": "Farafira", "DmgCls_4": "Destroyed" }, "geometry": { "type": "Point", "coordinates": [ 37.16000413200004, 36.201226265000059 ] } },
{ "type": "Feature", "properties": { "SiteID": "Building (General / Default)", "Neighbrhd": "Bayadah", "DmgCls_4": "Destroyed" }, "geometry": { "type": "Point", "coordinates": [ 37.164386584000056, 36.202514738000048 ] } },
{ "type": "Feature", "properties": { "SiteID": "Building (General / Default)", "Neighbrhd": "Al Jalloum", "DmgCls_4": "Destroyed" }, "geometry": { "type": "Point", "coordinates": [ 37.157465118000061, 36.19849641400009 ] } },
{ "type": "Feature", "properties": { "SiteID": "Building (General / Default)", "Neighbrhd": "Al Jalloum", "DmgCls_4": "Destroyed" }, "geometry": { "type": "Point", "coordinates": [ 37.155709644000069, 36.195084860000065 ] } },
{ "type": "Feature", "properties": { "SiteID": "Building (General / Default)", "Neighbrhd": "Al Jalloum", "DmgCls_4": "Destroyed" }, "geometry": { "type": "Point", "coordinates": [ 37.158060316000046, 36.199495192000086 ] } },
{ "type": "Feature", "properties": { "SiteID": "Building (General / Default)", "Neighbrhd": "Al Jalloum", "DmgCls_4": "Destroyed" }, "geometry": { "type": "Point", "coordinates": [ 37.157607409000036, 36.199421438000059 ] } },
{ "type": "Feature", "properties": { "SiteID": "Building (General / Default)", "Neighbrhd": "Al Jalloum", "DmgCls_4": "Destroyed" }, "geometry": { "type": "Point", "coordinates": [ 37.159336819000089, 36.19707019100008 ] } },
{ "type": "Feature", "properties": { "SiteID": "Building (General / Default)", "Neighbrhd": "Al Jalloum", "DmgCls_4": "Destroyed" }, "geometry": { "type": "Point", "coordinates": [ 37.159899247000055, 36.197115810000071 ] } },
{ "type": "Feature", "properties": { "SiteID": "Building (General / Default)", "Neighbrhd": "Al Jalloum", "DmgCls_4": "Destroyed" }, "geometry": { "type": "Point", "coordinates": [ 37.159973895000064, 36.197320877000038 ] } },
{ "type": "Feature", "properties": { "SiteID": "Building (General / Default)", "Neighbrhd": "Al Jalloum", "DmgCls_4": "Destroyed" }, "geometry": { "type": "Point", "coordinates": [ 37.159685166000088, 36.197461923000049 ] } },
{ "type": "Feature", "properties": { "SiteID": "Building (General / Default)", "Neighbrhd": "Al Jalloum", "DmgCls_4": "Destroyed" }, "geometry": { "type": "Point", "coordinates": [ 37.159855920000041, 36.197395383000071 ] } },
{ "type": "Feature", "properties": { "SiteID": "Building (General / Default)", "Neighbrhd": "Al Jalloum", "DmgCls_4": "Destroyed" }, "geometry": { "type": "Point", "coordinates": [ 37.159357452000052, 36.197571363000066 ] } },
{ "type": "Feature", "properties": { "SiteID": "Building (General / Default)", "Neighbrhd": "Al Jalloum", "DmgCls_4": "Destroyed" }, "geometry": { "type": "Point", "coordinates": [ 37.159403102000056, 36.198574965000034 ] } },
{ "type": "Feature", "properties": { "SiteID": "Building (General / Default)", "Neighbrhd": "Al Jalloum", "DmgCls_4": "Destroyed" }, "geometry": { "type": "Point", "coordinates": [ 37.159209241000042, 36.198560058000055 ] } },
{ "type": "Feature", "properties": { "SiteID": "Building (General / Default)", "Neighbrhd": "Al Jalloum", "DmgCls_4": "Destroyed" }, "geometry": { "type": "Point", "coordinates": [ 37.159046291000038, 36.19816760100008 ] } },
{ "type": "Feature", "properties": { "SiteID": "Building (General / Default)", "Neighbrhd": "Al Jalloum", "DmgCls_4": "Destroyed" }, "geometry": { "type": "Point", "coordinates": [ 37.16064305000009, 36.196452285000078 ] } },
{ "type": "Feature", "properties": { "SiteID": "Building (General / Default)", "Neighbrhd": "Al Jalloum", "DmgCls_4": "Destroyed" }, "geometry": { "type": "Point", "coordinates": [ 37.160593555000048, 36.196366856000054 ] } },
{ "type": "Feature", "properties": { "SiteID": "Building (General / Default)", "Neighbrhd": "Al Jalloum", "DmgCls_4": "Destroyed" }, "geometry": { "type": "Point", "coordinates": [ 37.160828146000085, 36.196401467000044 ] } },
{ "type": "Feature", "properties": { "SiteID": "Mosque", "Neighbrhd": "al Aqabeh", "DmgCls_4": "Destroyed" }, "geometry": { "type": "Point", "coordinates": [ 37.156405469000049, 36.199626397000088 ] } },
{ "type": "Feature", "properties": { "SiteID": "Building (General / Default)", "Neighbrhd": "al Aqabeh", "DmgCls_4": "Destroyed" }, "geometry": { "type": "Point", "coordinates": [ 37.155495760000065, 36.201882994000073 ] } },
{ "type": "Feature", "properties": { "SiteID": "Building (General / Default)", "Neighbrhd": "al Aqabeh", "DmgCls_4": "Destroyed" }, "geometry": { "type": "Point", "coordinates": [ 37.155233917000089, 36.200314114000037 ] } },
{ "type": "Feature", "properties": { "SiteID": "Building (General / Default)", "Neighbrhd": "al Aqabeh", "DmgCls_4": "Destroyed" }, "geometry": { "type": "Point", "coordinates": [ 37.155324404000055, 36.200065820000077 ] } },
{ "type": "Feature", "properties": { "SiteID": "Building (General / Default)", "Neighbrhd": "al Aqabeh", "DmgCls_4": "Destroyed" }, "geometry": { "type": "Point", "coordinates": [ 37.155269689000079, 36.201795479000054 ] } },
{ "type": "Feature", "properties": { "SiteID": "Building (General / Default)", "Neighbrhd": "al Aqabeh", "DmgCls_4": "Destroyed" }, "geometry": { "type": "Point", "coordinates": [ 37.154452572000082, 36.200477049000085 ] } },
{ "type": "Feature", "properties": { "SiteID": "Building (General / Default)", "Neighbrhd": "al Aqabeh", "DmgCls_4": "Destroyed" }, "geometry": { "type": "Point", "coordinates": [ 37.154779355000073, 36.200534679000043 ] } },
{ "type": "Feature", "properties": { "SiteID": "Building (General / Default)", "Neighbrhd": "Al Aajam", "DmgCls_4": "Destroyed" }, "geometry": { "type": "Point", "coordinates": [ 37.163556486000061, 36.197060854000085 ] } },
{ "type": "Feature", "properties": { "SiteID": "Building (General / Default)", "Neighbrhd": "Al Tunbougha", "DmgCls_4": "Destroyed" }, "geometry": { "type": "Point", "coordinates": [ 37.165711136000084, 36.198575002000041 ] } },
{ "type": "Feature", "properties": { "SiteID": "Building (General / Default)", "Neighbrhd": "Al Tunbougha", "DmgCls_4": "Destroyed" }, "geometry": { "type": "Point", "coordinates": [ 37.165980503000071, 36.198695997000073 ] } },
{ "type": "Feature", "properties": { "SiteID": "Building (General / Default)", "Neighbrhd": "Al Tunbougha", "DmgCls_4": "Destroyed" }, "geometry": { "type": "Point", "coordinates": [ 37.165752720000057, 36.199314996000055 ] } },
{ "type": "Feature", "properties": { "SiteID": "Building (General / Default)", "Neighbrhd": "Farafira", "DmgCls_4": "Destroyed" }, "geometry": { "type": "Point", "coordinates": [ 37.158809845000064, 36.202346747000036 ] } },
{ "type": "Feature", "properties": { "SiteID": "Building (General / Default)", "Neighbrhd": "al Aqabeh", "DmgCls_4": "Destroyed" }, "geometry": { "type": "Point", "coordinates": [ 37.154339495000045, 36.199957752000046 ] } },
{ "type": "Feature", "properties": { "SiteID": "Building (General / Default)", "Neighbrhd": "Al Jalloum", "DmgCls_4": "Destroyed" }, "geometry": { "type": "Point", "coordinates": [ 37.153833639000084, 36.198049306000087 ] } },
{ "type": "Feature", "properties": { "SiteID": "Building (General / Default)", "Neighbrhd": "al Aqabeh", "DmgCls_4": "Destroyed" }, "geometry": { "type": "Point", "coordinates": [ 37.155010503000085, 36.199339092000059 ] } },
{ "type": "Feature", "properties": { "SiteID": "Building (General / Default)", "Neighbrhd": "Al Jalloum", "DmgCls_4": "Destroyed" }, "geometry": { "type": "Point", "coordinates": [ 37.155868413000064, 36.196438029000035 ] } },
{ "type": "Feature", "properties": { "SiteID": "Building (General / Default)", "Neighbrhd": "Al Jalloum", "DmgCls_4": "Destroyed" }, "geometry": { "type": "Point", "coordinates": [ 37.155620949000081, 36.196285744000079 ] } },
{ "type": "Feature", "properties": { "SiteID": "Building (General / Default)", "Neighbrhd": "Al Jalloum", "DmgCls_4": "Destroyed" }, "geometry": { "type": "Point", "coordinates": [ 37.155716127000062, 36.196276226000066 ] } },
{ "type": "Feature", "properties": { "SiteID": "Building (General / Default)", "Neighbrhd": "Al Jalloum", "DmgCls_4": "Destroyed" }, "geometry": { "type": "Point", "coordinates": [ 37.160446496000077, 36.196557002000077 ] } },
{ "type": "Feature", "properties": { "SiteID": "Mosque", "Neighbrhd": "Al Jalloum", "DmgCls_4": "Destroyed" }, "geometry": { "type": "Point", "coordinates": [ 37.161031843000046, 36.196918680000067 ] } },
{ "type": "Feature", "properties": { "SiteID": "Mosque", "Neighbrhd": "Al Jalloum", "DmgCls_4": "Destroyed" }, "geometry": { "type": "Point", "coordinates": [ 37.160294210000075, 36.196861573000035 ] } },
{ "type": "Feature", "properties": { "SiteID": "Mosque", "Neighbrhd": "Al Jalloum", "DmgCls_4": "Destroyed" }, "geometry": { "type": "Point", "coordinates": [ 37.160365594000041, 36.196642663000034 ] } },
{ "type": "Feature", "properties": { "SiteID": "Mosque", "Neighbrhd": "Al Jalloum", "DmgCls_4": "Destroyed" }, "geometry": { "type": "Point", "coordinates": [ 37.160432219000086, 36.196733082000037 ] } },
{ "type": "Feature", "properties": { "SiteID": "Mosque", "Neighbrhd": "Al Jalloum", "DmgCls_4": "Destroyed" }, "geometry": { "type": "Point", "coordinates": [ 37.160417942000038, 36.197123314000066 ] } },
{ "type": "Feature", "properties": { "SiteID": "Building (General / Default)", "Neighbrhd": "al Aqabeh", "DmgCls_4": "Destroyed" }, "geometry": { "type": "Point", "coordinates": [ 37.155087950000052, 36.200697264000041 ] } },
{ "type": "Feature", "properties": { "SiteID": "Building (General / Default)", "Neighbrhd": "Farafira", "DmgCls_4": "Destroyed" }, "geometry": { "type": "Point", "coordinates": [ 37.157776741000077, 36.202772154000058 ] } },
{ "type": "Feature", "properties": { "SiteID": "Building (General / Default)", "Neighbrhd": "Farafira", "DmgCls_4": "Destroyed" }, "geometry": { "type": "Point", "coordinates": [ 37.158937918000049, 36.20192030700008 ] } },
{ "type": "Feature", "properties": { "SiteID": "Building (General / Default)", "Neighbrhd": "Farafira", "DmgCls_4": "Destroyed" }, "geometry": { "type": "Point", "coordinates": [ 37.158837980000044, 36.201925066000058 ] } },
{ "type": "Feature", "properties": { "SiteID": "Building (General / Default)", "Neighbrhd": "Farafira", "DmgCls_4": "Destroyed" }, "geometry": { "type": "Point", "coordinates": [ 37.158195526000043, 36.20179657500006 ] } },
{ "type": "Feature", "properties": { "SiteID": "Building (General / Default)", "Neighbrhd": "Farafira", "DmgCls_4": "Destroyed" }, "geometry": { "type": "Point", "coordinates": [ 37.16063209400005, 36.200973282000064 ] } },
{ "type": "Feature", "properties": { "SiteID": "Building (General / Default)", "Neighbrhd": "Farafira", "DmgCls_4": "Destroyed" }, "geometry": { "type": "Point", "coordinates": [ 37.159670792000043, 36.200997077000068 ] } },
{ "type": "Feature", "properties": { "SiteID": "Building (General / Default)", "Neighbrhd": "Al Aajam", "DmgCls_4": "Destroyed" }, "geometry": { "type": "Point", "coordinates": [ 37.164458496000066, 36.196083732000034 ] } }
]
}
