{
"type": "FeatureCollection",
"name": "landmark_nodes",
"crs": { "type": "name", "properties": { "name": "urn:ogc:def:crs:OGC:1.3:CRS84" } },
"features": [
{ "type": "Feature", "properties": { "id": "aleppo_citadel", "name": "Aleppo Citadel", "lon": 37.163050615533386, "lat": 36.19949787160008 }, "geometry": { "type": "Point", "coordinates": [ 37.163050615533386, 36.19949787160008 ] } },
{ "type": "Feature", "properties": { "id": "aladaliyah_mosque", "name": "Al-Adaliyah Mosque", "lon": 37.1578, "lat": 36.1975 }, "geometry": { "type": "Point", "coordinates": [ 37.1578, 36.1975 ] } }
]
}
