{
"type": "FeatureCollection",
"name": "shortest_walking_routes",
"crs": { "type": "name", "properties": { "name": "urn:ogc:def:crs:OGC:1.3:CRS84" } },
"features": [
{ "type": "Feature", "properties": { "pair_id": "P1", "pair_label": "116 St subway ↔ Fayerweather Hall", "origin_id": "place-01", "origin": "116 St subway", "destination_id": "place-02", "destination": "Fayerweather Hall", "euclidean_m": 316.0468464461058, "origin_connector_m": 20.138522042386665, "graph_path_m": 427.79550818298952, "destination_connector_m": 14.409984589194165, "network_m": 462.34401481457036, "extra_m": 146.29716836846455, "detour_ratio": 1.4628970990014671, "path_nodes": 20 }, "geometry": { "type": "MultiLineString", "coordinates": [ [ [ -73.96419, 40.80767 ], [ -73.9640046, 40.8075558 ] ], [ [ -73.9640046, 40.8075558 ], [ -73.9639959, 40.8075677 ], [ -73.9639681, 40.807556 ] ], [ [ -73.9639681, 40.807556 ], [ -73.9639089, 40.8076378 ], [ -73.9637603, 40.8078429 ] ], [ [ -73.9637603, 40.8078429 ], [ -73.9637227, 40.8078947 ], [ -73.9636899, 40.8079401 ], [ -73.9636457, 40.8080012 ], [ -73.9636275, 40.8080263 ] ], [ [ -73.9636275, 40.8080263 ], [ -73.9635972, 40.8080681 ] ], [ [ -73.9635972, 40.8080681 ], [ -73.9634554, 40.808264 ] ], [ [ -73.9634554, 40.808264 ], [ -73.9630855, 40.8087608 ] ], [ [ -73.9630855, 40.8087608 ], [ -73.9630488, 40.8087435 ], [ -73.9628968, 40.8086784 ] ], [ [ -73.9628968, 40.8086784 ], [ -73.9628563, 40.8087297 ], [ -73.9627959, 40.8087447 ], [ -73.9626673, 40.8087348 ] ], [ [ -73.9626673, 40.8087348 ], [ -73.9625579, 40.8088753 ] ], [ [ -73.9625579, 40.8088753 ], [ -73.9625099, 40.8089399 ] ], [ [ -73.9625099, 40.8089399 ], [ -73.9623343, 40.8088673 ] ], [ [ -73.9623343, 40.8088673 ], [ -73.9620223, 40.8087386 ] ], [ [ -73.9620223, 40.8087386 ], [ -73.9619006, 40.8089069 ] ], [ [ -73.9619006, 40.8089069 ], [ -73.9617397, 40.8088402 ] ], [ [ -73.9617397, 40.8088402 ], [ -73.9614667, 40.8087271 ] ], [ [ -73.9614667, 40.8087271 ], [ -73.9612085, 40.8086201 ] ], [ [ -73.9612085, 40.8086201 ], [ -73.9610401, 40.8085551 ] ], [ [ -73.9610401, 40.8085551 ], [ -73.9609708, 40.8085277 ] ], [ [ -73.9609708, 40.8085277 ], [ -73.9608363, 40.8087104 ], [ -73.9607676, 40.8088043 ], [ -73.9607072, 40.8088886 ] ], [ [ -73.9607072, 40.8088886 ], [ -73.96073, 40.80876 ] ] ] } },
{ "type": "Feature", "properties": { "pair_id": "P2", "pair_label": "116 St subway ↔ Butler Library", "origin_id": "place-01", "origin": "116 St subway", "destination_id": "place-03", "destination": "Butler Library", "euclidean_m": 143.14535388304523, "origin_connector_m": 20.138522042386665, "graph_path_m": 184.61512632288884, "destination_connector_m": 12.742051926651998, "network_m": 217.49570029192751, "extra_m": 74.350346408882274, "detour_ratio": 1.51940453805877, "path_nodes": 11 }, "geometry": { "type": "MultiLineString", "coordinates": [ [ [ -73.96419, 40.80767 ], [ -73.9640046, 40.8075558 ] ], [ [ -73.9640046, 40.8075558 ], [ -73.9639959, 40.8075677 ], [ -73.9639681, 40.807556 ] ], [ [ -73.9639681, 40.807556 ], [ -73.9641446, 40.8073123 ] ], [ [ -73.9641446, 40.8073123 ], [ -73.9642056, 40.8072307 ] ], [ [ -73.9642056, 40.8072307 ], [ -73.9641652, 40.8072143 ], [ -73.964004, 40.8071482 ], [ -73.9639015, 40.8071259 ] ], [ [ -73.9639015, 40.8071259 ], [ -73.9637608, 40.8070679 ] ], [ [ -73.9637608, 40.8070679 ], [ -73.9635305, 40.8069711 ] ], [ [ -73.9635305, 40.8069711 ], [ -73.9634346, 40.8069293 ] ], [ [ -73.9634346, 40.8069293 ], [ -73.9635137, 40.8068132 ] ], [ [ -73.9635137, 40.8068132 ], [ -73.9630838, 40.8066307 ], [ -73.9630243, 40.8066051 ] ], [ [ -73.9630243, 40.8066051 ], [ -73.9630476, 40.8065728 ] ], [ [ -73.9630476, 40.8065728 ], [ -73.96317, 40.80664 ] ] ] } },
{ "type": "Feature", "properties": { "pair_id": "P3", "pair_label": "116 St subway ↔ Morningside Park", "origin_id": "place-01", "origin": "116 St subway", "destination_id": "place-04", "destination": "Morningside Park", "euclidean_m": 659.11794253974995, "origin_connector_m": 20.138522042386665, "graph_path_m": 838.77367470933416, "destination_connector_m": 19.865940174159419, "network_m": 878.77813692588018, "extra_m": 219.66019438613023, "detour_ratio": 1.3332638670701686, "path_nodes": 27 }, "geometry": { "type": "MultiLineString", "coordinates": [ [ [ -73.96419, 40.80767 ], [ -73.9640046, 40.8075558 ] ], [ [ -73.9640046, 40.8075558 ], [ -73.9639959, 40.8075677 ], [ -73.9639681, 40.807556 ] ], [ [ -73.9639681, 40.807556 ], [ -73.9639089, 40.8076378 ], [ -73.9637603, 40.8078429 ] ], [ [ -73.9637603, 40.8078429 ], [ -73.9637185, 40.8078255 ], [ -73.9636802, 40.8078095 ] ], [ [ -73.9636802, 40.8078095 ], [ -73.9630076, 40.8075293 ] ], [ [ -73.9630076, 40.8075293 ], [ -73.9629631, 40.8075108 ] ], [ [ -73.9629631, 40.8075108 ], [ -73.9626402, 40.8073762 ] ], [ [ -73.9626402, 40.8073762 ], [ -73.962502, 40.8073187 ] ], [ [ -73.962502, 40.8073187 ], [ -73.9623814, 40.8072684 ] ], [ [ -73.9623814, 40.8072684 ], [ -73.9620382, 40.8071255 ] ], [ [ -73.9620382, 40.8071255 ], [ -73.9620099, 40.8071136 ] ], [ [ -73.9620099, 40.8071136 ], [ -73.9613138, 40.8068236 ] ], [ [ -73.9613138, 40.8068236 ], [ -73.9612714, 40.806806 ], [ -73.9612359, 40.8067912 ] ], [ [ -73.9612359, 40.8067912 ], [ -73.9612158, 40.8067826 ], [ -73.9611978, 40.8067749 ], [ -73.9611217, 40.8067422 ], [ -73.9610242, 40.8067004 ], [ -73.9609867, 40.8066848 ] ], [ [ -73.9609867, 40.8066848 ], [ -73.9595159, 40.8060679 ] ], [ [ -73.9595159, 40.8060679 ], [ -73.959489, 40.8060566 ], [ -73.9594185, 40.8060312 ], [ -73.9593598, 40.8060101 ], [ -73.9593132, 40.8059958 ] ], [ [ -73.9593132, 40.8059958 ], [ -73.9592594, 40.8060677 ] ], [ [ -73.9592594, 40.8060677 ], [ -73.9592327, 40.8060571 ], [ -73.9591598, 40.8060261 ], [ -73.9592049, 40.8059647 ], [ -73.9593806, 40.8057172 ], [ -73.9593856, 40.8056884 ], [ -73.9593088, 40.8056565 ] ], [ [ -73.9593088, 40.8056565 ], [ -73.959289, 40.8056837 ], [ -73.9592196, 40.8057788 ], [ -73.9591877, 40.8057735 ], [ -73.9591111, 40.8057361 ] ], [ [ -73.9591111, 40.8057361 ], [ -73.9589649, 40.8057454 ] ], [ [ -73.9589649, 40.8057454 ], [ -73.9589669, 40.8058513 ], [ -73.9589538, 40.8059283 ], [ -73.9589522, 40.8059831 ], [ -73.9589561, 40.8060097 ], [ -73.9589619, 40.8060158 ] ], [ [ -73.9589619, 40.8060158 ], [ -73.9589269, 40.8060566 ], [ -73.9588592, 40.8061293 ], [ -73.9587085, 40.8061802 ], [ -73.958586, 40.8061914 ] ], [ [ -73.958586, 40.8061914 ], [ -73.9585785, 40.8061533 ], [ -73.9585743, 40.8061134 ], [ -73.9585631, 40.8060622 ], [ -73.9585469, 40.8059973 ] ], [ [ -73.9585469, 40.8059973 ], [ -73.9585202, 40.8059116 ] ], [ [ -73.9585202, 40.8059116 ], [ -73.9584044, 40.8058407 ], [ -73.9583638, 40.8058214 ], [ -73.9583248, 40.8058043 ], [ -73.9583111, 40.8057981 ], [ -73.9582897, 40.8057844 ] ], [ [ -73.9582897, 40.8057844 ], [ -73.9582361, 40.8057612 ], [ -73.9581306, 40.8057177 ], [ -73.9580451, 40.8056792 ], [ -73.9580187, 40.8056674 ] ], [ [ -73.9580187, 40.8056674 ], [ -73.9568492, 40.8051752 ] ], [ [ -73.9568492, 40.8051752 ], [ -73.95704, 40.80528 ] ] ] } },
{ "type": "Feature", "properties": { "pair_id": "P4", "pair_label": "Fayerweather Hall ↔ Butler Library", "origin_id": "place-02", "origin": "Fayerweather Hall", "destination_id": "place-03", "destination": "Butler Library", "euclidean_m": 312.7513777381044, "origin_connector_m": 14.409984589194165, "graph_path_m": 387.93518910832222, "destination_connector_m": 12.742051926651998, "network_m": 415.08722562416835, "extra_m": 102.33584788606396, "detour_ratio": 1.3272115014366435, "path_nodes": 22 }, "geometry": { "type": "MultiLineString", "coordinates": [ [ [ -73.96073, 40.80876 ], [ -73.9607072, 40.8088886 ] ], [ [ -73.9607072, 40.8088886 ], [ -73.9607676, 40.8088043 ], [ -73.9608363, 40.8087104 ], [ -73.9609708, 40.8085277 ] ], [ [ -73.9609708, 40.8085277 ], [ -73.9610401, 40.8085551 ] ], [ [ -73.9610401, 40.8085551 ], [ -73.9611748, 40.808369 ] ], [ [ -73.9611748, 40.808369 ], [ -73.9612578, 40.8082543 ] ], [ [ -73.9612578, 40.8082543 ], [ -73.9613295, 40.8081558 ] ], [ [ -73.9613295, 40.8081558 ], [ -73.9614097, 40.8080454 ] ], [ [ -73.9614097, 40.8080454 ], [ -73.9614957, 40.807927 ] ], [ [ -73.9614957, 40.807927 ], [ -73.9615487, 40.807854 ] ], [ [ -73.9615487, 40.807854 ], [ -73.961671, 40.8076858 ] ], [ [ -73.961671, 40.8076858 ], [ -73.9618407, 40.8077568 ] ], [ [ -73.9618407, 40.8077568 ], [ -73.9619122, 40.8077858 ], [ -73.9621037, 40.8078665 ] ], [ [ -73.9621037, 40.8078665 ], [ -73.962116, 40.8078495 ], [ -73.9621333, 40.8078256 ], [ -73.9621703, 40.8077746 ], [ -73.9621933, 40.8077429 ], [ -73.9622458, 40.8076717 ] ], [ [ -73.9622458, 40.8076717 ], [ -73.962308, 40.8075899 ] ], [ [ -73.962308, 40.8075899 ], [ -73.9623663, 40.8075087 ] ], [ [ -73.9623663, 40.8075087 ], [ -73.9624361, 40.8074124 ], [ -73.962502, 40.8073187 ] ], [ [ -73.962502, 40.8073187 ], [ -73.9623814, 40.8072684 ] ], [ [ -73.9623814, 40.8072684 ], [ -73.9624032, 40.8072402 ], [ -73.9624252, 40.8072088 ], [ -73.9624364, 40.8071928 ] ], [ [ -73.9624364, 40.8071928 ], [ -73.9624922, 40.8072165 ] ], [ [ -73.9624922, 40.8072165 ], [ -73.9628707, 40.8067087 ], [ -73.9628783, 40.8066984 ], [ -73.9628926, 40.8066909 ], [ -73.9629748, 40.8066729 ] ], [ [ -73.9629748, 40.8066729 ], [ -73.9629914, 40.8066506 ], [ -73.9630095, 40.8066256 ], [ -73.9630243, 40.8066051 ] ], [ [ -73.9630243, 40.8066051 ], [ -73.9630476, 40.8065728 ] ], [ [ -73.9630476, 40.8065728 ], [ -73.96317, 40.80664 ] ] ] } },
{ "type": "Feature", "properties": { "pair_id": "P5", "pair_label": "Fayerweather Hall ↔ Morningside Park", "origin_id": "place-02", "origin": "Fayerweather Hall", "destination_id": "place-04", "destination": "Morningside Park", "euclidean_m": 496.27759803560923, "origin_connector_m": 14.409984589194165, "graph_path_m": 868.58198035793782, "destination_connector_m": 19.865940174159419, "network_m": 902.85790512129142, "extra_m": 406.58030708568219, "detour_ratio": 1.8192598430697429, "path_nodes": 33 }, "geometry": { "type": "MultiLineString", "coordinates": [ [ [ -73.96073, 40.80876 ], [ -73.9607072, 40.8088886 ] ], [ [ -73.9607072, 40.8088886 ], [ -73.9607676, 40.8088043 ], [ -73.9608363, 40.8087104 ], [ -73.9609708, 40.8085277 ] ], [ [ -73.9609708, 40.8085277 ], [ -73.9610401, 40.8085551 ] ], [ [ -73.9610401, 40.8085551 ], [ -73.9611748, 40.808369 ] ], [ [ -73.9611748, 40.808369 ], [ -73.9612578, 40.8082543 ] ], [ [ -73.9612578, 40.8082543 ], [ -73.9613295, 40.8081558 ] ], [ [ -73.9613295, 40.8081558 ], [ -73.9614097, 40.8080454 ] ], [ [ -73.9614097, 40.8080454 ], [ -73.9614957, 40.807927 ] ], [ [ -73.9614957, 40.807927 ], [ -73.9615487, 40.807854 ] ], [ [ -73.9615487, 40.807854 ], [ -73.961671, 40.8076858 ] ], [ [ -73.961671, 40.8076858 ], [ -73.961565, 40.807641 ] ], [ [ -73.961565, 40.807641 ], [ -73.9616809, 40.8074873 ] ], [ [ -73.9616809, 40.8074873 ], [ -73.9617143, 40.8074412 ], [ -73.9617286, 40.8074469 ], [ -73.9618271, 40.807494 ] ], [ [ -73.9618271, 40.807494 ], [ -73.961884, 40.80741 ] ], [ [ -73.961884, 40.80741 ], [ -73.9619458, 40.8073263 ] ], [ [ -73.9619458, 40.8073263 ], [ -73.9619089, 40.8073103 ] ], [ [ -73.9619089, 40.8073103 ], [ -73.9618444, 40.8072826 ], [ -73.9611833, 40.8070001 ] ], [ [ -73.9611833, 40.8070001 ], [ -73.9611432, 40.806983 ], [ -73.961105, 40.8069672 ] ], [ [ -73.961105, 40.8069672 ], [ -73.9610864, 40.8069592 ], [ -73.9610647, 40.8069499 ], [ -73.9609926, 40.8069192 ], [ -73.9608955, 40.8068778 ], [ -73.9608576, 40.8068614 ] ], [ [ -73.9608576, 40.8068614 ], [ -73.9601995, 40.8065765 ], [ -73.9601562, 40.8065578 ] ], [ [ -73.9601562, 40.8065578 ], [ -73.9601006, 40.8065338 ], [ -73.9593977, 40.8062297 ] ], [ [ -73.9593977, 40.8062297 ], [ -73.9593748, 40.8062197 ], [ -73.9593036, 40.8061917 ], [ -73.9592428, 40.8061676 ], [ -73.9592012, 40.8061481 ] ], [ [ -73.9592012, 40.8061481 ], [ -73.9592594, 40.8060677 ] ], [ [ -73.9592594, 40.8060677 ], [ -73.9592327, 40.8060571 ], [ -73.9591598, 40.8060261 ], [ -73.9592049, 40.8059647 ], [ -73.9593806, 40.8057172 ], [ -73.9593856, 40.8056884 ], [ -73.9593088, 40.8056565 ] ], [ [ -73.9593088, 40.8056565 ], [ -73.959289, 40.8056837 ], [ -73.9592196, 40.8057788 ], [ -73.9591877, 40.8057735 ], [ -73.9591111, 40.8057361 ] ], [ [ -73.9591111, 40.8057361 ], [ -73.9589649, 40.8057454 ] ], [ [ -73.9589649, 40.8057454 ], [ -73.9589669, 40.8058513 ], [ -73.9589538, 40.8059283 ], [ -73.9589522, 40.8059831 ], [ -73.9589561, 40.8060097 ], [ -73.9589619, 40.8060158 ] ], [ [ -73.9589619, 40.8060158 ], [ -73.9589269, 40.8060566 ], [ -73.9588592, 40.8061293 ], [ -73.9587085, 40.8061802 ], [ -73.958586, 40.8061914 ] ], [ [ -73.958586, 40.8061914 ], [ -73.9585785, 40.8061533 ], [ -73.9585743, 40.8061134 ], [ -73.9585631, 40.8060622 ], [ -73.9585469, 40.8059973 ] ], [ [ -73.9585469, 40.8059973 ], [ -73.9585202, 40.8059116 ] ], [ [ -73.9585202, 40.8059116 ], [ -73.9584044, 40.8058407 ], [ -73.9583638, 40.8058214 ], [ -73.9583248, 40.8058043 ], [ -73.9583111, 40.8057981 ], [ -73.9582897, 40.8057844 ] ], [ [ -73.9582897, 40.8057844 ], [ -73.9582361, 40.8057612 ], [ -73.9581306, 40.8057177 ], [ -73.9580451, 40.8056792 ], [ -73.9580187, 40.8056674 ] ], [ [ -73.9580187, 40.8056674 ], [ -73.9568492, 40.8051752 ] ], [ [ -73.9568492, 40.8051752 ], [ -73.95704, 40.80528 ] ] ] } },
{ "type": "Feature", "properties": { "pair_id": "P6", "pair_label": "Butler Library ↔ Morningside Park", "origin_id": "place-03", "origin": "Butler Library", "destination_id": "place-04", "destination": "Morningside Park", "euclidean_m": 538.85325062151787, "origin_connector_m": 12.742051926651998, "graph_path_m": 768.22770827379179, "destination_connector_m": 19.865940174159419, "network_m": 800.83570037460322, "extra_m": 261.98244975308535, "detour_ratio": 1.4861851523599656, "path_nodes": 24 }, "geometry": { "type": "MultiLineString", "coordinates": [ [ [ -73.96317, 40.80664 ], [ -73.9630476, 40.8065728 ] ], [ [ -73.9630476, 40.8065728 ], [ -73.9630243, 40.8066051 ] ], [ [ -73.9630243, 40.8066051 ], [ -73.9630095, 40.8066256 ], [ -73.9629914, 40.8066506 ], [ -73.9629748, 40.8066729 ] ], [ [ -73.9629748, 40.8066729 ], [ -73.9628926, 40.8066909 ], [ -73.9628783, 40.8066984 ], [ -73.9628707, 40.8067087 ], [ -73.9624922, 40.8072165 ] ], [ [ -73.9624922, 40.8072165 ], [ -73.9624364, 40.8071928 ] ], [ [ -73.9624364, 40.8071928 ], [ -73.9624252, 40.8072088 ], [ -73.9624032, 40.8072402 ], [ -73.9623814, 40.8072684 ] ], [ [ -73.9623814, 40.8072684 ], [ -73.9620382, 40.8071255 ] ], [ [ -73.9620382, 40.8071255 ], [ -73.9620099, 40.8071136 ] ], [ [ -73.9620099, 40.8071136 ], [ -73.9613138, 40.8068236 ] ], [ [ -73.9613138, 40.8068236 ], [ -73.9612714, 40.806806 ], [ -73.9612359, 40.8067912 ] ], [ [ -73.9612359, 40.8067912 ], [ -73.9612158, 40.8067826 ], [ -73.9611978, 40.8067749 ], [ -73.9611217, 40.8067422 ], [ -73.9610242, 40.8067004 ], [ -73.9609867, 40.8066848 ] ], [ [ -73.9609867, 40.8066848 ], [ -73.9595159, 40.8060679 ] ], [ [ -73.9595159, 40.8060679 ], [ -73.959489, 40.8060566 ], [ -73.9594185, 40.8060312 ], [ -73.9593598, 40.8060101 ], [ -73.9593132, 40.8059958 ] ], [ [ -73.9593132, 40.8059958 ], [ -73.9592594, 40.8060677 ] ], [ [ -73.9592594, 40.8060677 ], [ -73.9592327, 40.8060571 ], [ -73.9591598, 40.8060261 ], [ -73.9592049, 40.8059647 ], [ -73.9593806, 40.8057172 ], [ -73.9593856, 40.8056884 ], [ -73.9593088, 40.8056565 ] ], [ [ -73.9593088, 40.8056565 ], [ -73.959289, 40.8056837 ], [ -73.9592196, 40.8057788 ], [ -73.9591877, 40.8057735 ], [ -73.9591111, 40.8057361 ] ], [ [ -73.9591111, 40.8057361 ], [ -73.9589649, 40.8057454 ] ], [ [ -73.9589649, 40.8057454 ], [ -73.9589669, 40.8058513 ], [ -73.9589538, 40.8059283 ], [ -73.9589522, 40.8059831 ], [ -73.9589561, 40.8060097 ], [ -73.9589619, 40.8060158 ] ], [ [ -73.9589619, 40.8060158 ], [ -73.9589269, 40.8060566 ], [ -73.9588592, 40.8061293 ], [ -73.9587085, 40.8061802 ], [ -73.958586, 40.8061914 ] ], [ [ -73.958586, 40.8061914 ], [ -73.9585785, 40.8061533 ], [ -73.9585743, 40.8061134 ], [ -73.9585631, 40.8060622 ], [ -73.9585469, 40.8059973 ] ], [ [ -73.9585469, 40.8059973 ], [ -73.9585202, 40.8059116 ] ], [ [ -73.9585202, 40.8059116 ], [ -73.9584044, 40.8058407 ], [ -73.9583638, 40.8058214 ], [ -73.9583248, 40.8058043 ], [ -73.9583111, 40.8057981 ], [ -73.9582897, 40.8057844 ] ], [ [ -73.9582897, 40.8057844 ], [ -73.9582361, 40.8057612 ], [ -73.9581306, 40.8057177 ], [ -73.9580451, 40.8056792 ], [ -73.9580187, 40.8056674 ] ], [ [ -73.9580187, 40.8056674 ], [ -73.9568492, 40.8051752 ] ], [ [ -73.9568492, 40.8051752 ], [ -73.95704, 40.80528 ] ] ] } }
]
}
