{
"type": "FeatureCollection",
"name": "snapped_study_locations",
"crs": { "type": "name", "properties": { "name": "urn:ogc:def:crs:OGC:1.3:CRS84" } },
"features": [
{ "type": "Feature", "properties": { "place_id": "place-01", "sequence": 1, "name": "116 St–Columbia University subway entrance", "short_name": "116 St subway", "role": "transit", "privacy_level": "public place", "snapped_node": "3271250939", "connector_m": 20.138522042386665, "snapped_lon": -73.9640046, "snapped_lat": 40.8075558 }, "geometry": { "type": "Point", "coordinates": [ -73.96419, 40.80767 ] } },
{ "type": "Feature", "properties": { "place_id": "place-02", "sequence": 2, "name": "Fayerweather Hall", "short_name": "Fayerweather Hall", "role": "studio / class", "privacy_level": "public institutional place", "snapped_node": "2340960673", "connector_m": 14.409984589194165, "snapped_lon": -73.9607072, "snapped_lat": 40.8088886 }, "geometry": { "type": "Point", "coordinates": [ -73.96073, 40.80876 ] } },
{ "type": "Feature", "properties": { "place_id": "place-03", "sequence": 3, "name": "Butler Library", "short_name": "Butler Library", "role": "study", "privacy_level": "public institutional place", "snapped_node": "3907629298", "connector_m": 12.742051926651998, "snapped_lon": -73.9630476, "snapped_lat": 40.8065728 }, "geometry": { "type": "Point", "coordinates": [ -73.96317, 40.80664 ] } },
{ "type": "Feature", "properties": { "place_id": "place-04", "sequence": 4, "name": "Morningside Park west entrance", "short_name": "Morningside Park", "role": "outdoor break", "privacy_level": "public place", "snapped_node": "6814306897", "connector_m": 19.865940174159419, "snapped_lon": -73.9568492, "snapped_lat": 40.8051752 }, "geometry": { "type": "Point", "coordinates": [ -73.95704, 40.80528 ] } }
]
}
