{
"type": "FeatureCollection",
"name": "dot_pause_candidates",
"crs": { "type": "name", "properties": { "name": "urn:ogc:def:crs:OGC:1.3:CRS84" } },
"features": [
{ "type": "Feature", "properties": { "candidate_id": "DOT_SEAT.2024.0483", "candidate_type": "Bench", "candidate_name": "1060 6 Avenue", "Asset_Subtype": "BACKLESS 2.0", "On_Street": "W 42 Street", "From_Street": "6 Avenue", "To_Street": "5 Avenue", "Latitude": 40.754525, "Longitude": -73.983614, "radial_distance_m": 108.50662450810228, "approx_minutes_radial": 1.4, "sample_id": "SEG_0038_P026", "segment_id": "SEG_0038", "street_name": "W 42 ST", "sample_link_distance_m": 11.133595488076676, "tree_distance_m": 14.837277002018745, "building_distance_m": 15.277248157736754, "tree_class": "Tree Near", "building_class": "Building Far", "visual_condition": "Vegetated Buffer", "orientation_group": "East–West / Cross-street-like", "screening_potential": true, "visual_measured": true }, "geometry": { "type": "Point", "coordinates": [ -73.983614, 40.754525 ] } },
{ "type": "Feature", "properties": { "candidate_id": "DOT_SEAT.2025.0637", "candidate_type": "Leaning Bar", "candidate_name": "6 Avenue", "Asset_Subtype": "LEANING BAR", "On_Street": "6 Avenue", "From_Street": "W 40 Street", "To_Street": "W 42 Street", "Latitude": 40.75388, "Longitude": -73.984629, "radial_distance_m": 124.61659417870932, "approx_minutes_radial": 1.6, "sample_id": null, "segment_id": null, "street_name": null, "sample_link_distance_m": null, "tree_distance_m": null, "building_distance_m": null, "tree_class": null, "building_class": null, "visual_condition": null, "orientation_group": null, "screening_potential": false, "visual_measured": false }, "geometry": { "type": "Point", "coordinates": [ -73.984629, 40.75388 ] } },
{ "type": "Feature", "properties": { "candidate_id": "DOT_SEAT.2024.0591", "candidate_type": "Bench", "candidate_name": "12 E 42 Street", "Asset_Subtype": "BACKLESS 2.0", "On_Street": "E 42 Street", "From_Street": "5 Avenue", "To_Street": "Madison Avenue", "Latitude": 40.753181, "Longitude": -73.980421, "radial_distance_m": 239.24827983293076, "approx_minutes_radial": 3.0, "sample_id": "SEG_0096_P006", "segment_id": "SEG_0096", "street_name": "E 42 ST", "sample_link_distance_m": 11.28641336537078, "tree_distance_m": 28.286331091599163, "building_distance_m": 15.603056135598754, "tree_class": "Tree Near", "building_class": "Building Far", "visual_condition": "Vegetated Buffer", "orientation_group": "East–West / Cross-street-like", "screening_potential": true, "visual_measured": true }, "geometry": { "type": "Point", "coordinates": [ -73.980421, 40.753181 ] } },
{ "type": "Feature", "properties": { "candidate_id": "DOT_SEAT.2024.0287", "candidate_type": "Bench", "candidate_name": "1010 6 Avenue", "Asset_Subtype": "BACKLESS 2.0", "On_Street": "6 Avenue", "From_Street": "W 37 Street", "To_Street": "W 38 Street", "Latitude": 40.752101, "Longitude": -73.985952, "radial_distance_m": 285.86754938281922, "approx_minutes_radial": 3.6, "sample_id": "SEG_0020_P006", "segment_id": "SEG_0020", "street_name": "AVE OF THE AMERICAS", "sample_link_distance_m": 11.92110636750507, "tree_distance_m": 69.941506448670253, "building_distance_m": 15.21278716207453, "tree_class": "Tree Far", "building_class": "Building Far", "visual_condition": "Open Field", "orientation_group": "North–South / Avenue-like", "screening_potential": false, "visual_measured": true }, "geometry": { "type": "Point", "coordinates": [ -73.985952, 40.752101 ] } },
{ "type": "Feature", "properties": { "candidate_id": "DOT_SEAT.2024.0474", "candidate_type": "Leaning Bar", "candidate_name": "990 6 Avenue", "Asset_Subtype": "LEANING BAR", "On_Street": "6 Avenue", "From_Street": "W 36 Street", "To_Street": "W 37 Street", "Latitude": 40.751513, "Longitude": -73.986364, "radial_distance_m": 353.70282367270806, "approx_minutes_radial": 4.4, "sample_id": null, "segment_id": null, "street_name": null, "sample_link_distance_m": null, "tree_distance_m": null, "building_distance_m": null, "tree_class": null, "building_class": null, "visual_condition": null, "orientation_group": null, "screening_potential": false, "visual_measured": false }, "geometry": { "type": "Point", "coordinates": [ -73.986364, 40.751513 ] } },
{ "type": "Feature", "properties": { "candidate_id": "DOT_SEAT.2026.0742", "candidate_type": "Bench", "candidate_name": "22 Madison Avenue", "Asset_Subtype": "BACKLESS 2.0", "On_Street": "Madison Avenue", "From_Street": "E 43 Street", "To_Street": "E 44 Street", "Latitude": 40.753684, "Longitude": -73.978521, "radial_distance_m": 395.23930165100336, "approx_minutes_radial": 4.9, "sample_id": "SEG_0101_P003", "segment_id": "SEG_0101", "street_name": "MADISON AVE", "sample_link_distance_m": 10.148733686058177, "tree_distance_m": 8.2548614272822682, "building_distance_m": 12.304600621766008, "tree_class": "Tree Near", "building_class": "Building Far", "visual_condition": "Vegetated Buffer", "orientation_group": "North–South / Avenue-like", "screening_potential": true, "visual_measured": true }, "geometry": { "type": "Point", "coordinates": [ -73.978521, 40.753684 ] } },
{ "type": "Feature", "properties": { "candidate_id": "DOT_SEAT.2024.0497", "candidate_type": "Bench", "candidate_name": "386 5 Avenue", "Asset_Subtype": "BACKLESS 2.0", "On_Street": "5 Avenue", "From_Street": "E 36 Street", "To_Street": "E 35 Street", "Latitude": 40.749571, "Longitude": -73.983888, "radial_distance_m": 451.17201693503637, "approx_minutes_radial": 5.6, "sample_id": "SEG_0013_P006", "segment_id": "SEG_0013", "street_name": "5 AVE", "sample_link_distance_m": 11.159011107546432, "tree_distance_m": 11.235112218299149, "building_distance_m": 15.276908084270946, "tree_class": "Tree Near", "building_class": "Building Far", "visual_condition": "Vegetated Buffer", "orientation_group": "North–South / Avenue-like", "screening_potential": true, "visual_measured": true }, "geometry": { "type": "Point", "coordinates": [ -73.983888, 40.749571 ] } },
{ "type": "Feature", "properties": { "candidate_id": "DOT_SEAT.2024.0493", "candidate_type": "Bench", "candidate_name": "562 5 Avenue", "Asset_Subtype": "BACKLESS 2.0", "On_Street": "5 Avenue", "From_Street": "W 47 Street", "To_Street": "W 46 Street", "Latitude": 40.756207, "Longitude": -73.979041, "radial_distance_m": 455.1494789197651, "approx_minutes_radial": 5.7, "sample_id": "SEG_0104_P002", "segment_id": "SEG_0104", "street_name": "5 AVE", "sample_link_distance_m": 10.226655208070593, "tree_distance_m": 9.9906718520610269, "building_distance_m": 15.286358707695216, "tree_class": "Tree Near", "building_class": "Building Far", "visual_condition": "Vegetated Buffer", "orientation_group": "North–South / Avenue-like", "screening_potential": true, "visual_measured": true }, "geometry": { "type": "Point", "coordinates": [ -73.979041, 40.756207 ] } },
{ "type": "Feature", "properties": { "candidate_id": "DOT_SEAT.2024.0471", "candidate_type": "Bench", "candidate_name": "966 6 Avenue", "Asset_Subtype": "BACKLESS 2.0", "On_Street": "6 Avenue", "From_Street": "W 35 Street", "To_Street": "W 36 Street", "Latitude": 40.750679, "Longitude": -73.986985, "radial_distance_m": 455.39880371694687, "approx_minutes_radial": 5.7, "sample_id": "SEG_0022_P004", "segment_id": "SEG_0022", "street_name": "AVE OF THE AMERICAS", "sample_link_distance_m": 11.650034593269517, "tree_distance_m": 54.066287182593761, "building_distance_m": 15.206593453222311, "tree_class": "Tree Far", "building_class": "Building Far", "visual_condition": "Open Field", "orientation_group": "North–South / Avenue-like", "screening_potential": false, "visual_measured": true }, "geometry": { "type": "Point", "coordinates": [ -73.986985, 40.750679 ] } },
{ "type": "Feature", "properties": { "candidate_id": "DOT_SEAT.2026.0710", "candidate_type": "Bench", "candidate_name": "950 6 Avenue", "Asset_Subtype": "BACKLESS 2.0", "On_Street": "6 Avenue", "From_Street": "W 34 Street", "To_Street": "W 35 Street", "Latitude": 40.750299, "Longitude": -73.987279, "radial_distance_m": 503.02499992371764, "approx_minutes_radial": 6.3, "sample_id": "SEG_0008_P007", "segment_id": "SEG_0008", "street_name": "AVE OF THE AMERICAS", "sample_link_distance_m": 10.504331270012372, "tree_distance_m": 70.019846137361199, "building_distance_m": 13.946018148201137, "tree_class": "Tree Far", "building_class": "Building Far", "visual_condition": "Open Field", "orientation_group": "North–South / Avenue-like", "screening_potential": false, "visual_measured": true }, "geometry": { "type": "Point", "coordinates": [ -73.987279, 40.750299 ] } },
{ "type": "Feature", "properties": { "candidate_id": "DOT_SEAT.2025.0638", "candidate_type": "Leaning Bar", "candidate_name": "1212 6 Avenue", "Asset_Subtype": "LEANING BAR", "On_Street": "6 Avenue", "From_Street": "W 47 Street", "To_Street": "W 48 Street", "Latitude": 40.758215, "Longitude": -73.98148, "radial_distance_m": 532.67445480917581, "approx_minutes_radial": 6.7, "sample_id": null, "segment_id": null, "street_name": null, "sample_link_distance_m": null, "tree_distance_m": null, "building_distance_m": null, "tree_class": null, "building_class": null, "visual_condition": null, "orientation_group": null, "screening_potential": false, "visual_measured": false }, "geometry": { "type": "Point", "coordinates": [ -73.98148, 40.758215 ] } },
{ "type": "Feature", "properties": { "candidate_id": "DOT_SEAT.2025.0628", "candidate_type": "Bench", "candidate_name": "492 7 Avenue", "Asset_Subtype": "BACKLESS 2.0", "On_Street": "7 Avenue", "From_Street": "W 37 Street", "To_Street": "W 36 Street", "Latitude": 40.752642, "Longitude": -73.989582, "radial_distance_m": 549.34677123492679, "approx_minutes_radial": 6.9, "sample_id": null, "segment_id": null, "street_name": null, "sample_link_distance_m": null, "tree_distance_m": null, "building_distance_m": null, "tree_class": null, "building_class": null, "visual_condition": null, "orientation_group": null, "screening_potential": false, "visual_measured": false }, "geometry": { "type": "Point", "coordinates": [ -73.989582, 40.752642 ] } },
{ "type": "Feature", "properties": { "candidate_id": "DOT_SEAT.2025.0014", "candidate_type": "Bench", "candidate_name": "52 Park Avenue", "Asset_Subtype": "BACKED 2.0", "On_Street": "Park Avenue", "From_Street": "E 38 Street", "To_Street": "E 37 Street", "Latitude": 40.749256, "Longitude": -73.979974, "radial_distance_m": 554.00992224612719, "approx_minutes_radial": 6.9, "sample_id": "SEG_0057_P003", "segment_id": "SEG_0057", "street_name": "PARK AVE", "sample_link_distance_m": 6.5910457751791212, "tree_distance_m": 6.84519423812693, "building_distance_m": 12.593574524979164, "tree_class": "Tree Near", "building_class": "Building Far", "visual_condition": "Vegetated Buffer", "orientation_group": "North–South / Avenue-like", "screening_potential": true, "visual_measured": true }, "geometry": { "type": "Point", "coordinates": [ -73.979974, 40.749256 ] } },
{ "type": "Feature", "properties": { "candidate_id": "DOT_SEAT.2026.0746", "candidate_type": "Bench", "candidate_name": "209 Madison Avenue", "Asset_Subtype": "BACKLESS 2.0", "On_Street": "Madison Avenue", "From_Street": "E 35 Street", "To_Street": "E 36 Street", "Latitude": 40.748635, "Longitude": -73.982231, "radial_distance_m": 557.39652307583128, "approx_minutes_radial": 7.0, "sample_id": null, "segment_id": null, "street_name": null, "sample_link_distance_m": null, "tree_distance_m": null, "building_distance_m": null, "tree_class": null, "building_class": null, "visual_condition": null, "orientation_group": null, "screening_potential": false, "visual_measured": false }, "geometry": { "type": "Point", "coordinates": [ -73.982231, 40.748635 ] } },
{ "type": "Feature", "properties": { "candidate_id": "DOT_SEAT.2024.0492", "candidate_type": "Bench", "candidate_name": "151 W 34 Street", "Asset_Subtype": "BACKLESS 2.0", "On_Street": "W 34 Street", "From_Street": "Broadway", "To_Street": "7 Avenue", "Latitude": 40.750159, "Longitude": -73.988383, "radial_distance_m": 581.03175903824194, "approx_minutes_radial": 7.3, "sample_id": null, "segment_id": null, "street_name": null, "sample_link_distance_m": null, "tree_distance_m": null, "building_distance_m": null, "tree_class": null, "building_class": null, "visual_condition": null, "orientation_group": null, "screening_potential": false, "visual_measured": false }, "geometry": { "type": "Point", "coordinates": [ -73.988383, 40.750159 ] } },
{ "type": "Feature", "properties": { "candidate_id": "DOT_SEAT.2013.0198", "candidate_type": "Bench", "candidate_name": "199 Madison Avenue", "Asset_Subtype": "BACKLESS 1.0", "On_Street": "Madison Avenue", "From_Street": "E 34 Street", "To_Street": "E 35 Street", "Latitude": 40.74825054, "Longitude": -73.98249195, "radial_distance_m": 597.05238721433636, "approx_minutes_radial": 7.5, "sample_id": null, "segment_id": null, "street_name": null, "sample_link_distance_m": null, "tree_distance_m": null, "building_distance_m": null, "tree_class": null, "building_class": null, "visual_condition": null, "orientation_group": null, "screening_potential": false, "visual_measured": false }, "geometry": { "type": "Point", "coordinates": [ -73.98249195, 40.74825054 ] } },
{ "type": "Feature", "properties": { "candidate_id": "DOT_SEAT.2016.0181", "candidate_type": "Leaning Bar", "candidate_name": "4 E 34th Street", "Asset_Subtype": "LEANING BAR", "On_Street": "E 34 Street", "From_Street": "5 Avenue", "To_Street": "Madison Avenue", "Latitude": 40.74822976, "Longitude": -73.98424254, "radial_distance_m": 602.82225675030259, "approx_minutes_radial": 7.5, "sample_id": null, "segment_id": null, "street_name": null, "sample_link_distance_m": null, "tree_distance_m": null, "building_distance_m": null, "tree_class": null, "building_class": null, "visual_condition": null, "orientation_group": null, "screening_potential": false, "visual_measured": false }, "geometry": { "type": "Point", "coordinates": [ -73.98424254, 40.74822975999998 ] } },
{ "type": "Feature", "properties": { "candidate_id": "DOT_SEAT.2013.0197", "candidate_type": "Bench", "candidate_name": "191 Madison Ave", "Asset_Subtype": "BACKLESS 2.0", "On_Street": "Madison Avenue", "From_Street": "E 34 Street", "To_Street": "E 35 Street", "Latitude": 40.74803416, "Longitude": -73.98265025000001, "radial_distance_m": 619.82048545775353, "approx_minutes_radial": 7.7, "sample_id": null, "segment_id": null, "street_name": null, "sample_link_distance_m": null, "tree_distance_m": null, "building_distance_m": null, "tree_class": null, "building_class": null, "visual_condition": null, "orientation_group": null, "screening_potential": false, "visual_measured": false }, "geometry": { "type": "Point", "coordinates": [ -73.98265025, 40.74803416000001 ] } },
{ "type": "Feature", "properties": { "candidate_id": "DOT_SEAT.2023.0624", "candidate_type": "Bench", "candidate_name": "219 W 34 Street", "Asset_Subtype": "BACKLESS 2.0", "On_Street": "W 34 Street", "From_Street": "7 Avenue", "To_Street": "8 Avenue", "Latitude": 40.75125, "Longitude": -73.991027, "radial_distance_m": 710.63289965362321, "approx_minutes_radial": 8.9, "sample_id": null, "segment_id": null, "street_name": null, "sample_link_distance_m": null, "tree_distance_m": null, "building_distance_m": null, "tree_class": null, "building_class": null, "visual_condition": null, "orientation_group": null, "screening_potential": false, "visual_measured": false }, "geometry": { "type": "Point", "coordinates": [ -73.991027, 40.75125 ] } },
{ "type": "Feature", "properties": { "candidate_id": "DOT_SEAT.1900.0030", "candidate_type": "Leaning Bar", "candidate_name": "61 E 34 Street", "Asset_Subtype": "LEANING BAR", "On_Street": "E 34 Street", "From_Street": "Park Avenue", "To_Street": "Madison Avenue", "Latitude": 40.747305, "Longitude": -73.981637, "radial_distance_m": 711.40448605987319, "approx_minutes_radial": 8.9, "sample_id": null, "segment_id": null, "street_name": null, "sample_link_distance_m": null, "tree_distance_m": null, "building_distance_m": null, "tree_class": null, "building_class": null, "visual_condition": null, "orientation_group": null, "screening_potential": false, "visual_measured": false }, "geometry": { "type": "Point", "coordinates": [ -73.981637, 40.747305 ] } },
{ "type": "Feature", "properties": { "candidate_id": "DOT_SEAT.2024.0478", "candidate_type": "Bench", "candidate_name": "320 5 Avenue", "Asset_Subtype": "BACKLESS 2.0", "On_Street": "5 Avenue", "From_Street": "W 33 Street", "To_Street": "W 32 Street", "Latitude": 40.74732, "Longitude": -73.985516, "radial_distance_m": 724.29422897297729, "approx_minutes_radial": 9.1, "sample_id": null, "segment_id": null, "street_name": null, "sample_link_distance_m": null, "tree_distance_m": null, "building_distance_m": null, "tree_class": null, "building_class": null, "visual_condition": null, "orientation_group": null, "screening_potential": false, "visual_measured": false }, "geometry": { "type": "Point", "coordinates": [ -73.985516, 40.74732 ] } },
{ "type": "Feature", "properties": { "candidate_id": "DOT_SEAT.2013.0199", "candidate_type": "Bench", "candidate_name": "165 Madison Avenue", "Asset_Subtype": "BACKLESS 2.0", "On_Street": "Madison Avenue", "From_Street": "E 32 Street", "To_Street": "E 33 Street", "Latitude": 40.74691503, "Longitude": -73.98346642, "radial_distance_m": 742.69801415005725, "approx_minutes_radial": 9.3, "sample_id": null, "segment_id": null, "street_name": null, "sample_link_distance_m": null, "tree_distance_m": null, "building_distance_m": null, "tree_class": null, "building_class": null, "visual_condition": null, "orientation_group": null, "screening_potential": false, "visual_measured": false }, "geometry": { "type": "Point", "coordinates": [ -73.98346642, 40.74691503 ] } },
{ "type": "Feature", "properties": { "candidate_id": "DOT_SEAT.2022.0073", "candidate_type": "Bench", "candidate_name": "4 Park Avenue", "Asset_Subtype": "BACKED 2.0", "On_Street": "Park Avenue", "From_Street": "E 34 Street", "To_Street": "E 34 Street", "Latitude": 40.746935, "Longitude": -73.981651, "radial_distance_m": 751.61105705139369, "approx_minutes_radial": 9.4, "sample_id": null, "segment_id": null, "street_name": null, "sample_link_distance_m": null, "tree_distance_m": null, "building_distance_m": null, "tree_class": null, "building_class": null, "visual_condition": null, "orientation_group": null, "screening_potential": false, "visual_measured": false }, "geometry": { "type": "Point", "coordinates": [ -73.981651, 40.746935 ] } },
{ "type": "Feature", "properties": { "candidate_id": "DOT_SEAT.2025.0625", "candidate_type": "Leaning Bar", "candidate_name": "750 7 Avenue", "Asset_Subtype": "LEANING BAR", "On_Street": "7 Avenue", "From_Street": "W 50 Street", "To_Street": "W 49 Street", "Latitude": 40.7607, "Longitude": -73.983709, "radial_distance_m": 789.61712943223972, "approx_minutes_radial": 9.9, "sample_id": null, "segment_id": null, "street_name": null, "sample_link_distance_m": null, "tree_distance_m": null, "building_distance_m": null, "tree_class": null, "building_class": null, "visual_condition": null, "orientation_group": null, "screening_potential": false, "visual_measured": false }, "geometry": { "type": "Point", "coordinates": [ -73.983709, 40.7607 ] } },
{ "type": "Feature", "properties": { "candidate_id": "DOT_SEAT.2023.0528", "candidate_type": "Bench", "candidate_name": "675 3 Avenue", "Asset_Subtype": "BACKLESS 2.0", "On_Street": "3 Avenue", "From_Street": "42 Street", "To_Street": "43 Street", "Latitude": 40.751085, "Longitude": -73.974122, "radial_distance_m": 815.91677597704802, "approx_minutes_radial": 10.2, "sample_id": null, "segment_id": null, "street_name": null, "sample_link_distance_m": null, "tree_distance_m": null, "building_distance_m": null, "tree_class": null, "building_class": null, "visual_condition": null, "orientation_group": null, "screening_potential": false, "visual_measured": false }, "geometry": { "type": "Point", "coordinates": [ -73.974122, 40.751085 ] } },
{ "type": "Feature", "properties": { "candidate_id": "DOT_SEAT.2024.0484", "candidate_type": "Bench", "candidate_name": "605 3 Avenue", "Asset_Subtype": "BACKLESS 2.0", "On_Street": "3 Avenue", "From_Street": "E 39 Street", "To_Street": "E 40 Street", "Latitude": 40.749112, "Longitude": -73.975481, "radial_distance_m": 820.56426512143855, "approx_minutes_radial": 10.3, "sample_id": null, "segment_id": null, "street_name": null, "sample_link_distance_m": null, "tree_distance_m": null, "building_distance_m": null, "tree_class": null, "building_class": null, "visual_condition": null, "orientation_group": null, "screening_potential": false, "visual_measured": false }, "geometry": { "type": "Point", "coordinates": [ -73.975481, 40.749112 ] } },
{ "type": "Feature", "properties": { "candidate_id": "DOT_SEAT.2025.0639", "candidate_type": "Bench", "candidate_name": "1290 6 Avenue", "Asset_Subtype": "BACKLESS 2.0", "On_Street": "6 Avenue", "From_Street": "W 51 Street", "To_Street": "W 52 Street", "Latitude": 40.760653, "Longitude": -73.979724, "radial_distance_m": 836.4215000269387, "approx_minutes_radial": 10.5, "sample_id": null, "segment_id": null, "street_name": null, "sample_link_distance_m": null, "tree_distance_m": null, "building_distance_m": null, "tree_class": null, "building_class": null, "visual_condition": null, "orientation_group": null, "screening_potential": false, "visual_measured": false }, "geometry": { "type": "Point", "coordinates": [ -73.979724, 40.760653 ] } },
{ "type": "Feature", "properties": { "candidate_id": "DOT_SEAT.2026.0727", "candidate_type": "Bench", "candidate_name": "135 Madison Avenue", "Asset_Subtype": "BACKLESS 2.0", "On_Street": "Madison Avenue", "From_Street": "E 31 Street", "To_Street": "E 32 Street", "Latitude": 40.746029, "Longitude": -73.984124, "radial_distance_m": 844.36311796099892, "approx_minutes_radial": 10.6, "sample_id": null, "segment_id": null, "street_name": null, "sample_link_distance_m": null, "tree_distance_m": null, "building_distance_m": null, "tree_class": null, "building_class": null, "visual_condition": null, "orientation_group": null, "screening_potential": false, "visual_measured": false }, "geometry": { "type": "Point", "coordinates": [ -73.984124, 40.746029 ] } },
{ "type": "Feature", "properties": { "candidate_id": "DOT_SEAT.2026.0748", "candidate_type": "Leaning Bar", "candidate_name": "455 Madison Avenue", "Asset_Subtype": "LEANING BAR", "On_Street": "Madison Avenue", "From_Street": "E 50 Street", "To_Street": "E 51 Street", "Latitude": 40.758268, "Longitude": -73.975178, "radial_distance_m": 852.99608035100368, "approx_minutes_radial": 10.7, "sample_id": null, "segment_id": null, "street_name": null, "sample_link_distance_m": null, "tree_distance_m": null, "building_distance_m": null, "tree_class": null, "building_class": null, "visual_condition": null, "orientation_group": null, "screening_potential": false, "visual_measured": false }, "geometry": { "type": "Point", "coordinates": [ -73.975178, 40.758268 ] } },
{ "type": "Feature", "properties": { "candidate_id": "DOT_SEAT.2026.0743", "candidate_type": "Leaning Bar", "candidate_name": "477 Madison Avenue", "Asset_Subtype": "LEANING BAR", "On_Street": "Madison Avenue", "From_Street": "E 51 Street", "To_Street": "E 52 Street", "Latitude": 40.758746, "Longitude": -73.974829, "radial_distance_m": 908.98036721631911, "approx_minutes_radial": 11.4, "sample_id": null, "segment_id": null, "street_name": null, "sample_link_distance_m": null, "tree_distance_m": null, "building_distance_m": null, "tree_class": null, "building_class": null, "visual_condition": null, "orientation_group": null, "screening_potential": false, "visual_measured": false }, "geometry": { "type": "Point", "coordinates": [ -73.974829, 40.758746 ] } },
{ "type": "Feature", "properties": { "candidate_id": "DOT_SEAT.2026.0706", "candidate_type": "Bench", "candidate_name": "777 3 Avenue", "Asset_Subtype": "BACKLESS 2.0", "On_Street": "3 Avenue", "From_Street": "E 48 Street", "To_Street": "E 49 Street", "Latitude": 40.755746, "Longitude": -73.972805, "radial_distance_m": 909.59012634823375, "approx_minutes_radial": 11.4, "sample_id": null, "segment_id": null, "street_name": null, "sample_link_distance_m": null, "tree_distance_m": null, "building_distance_m": null, "tree_class": null, "building_class": null, "visual_condition": null, "orientation_group": null, "screening_potential": false, "visual_measured": false }, "geometry": { "type": "Point", "coordinates": [ -73.972805, 40.755746 ] } },
{ "type": "Feature", "properties": { "candidate_id": "DOT_SEAT.2013.0447", "candidate_type": "Bench", "candidate_name": "529 3 Avenue", "Asset_Subtype": "BACKED 1.0", "On_Street": "3 Avenue", "From_Street": "E 35 Street", "To_Street": "E 36 Street", "Latitude": 40.74650132, "Longitude": -73.977398, "radial_distance_m": 928.17326871670537, "approx_minutes_radial": 11.6, "sample_id": null, "segment_id": null, "street_name": null, "sample_link_distance_m": null, "tree_distance_m": null, "building_distance_m": null, "tree_class": null, "building_class": null, "visual_condition": null, "orientation_group": null, "screening_potential": false, "visual_measured": false }, "geometry": { "type": "Point", "coordinates": [ -73.977398, 40.74650132 ] } },
{ "type": "Feature", "properties": { "candidate_id": "DOT_SEAT.2024.0694", "candidate_type": "Bench", "candidate_name": "547 9 Avenue", "Asset_Subtype": "BACKED 2.0", "On_Street": "9 Avenue", "From_Street": "W 41 Street", "To_Street": "W 40 Street", "Latitude": 40.757465, "Longitude": -73.993494, "radial_distance_m": 969.46234428580044, "approx_minutes_radial": 12.1, "sample_id": null, "segment_id": null, "street_name": null, "sample_link_distance_m": null, "tree_distance_m": null, "building_distance_m": null, "tree_class": null, "building_class": null, "visual_condition": null, "orientation_group": null, "screening_potential": false, "visual_measured": false }, "geometry": { "type": "Point", "coordinates": [ -73.993494, 40.757465 ] } },
{ "type": "Feature", "properties": { "candidate_id": "DOT_SEAT.2024.0703", "candidate_type": "Bench", "candidate_name": "443 Park Avenue South", "Asset_Subtype": "BACKED 2.0", "On_Street": "Park Avenue South", "From_Street": "E 30 Street", "To_Street": "E 31 Street", "Latitude": 40.744643, "Longitude": -73.982952, "radial_distance_m": 994.88339806826366, "approx_minutes_radial": 12.4, "sample_id": null, "segment_id": null, "street_name": null, "sample_link_distance_m": null, "tree_distance_m": null, "building_distance_m": null, "tree_class": null, "building_class": null, "visual_condition": null, "orientation_group": null, "screening_potential": false, "visual_measured": false }, "geometry": { "type": "Point", "coordinates": [ -73.982952, 40.744643 ] } },
{ "type": "Feature", "properties": { "candidate_id": "DOT_SEAT.2025.0624", "candidate_type": "Leaning Bar", "candidate_name": "810 7 Avenue", "Asset_Subtype": "LEANING BAR", "On_Street": "7 Avenue", "From_Street": "W 53 Street", "To_Street": "W 52 Street", "Latitude": 40.762562, "Longitude": -73.982349, "radial_distance_m": 997.81039831704607, "approx_minutes_radial": 12.5, "sample_id": null, "segment_id": null, "street_name": null, "sample_link_distance_m": null, "tree_distance_m": null, "building_distance_m": null, "tree_class": null, "building_class": null, "visual_condition": null, "orientation_group": null, "screening_potential": false, "visual_measured": false }, "geometry": { "type": "Point", "coordinates": [ -73.982349, 40.762562 ] } },
{ "type": "Feature", "properties": { "candidate_id": "DOT_SEAT.2024.0496", "candidate_type": "Leaning Bar", "candidate_name": "509 Madison Avenue", "Asset_Subtype": "LEANING BAR", "On_Street": "Madison Avenue", "From_Street": "E 52 Street", "To_Street": "E 53 Street", "Latitude": 40.759569, "Longitude": -73.97421, "radial_distance_m": 1007.8077542912438, "approx_minutes_radial": 12.6, "sample_id": null, "segment_id": null, "street_name": null, "sample_link_distance_m": null, "tree_distance_m": null, "building_distance_m": null, "tree_class": null, "building_class": null, "visual_condition": null, "orientation_group": null, "screening_potential": false, "visual_measured": false }, "geometry": { "type": "Point", "coordinates": [ -73.97421, 40.759569 ] } },
{ "type": "Feature", "properties": { "candidate_id": "DOT_SEAT.2025.0673", "candidate_type": "Bench", "candidate_name": "623 9 Avenue", "Asset_Subtype": "BACKLESS 2.0", "On_Street": "9 Avenue", "From_Street": "W 45 Street", "To_Street": "W 44 Street", "Latitude": 40.759903, "Longitude": -73.991823, "radial_distance_m": 1010.0135302779886, "approx_minutes_radial": 12.6, "sample_id": null, "segment_id": null, "street_name": null, "sample_link_distance_m": null, "tree_distance_m": null, "building_distance_m": null, "tree_class": null, "building_class": null, "visual_condition": null, "orientation_group": null, "screening_potential": false, "visual_measured": false }, "geometry": { "type": "Point", "coordinates": [ -73.991823, 40.759903 ] } },
{ "type": "Feature", "properties": { "candidate_id": "DOT_SEAT.2025.0672", "candidate_type": "Bench", "candidate_name": "661 9 Avenue", "Asset_Subtype": "BACKLESS 2.0", "On_Street": "9 Avenue", "From_Street": "W 46 Street", "To_Street": "W 45 Street", "Latitude": 40.760874, "Longitude": -73.991004, "radial_distance_m": 1042.4781411824313, "approx_minutes_radial": 13.0, "sample_id": null, "segment_id": null, "street_name": null, "sample_link_distance_m": null, "tree_distance_m": null, "building_distance_m": null, "tree_class": null, "building_class": null, "visual_condition": null, "orientation_group": null, "screening_potential": false, "visual_measured": false }, "geometry": { "type": "Point", "coordinates": [ -73.991004, 40.760874 ] } },
{ "type": "Feature", "properties": { "candidate_id": "DOT_SEAT.2026.0728", "candidate_type": "Bench", "candidate_name": "519 Madison Avenue", "Asset_Subtype": "BACKLESS 2.0", "On_Street": "Madison Avenue", "From_Street": "E 53 Street", "To_Street": "E 54 Street", "Latitude": 40.759926, "Longitude": -73.973973, "radial_distance_m": 1049.0891043281781, "approx_minutes_radial": 13.1, "sample_id": null, "segment_id": null, "street_name": null, "sample_link_distance_m": null, "tree_distance_m": null, "building_distance_m": null, "tree_class": null, "building_class": null, "visual_condition": null, "orientation_group": null, "screening_potential": false, "visual_measured": false }, "geometry": { "type": "Point", "coordinates": [ -73.973973, 40.759926 ] } },
{ "type": "Feature", "properties": { "candidate_id": "DOT_SEAT.2025.0102", "candidate_type": "Bench", "candidate_name": "820 2 Avenue", "Asset_Subtype": "BACKED 2.0", "On_Street": "2 Avenue", "From_Street": "E 44 Street", "To_Street": "E 43 Street", "Latitude": 40.750882, "Longitude": -73.971271, "radial_distance_m": 1051.6386329262361, "approx_minutes_radial": 13.1, "sample_id": null, "segment_id": null, "street_name": null, "sample_link_distance_m": null, "tree_distance_m": null, "building_distance_m": null, "tree_class": null, "building_class": null, "visual_condition": null, "orientation_group": null, "screening_potential": false, "visual_measured": false }, "geometry": { "type": "Point", "coordinates": [ -73.971271, 40.750882 ] } },
{ "type": "Feature", "properties": { "candidate_id": "DOT_SEAT.2024.0284", "candidate_type": "Leaning Bar", "candidate_name": "675 2 Avenue", "Asset_Subtype": "LEANING BAR", "On_Street": "2 Avenue", "From_Street": "E 37 Street", "To_Street": "E 36 Street", "Latitude": 40.746253, "Longitude": -73.974972, "radial_distance_m": 1071.6800189128624, "approx_minutes_radial": 13.4, "sample_id": null, "segment_id": null, "street_name": null, "sample_link_distance_m": null, "tree_distance_m": null, "building_distance_m": null, "tree_class": null, "building_class": null, "visual_condition": null, "orientation_group": null, "screening_potential": false, "visual_measured": false }, "geometry": { "type": "Point", "coordinates": [ -73.974972, 40.746253 ] } },
{ "type": "Feature", "properties": { "candidate_id": "DOT_SEAT.2016.0185", "candidate_type": "Leaning Bar", "candidate_name": "360 W 34 Street", "Asset_Subtype": "LEANING BAR", "On_Street": "W 34 Street", "From_Street": "9 Avenue", "To_Street": "8 Avenue", "Latitude": 40.75313252, "Longitude": -73.99590428, "radial_distance_m": 1074.1026329442884, "approx_minutes_radial": 13.4, "sample_id": null, "segment_id": null, "street_name": null, "sample_link_distance_m": null, "tree_distance_m": null, "building_distance_m": null, "tree_class": null, "building_class": null, "visual_condition": null, "orientation_group": null, "screening_potential": false, "visual_measured": false }, "geometry": { "type": "Point", "coordinates": [ -73.99590428, 40.75313252 ] } },
{ "type": "Feature", "properties": { "candidate_id": "DOT_SEAT.2016.0186", "candidate_type": "Leaning Bar", "candidate_name": "245 E 34 Street", "Asset_Subtype": "LEANING BAR", "On_Street": "E 34 Street", "From_Street": "2 Avenue", "To_Street": "3 Avenue", "Latitude": 40.74497488, "Longitude": -73.97611499, "radial_distance_m": 1129.3442830258186, "approx_minutes_radial": 14.1, "sample_id": null, "segment_id": null, "street_name": null, "sample_link_distance_m": null, "tree_distance_m": null, "building_distance_m": null, "tree_class": null, "building_class": null, "visual_condition": null, "orientation_group": null, "screening_potential": false, "visual_measured": false }, "geometry": { "type": "Point", "coordinates": [ -73.97611499, 40.74497488 ] } },
{ "type": "Feature", "properties": { "candidate_id": "DOT_SEAT.2025.0634", "candidate_type": "Bench", "candidate_name": "776 6 Avenue", "Asset_Subtype": "BACKLESS 2.0", "On_Street": "6 Avenue", "From_Street": "W 26 Street", "To_Street": "W 27 Street", "Latitude": 40.74524, "Longitude": -73.990944, "radial_distance_m": 1135.598291959702, "approx_minutes_radial": 14.2, "sample_id": null, "segment_id": null, "street_name": null, "sample_link_distance_m": null, "tree_distance_m": null, "building_distance_m": null, "tree_class": null, "building_class": null, "visual_condition": null, "orientation_group": null, "screening_potential": false, "visual_measured": false }, "geometry": { "type": "Point", "coordinates": [ -73.990944, 40.74524 ] } },
{ "type": "Feature", "properties": { "candidate_id": "DOT_SEAT.2024.0485", "candidate_type": "Bench", "candidate_name": "443 3 Avenue", "Asset_Subtype": "BACKLESS 2.0", "On_Street": "3 Avenue", "From_Street": "E 30 Street", "To_Street": "E 31 Street", "Latitude": 40.743607, "Longitude": -73.979497, "radial_distance_m": 1152.9336796599368, "approx_minutes_radial": 14.4, "sample_id": null, "segment_id": null, "street_name": null, "sample_link_distance_m": null, "tree_distance_m": null, "building_distance_m": null, "tree_class": null, "building_class": null, "visual_condition": null, "orientation_group": null, "screening_potential": false, "visual_measured": false }, "geometry": { "type": "Point", "coordinates": [ -73.979497, 40.743607 ] } },
{ "type": "Feature", "properties": { "candidate_id": "DOT_SEAT.1900.0020", "candidate_type": "Bench", "candidate_name": "617 2 Avenue", "Asset_Subtype": "BACKED 1.0", "On_Street": "2 Avenue", "From_Street": "E 33 Street", "To_Street": "E 34 Street", "Latitude": 40.74459759, "Longitude": -73.97617592, "radial_distance_m": 1162.4560600606469, "approx_minutes_radial": 14.5, "sample_id": null, "segment_id": null, "street_name": null, "sample_link_distance_m": null, "tree_distance_m": null, "building_distance_m": null, "tree_class": null, "building_class": null, "visual_condition": null, "orientation_group": null, "screening_potential": false, "visual_measured": false }, "geometry": { "type": "Point", "coordinates": [ -73.97617592, 40.74459759 ] } },
{ "type": "Feature", "properties": { "candidate_id": "DOT_SEAT.2026.0725", "candidate_type": "Bench", "candidate_name": "220 5 Avenue", "Asset_Subtype": "BACKLESS 2.0", "On_Street": "5 Avenue", "From_Street": "E 27 Street", "To_Street": "E 26 Street", "Latitude": 40.743634, "Longitude": -73.988196, "radial_distance_m": 1184.413247509495, "approx_minutes_radial": 14.8, "sample_id": null, "segment_id": null, "street_name": null, "sample_link_distance_m": null, "tree_distance_m": null, "building_distance_m": null, "tree_class": null, "building_class": null, "visual_condition": null, "orientation_group": null, "screening_potential": false, "visual_measured": false }, "geometry": { "type": "Point", "coordinates": [ -73.988196, 40.743634 ] } }
]
}
