{"type": "FeatureCollection", "features": [{"type": "Feature", "geometry": {"type": "Point", "coordinates": [-73.9899789, 40.6729742]}, "properties": {"name": "3rd Avenue Clay", "category": "make", "website": "", "address": "", "source": "OpenStreetMap", "source_id": "node/6332084466", "reason": "Named making space with a relevant craft tag", "nta_code": "BK0601", "neighborhood": "Carroll Gardens-Cobble Hill-Gowanus-Red Hook", "borough": "Brooklyn"}}, {"type": "Feature", "geometry": {"type": "Point", "coordinates": [-73.987079, 40.676204]}, "properties": {"name": "Alpha Workshops, Inc.", "category": "experience", "website": "", "address": "322 3rd Avenue, Brooklyn, 11215", "source": "NYC DCLA", "source_id": "dcla-row-78", "reason": "DCLA Architecture/Design discipline", "nta_code": "BK0601", "neighborhood": "Carroll Gardens-Cobble Hill-Gowanus-Red Hook", "borough": "Brooklyn"}}, {"type": "Feature", "geometry": {"type": "Point", "coordinates": [-73.9691129, 40.7527797]}, "properties": {"name": "American Federation of the Arts", "category": "connect", "website": "", "address": "305 East 47th Street", "source": "OpenStreetMap", "source_id": "node/2711639369", "reason": "Design-related community or association", "nta_code": "MN0604", "neighborhood": "East Midtown-Turtle Bay", "borough": "Manhattan"}}, {"type": "Feature", "geometry": {"type": "Point", "coordinates": [-73.998532, 40.728575]}, "properties": {"name": "American Institute of Architects", "category": "connect", "website": "", "address": "536 LaGuardia Place, New York, 10012", "source": "NYC DCLA", "source_id": "dcla-row-101", "reason": "DCLA Architecture/Design professional organization", "nta_code": "MN0202", "neighborhood": "Greenwich Village", "borough": "Manhattan"}}, {"type": "Feature", "geometry": {"type": "Point", "coordinates": [-74.007892, 40.712265]}, "properties": {"name": "American Institute of Graphic Arts", "category": "connect", "website": "", "address": "233 Broadway, New York, 10279", "source": "NYC DCLA", "source_id": "dcla-row-102", "reason": "DCLA Architecture/Design professional organization", "nta_code": "MN0102", "neighborhood": "Tribeca-Civic Center", "borough": "Manhattan"}}, {"type": "Feature", "geometry": {"type": "Point", "coordinates": [-73.990285, 40.743523]}, "properties": {"name": "Anyone Corporation", "category": "experience", "website": "", "address": "41 WEST 25TH ST FL 11, NEW YORK CITY, 10010", "source": "NYC DCLA", "source_id": "dcla-row-142", "reason": "DCLA Architecture/Design discipline", "nta_code": "MN0501", "neighborhood": "Midtown South-Flatiron-Union Square", "borough": "Manhattan"}}, {"type": "Feature", "geometry": {"type": "Point", "coordinates": [-73.997157, 40.72496]}, "properties": {"name": "Architectural League of New York", "category": "connect", "website": "", "address": "594 Broadway, Suite 607, New York, 10012", "source": "NYC DCLA", "source_id": "dcla-row-154", "reason": "DCLA Architecture/Design professional organization", "nta_code": "MN0201", "neighborhood": "SoHo-Little Italy-Hudson Square", "borough": "Manhattan"}}, {"type": "Feature", "geometry": {"type": "Point", "coordinates": [-73.963283, 40.757576]}, "properties": {"name": "Art Deco Society of New York, Inc.", "category": "connect", "website": "", "address": "400 East 56th Street, Suite 39N, New York, 10022", "source": "NYC DCLA", "source_id": "dcla-row-175", "reason": "DCLA Architecture/Design professional organization", "nta_code": "MN0604", "neighborhood": "East Midtown-Turtle Bay", "borough": "Manhattan"}}, {"type": "Feature", "geometry": {"type": "Point", "coordinates": [-73.99062, 40.746882]}, "properties": {"name": "Art Directors Club, Inc.", "category": "connect", "website": "", "address": "106 West 29th Street, New York, 10001", "source": "NYC DCLA", "source_id": "dcla-row-176", "reason": "DCLA Architecture/Design professional organization", "nta_code": "MN0501", "neighborhood": "Midtown South-Flatiron-Union Square", "borough": "Manhattan"}}, {"type": "Feature", "geometry": {"type": "Point", "coordinates": [-73.9297251, 40.7719961]}, "properties": {"name": "Astoria Woodworking Collective", "category": "make", "website": "https://www.astoriawoodworkers.org", "address": "1210 Astoria Boulevard", "source": "OpenStreetMap", "source_id": "node/12119077245", "reason": "Named making space with a relevant craft tag", "nta_code": "QN0102", "neighborhood": "Old Astoria-Hallets Point", "borough": "Queens"}}, {"type": "Feature", "geometry": {"type": "Point", "coordinates": [-73.9110784, 40.6729544]}, "properties": {"name": "BBF Printing & Signs", "category": "make", "website": "https://www.bbfprint.com", "address": "1688 Saint Marks Avenue", "source": "OpenStreetMap", "source_id": "node/12336460455", "reason": "Named making space with a relevant craft tag", "nta_code": "BK1601", "neighborhood": "Ocean Hill", "borough": "Brooklyn"}}, {"type": "Feature", "geometry": {"type": "Point", "coordinates": [-73.9856362, 40.6946242]}, "properties": {"name": "Bern Dibner Library of Science and Technology", "category": "learn", "website": "", "address": "5 MetroTech", "source": "OpenStreetMap", "source_id": "way/250369718", "reason": "Design-related library", "nta_code": "BK0202", "neighborhood": "Downtown Brooklyn-DUMBO-Boerum Hill", "borough": "Brooklyn"}}, {"type": "Feature", "geometry": {"type": "Point", "coordinates": [-73.9709045, 40.6809516]}, "properties": {"name": "Bklyn Clay", "category": "make", "website": "https://www.bklynclay.com", "address": "", "source": "OpenStreetMap", "source_id": "node/7137864657", "reason": "Named making space with a relevant craft tag", "nta_code": "BK0801", "neighborhood": "Prospect Heights", "borough": "Brooklyn"}}, {"type": "Feature", "geometry": {"type": "Point", "coordinates": [-73.9900323, 40.6800237]}, "properties": {"name": "Blue Room Pottery Studio", "category": "make", "website": "https://www.blueroompotterystudio.com", "address": "", "source": "OpenStreetMap", "source_id": "node/12766863571", "reason": "Named making space with a relevant craft tag", "nta_code": "BK0601", "neighborhood": "Carroll Gardens-Cobble Hill-Gowanus-Red Hook", "borough": "Brooklyn"}}, {"type": "Feature", "geometry": {"type": "Point", "coordinates": [-73.9093908, 40.702147]}, "properties": {"name": "BM Pottery Studio", "category": "make", "website": "http://bmpotterystudiony.com", "address": "17-02 Gates Avenue", "source": "OpenStreetMap", "source_id": "node/5364870790", "reason": "Named making space with a relevant craft tag", "nta_code": "QN0502", "neighborhood": "Ridgewood", "borough": "Queens"}}, {"type": "Feature", "geometry": {"type": "Point", "coordinates": [-73.9909317, 40.6782479]}, "properties": {"name": "Bond Craft Studio", "category": "experience", "website": "https://bondcraftstudio.com", "address": "", "source": "OpenStreetMap", "source_id": "node/9789098142", "reason": "Design-focused museum, gallery, or arts center", "nta_code": "BK0601", "neighborhood": "Carroll Gardens-Cobble Hill-Gowanus-Red Hook", "borough": "Brooklyn"}}, {"type": "Feature", "geometry": {"type": "Point", "coordinates": [-73.9790813, 40.687789]}, "properties": {"name": "BRIC Community Media Incubator", "category": "connect", "website": "", "address": "75 Rockwell Place", "source": "OpenStreetMap", "source_id": "node/7177794088", "reason": "Design-related community or association", "nta_code": "BK0203", "neighborhood": "Fort Greene", "borough": "Brooklyn"}}, {"type": "Feature", "geometry": {"type": "Point", "coordinates": [-73.9517073, 40.7468009]}, "properties": {"name": "Bridgeview School of Fine Arts", "category": "learn", "website": "", "address": "", "source": "OpenStreetMap", "source_id": "node/4995781628", "reason": "Design-related college or university", "nta_code": "QN0201", "neighborhood": "Long Island City-Hunters Point", "borough": "Queens"}}, {"type": "Feature", "geometry": {"type": "Point", "coordinates": [-73.963695, 40.6709677]}, "properties": {"name": "Brooklyn Museum", "category": "experience", "website": "https://www.brooklynmuseum.org/", "address": "200 Eastern Parkway", "source": "OpenStreetMap", "source_id": "way/1432069915", "reason": "Design-focused museum, gallery, or arts center", "nta_code": "BK5591", "neighborhood": "Prospect Park", "borough": "Brooklyn"}}, {"type": "Feature", "geometry": {"type": "Point", "coordinates": [-73.9985805, 40.72873]}, "properties": {"name": "Center for Architecture", "category": "experience", "website": "https://www.centerforarchitecture.org/", "address": "546 LaGuardia Place", "source": "OpenStreetMap", "source_id": "node/5747425246", "reason": "Design-focused museum, gallery, or arts center", "nta_code": "MN0202", "neighborhood": "Greenwich Village", "borough": "Manhattan"}}, {"type": "Feature", "geometry": {"type": "Point", "coordinates": [-73.998662, 40.721252]}, "properties": {"name": "Center for Italian Modern Art", "category": "experience", "website": "", "address": "421 Broome Street, New York, 10013", "source": "NYC DCLA", "source_id": "dcla-row-495", "reason": "Design-related name in DCLA Museum discipline", "nta_code": "MN0201", "neighborhood": "SoHo-Little Italy-Hudson Square", "borough": "Manhattan"}}, {"type": "Feature", "geometry": {"type": "Point", "coordinates": [-73.980848, 40.755156]}, "properties": {"name": "Center for the Study of Classical Architecture", "category": "experience", "website": "", "address": "20 West 44th Street, New York, 10036", "source": "NYC DCLA", "source_id": "dcla-row-498", "reason": "DCLA Architecture/Design discipline", "nta_code": "MN0502", "neighborhood": "Midtown-Times Square", "borough": "Manhattan"}}, {"type": "Feature", "geometry": {"type": "Point", "coordinates": [-73.9523429, 40.7273202]}, "properties": {"name": "Choplet Ceramic Studio & Gallery", "category": "make", "website": "https://choplet.com", "address": "121 Meserole Avenue", "source": "OpenStreetMap", "source_id": "node/13519781082", "reason": "Named making space with a relevant craft tag", "nta_code": "BK0101", "neighborhood": "Greenpoint", "borough": "Brooklyn"}}, {"type": "Feature", "geometry": {"type": "Point", "coordinates": [-74.0123077, 40.6780299]}, "properties": {"name": "Civic Studio", "category": "connect", "website": "https://civiccollaborations.org", "address": "352 Van Brunt Street", "source": "OpenStreetMap", "source_id": "node/2550086544", "reason": "Design-related community or association", "nta_code": "BK0601", "neighborhood": "Carroll Gardens-Cobble Hill-Gowanus-Red Hook", "borough": "Brooklyn"}}, {"type": "Feature", "geometry": {"type": "Point", "coordinates": [-73.9922318, 40.6839091]}, "properties": {"name": "Clayhouse of Brooklyn", "category": "make", "website": "https://www.clayhousebrooklyn.com", "address": "", "source": "OpenStreetMap", "source_id": "node/2549996754", "reason": "Named making space with a relevant craft tag", "nta_code": "BK0601", "neighborhood": "Carroll Gardens-Cobble Hill-Gowanus-Red Hook", "borough": "Brooklyn"}}, {"type": "Feature", "geometry": {"type": "Point", "coordinates": [-74.0023636, 40.6853822]}, "properties": {"name": "Clayworks on Columbia", "category": "make", "website": "https://www.clayworksoncolumbia.org", "address": "", "source": "OpenStreetMap", "source_id": "node/6501091572", "reason": "Named making space with a relevant craft tag", "nta_code": "BK0601", "neighborhood": "Carroll Gardens-Cobble Hill-Gowanus-Red Hook", "borough": "Brooklyn"}}, {"type": "Feature", "geometry": {"type": "Point", "coordinates": [-73.967587, 40.69688]}, "properties": {"name": "Collaborative Urban Sculpture, Inc.", "category": "experience", "website": "", "address": "62 Washington Ave. #1, Brooklyn, 11205", "source": "NYC DCLA", "source_id": "dcla-row-597", "reason": "Design-related name in DCLA Visual Arts discipline", "nta_code": "BK0203", "neighborhood": "Fort Greene", "borough": "Brooklyn"}}, {"type": "Feature", "geometry": {"type": "Point", "coordinates": [-73.9902538, 40.7297351]}, "properties": {"name": "Cooper Union", "category": "learn", "website": "", "address": "", "source": "OpenStreetMap", "source_id": "way/1156633380", "reason": "Design-related college or university", "nta_code": "MN0303", "neighborhood": "East Village", "borough": "Manhattan"}}, {"type": "Feature", "geometry": {"type": "Point", "coordinates": [-73.9577609, 40.7842886]}, "properties": {"name": "Cooper\u2013Hewitt, Smithsonian Design Museum", "category": "experience", "website": "https://www.cooperhewitt.org/", "address": "2 East 91st Street", "source": "OpenStreetMap", "source_id": "way/266926168", "reason": "Design-focused museum, gallery, or arts center", "nta_code": "MN0802", "neighborhood": "Upper East Side-Carnegie Hill", "borough": "Manhattan"}}, {"type": "Feature", "geometry": {"type": "Point", "coordinates": [-73.9864907, 40.6788918]}, "properties": {"name": "Craft Society", "category": "experience", "website": "", "address": "", "source": "OpenStreetMap", "source_id": "node/12715900261", "reason": "Design-focused museum, gallery, or arts center", "nta_code": "BK0601", "neighborhood": "Carroll Gardens-Cobble Hill-Gowanus-Red Hook", "borough": "Brooklyn"}}, {"type": "Feature", "geometry": {"type": "Point", "coordinates": [-73.9937019, 40.6712024]}, "properties": {"name": "Craftsman Ave", "category": "experience", "website": "https://craftsmanave.com", "address": "117B 11th Street", "source": "OpenStreetMap", "source_id": "node/2550101324", "reason": "Design-focused museum, gallery, or arts center", "nta_code": "BK0601", "neighborhood": "Carroll Gardens-Cobble Hill-Gowanus-Red Hook", "borough": "Brooklyn"}}, {"type": "Feature", "geometry": {"type": "Point", "coordinates": [-73.991612, 40.752289]}, "properties": {"name": "Custom Collaborative", "category": "experience", "website": "", "address": "253 West 35th Street, New York, 10001", "source": "NYC DCLA", "source_id": "dcla-row-685", "reason": "DCLA Architecture/Design discipline", "nta_code": "MN0502", "neighborhood": "Midtown-Times Square", "borough": "Manhattan"}}, {"type": "Feature", "geometry": {"type": "Point", "coordinates": [-74.007103, 40.717453]}, "properties": {"name": "Design Trust for Public Space, Inc.", "category": "connect", "website": "", "address": "40 Worth Street, New York, 10013", "source": "NYC DCLA", "source_id": "dcla-row-728", "reason": "DCLA Architecture/Design professional organization", "nta_code": "MN0102", "neighborhood": "Tribeca-Civic Center", "borough": "Manhattan"}}, {"type": "Feature", "geometry": {"type": "Point", "coordinates": [-73.986587, 40.704313]}, "properties": {"name": "DUMBO District Management Association, Inc.", "category": "connect", "website": "", "address": "20 Jay St Suite 510, Brooklyn, 11201", "source": "NYC DCLA", "source_id": "dcla-row-779", "reason": "DCLA Architecture/Design professional organization", "nta_code": "BK0202", "neighborhood": "Downtown Brooklyn-DUMBO-Boerum Hill", "borough": "Brooklyn"}}, {"type": "Feature", "geometry": {"type": "Point", "coordinates": [-73.9484355, 40.7784615]}, "properties": {"name": "Earthworks Pottery", "category": "make", "website": "https://earthworksnyc.com", "address": "", "source": "OpenStreetMap", "source_id": "node/13389975251", "reason": "Named making space with a relevant craft tag", "nta_code": "MN0803", "neighborhood": "Upper East Side-Yorkville", "borough": "Manhattan"}}, {"type": "Feature", "geometry": {"type": "Point", "coordinates": [-73.993616, 40.746869]}, "properties": {"name": "Elder Craftsmen, Inc.", "category": "experience", "website": "", "address": "307 Seventh Avenue, Suite 1401, New York, 10001", "source": "NYC DCLA", "source_id": "dcla-row-807", "reason": "Design-related name in DCLA Visual Arts discipline", "nta_code": "MN0501", "neighborhood": "Midtown South-Flatiron-Union Square", "borough": "Manhattan"}}, {"type": "Feature", "geometry": {"type": "Point", "coordinates": [-73.994979, 40.7472091]}, "properties": {"name": "Fashion Institute of Technology", "category": "learn", "website": "https://www.fitnyc.edu", "address": "", "source": "OpenStreetMap", "source_id": "way/108159980", "reason": "Design-related college or university", "nta_code": "MN0501", "neighborhood": "Midtown South-Flatiron-Union Square", "borough": "Manhattan"}}, {"type": "Feature", "geometry": {"type": "Point", "coordinates": [-73.986681, 40.702763]}, "properties": {"name": "Finnish Cultural Institute in New York", "category": "connect", "website": "", "address": "68 Jay Street, Suite 235, Brooklyn, 11201", "source": "NYC DCLA", "source_id": "dcla-row-893", "reason": "DCLA Architecture/Design professional organization", "nta_code": "BK0202", "neighborhood": "Downtown Brooklyn-DUMBO-Boerum Hill", "borough": "Brooklyn"}}, {"type": "Feature", "geometry": {"type": "Point", "coordinates": [-74.002482, 40.71871]}, "properties": {"name": "Forum for Urban Design, Inc.", "category": "experience", "website": "", "address": "401 Broadway, New York, 10013", "source": "NYC DCLA", "source_id": "dcla-row-924", "reason": "DCLA Architecture/Design discipline", "nta_code": "MN0102", "neighborhood": "Tribeca-Civic Center", "borough": "Manhattan"}}, {"type": "Feature", "geometry": {"type": "Point", "coordinates": [-73.988673, 40.697545]}, "properties": {"name": "Four Borough Neighborhood Preservation Alliance Foundation", "category": "connect", "website": "", "address": "215 Adams Street, #12H, Brooklyn, 11201", "source": "NYC DCLA", "source_id": "dcla-row-937", "reason": "DCLA Architecture/Design professional organization", "nta_code": "BK0202", "neighborhood": "Downtown Brooklyn-DUMBO-Boerum Hill", "borough": "Brooklyn"}}, {"type": "Feature", "geometry": {"type": "Point", "coordinates": [-73.962966, 40.769397]}, "properties": {"name": "Friends of the Upper East Side Historic Districts", "category": "experience", "website": "", "address": "966 Lexington Ave, New York, 10021", "source": "NYC DCLA", "source_id": "dcla-row-963", "reason": "DCLA Architecture/Design discipline", "nta_code": "MN0802", "neighborhood": "Upper East Side-Carnegie Hill", "borough": "Manhattan"}}, {"type": "Feature", "geometry": {"type": "Point", "coordinates": [-73.9937837, 40.6701484]}, "properties": {"name": "Gala Woodworking", "category": "make", "website": "https://www.galaww.com/", "address": "114 12th Street", "source": "OpenStreetMap", "source_id": "node/11064002908", "reason": "Named making space with a relevant craft tag", "nta_code": "BK0601", "neighborhood": "Carroll Gardens-Cobble Hill-Gowanus-Red Hook", "borough": "Brooklyn"}}, {"type": "Feature", "geometry": {"type": "Point", "coordinates": [-73.94493, 40.7234078]}, "properties": {"name": "GAMBA Forest", "category": "experience", "website": "https://gambazine.com/", "address": "630 Humboldt Street", "source": "OpenStreetMap", "source_id": "node/6590113931", "reason": "Design-focused museum, gallery, or arts center", "nta_code": "BK0101", "neighborhood": "Greenpoint", "borough": "Brooklyn"}}, {"type": "Feature", "geometry": {"type": "Point", "coordinates": [-73.9927929, 40.6617547]}, "properties": {"name": "Gasworks", "category": "experience", "website": "https://gasworksnyc.com", "address": "673 5th Avenue", "source": "OpenStreetMap", "source_id": "node/5821144854", "reason": "Design-focused museum, gallery, or arts center", "nta_code": "BK0702", "neighborhood": "Sunset Park (West)", "borough": "Brooklyn"}}, {"type": "Feature", "geometry": {"type": "Point", "coordinates": [-73.987511, 40.679158]}, "properties": {"name": "Gowanus Canal Conservancy, Inc.", "category": "experience", "website": "", "address": "543 Union Street, New York, 11215", "source": "NYC DCLA", "source_id": "dcla-row-1008", "reason": "DCLA Architecture/Design discipline", "nta_code": "BK0601", "neighborhood": "Carroll Gardens-Cobble Hill-Gowanus-Red Hook", "borough": "Brooklyn"}}, {"type": "Feature", "geometry": {"type": "Point", "coordinates": [-73.920186, 40.6785298]}, "properties": {"name": "Grassroots Artists MovEment, Inc.", "category": "connect", "website": "https://gamenyc.org/", "address": "1958 Fulton Street", "source": "OpenStreetMap", "source_id": "node/6164899885", "reason": "Design-related community or association", "nta_code": "BK1601", "neighborhood": "Ocean Hill", "borough": "Brooklyn"}}, {"type": "Feature", "geometry": {"type": "Point", "coordinates": [-73.9588842, 40.7829919]}, "properties": {"name": "Guggenheim Museum", "category": "experience", "website": "https://www.guggenheim.org/new-york", "address": "1071 5th Avenue", "source": "OpenStreetMap", "source_id": "way/170149134", "reason": "Design-focused museum, gallery, or arts center", "nta_code": "MN0802", "neighborhood": "Upper East Side-Carnegie Hill", "borough": "Manhattan"}}, {"type": "Feature", "geometry": {"type": "Point", "coordinates": [-73.995324, 40.6747424]}, "properties": {"name": "Heights Woodworking", "category": "make", "website": "https://heightswood.com", "address": "55B 9th Street", "source": "OpenStreetMap", "source_id": "node/6433148356", "reason": "Named making space with a relevant craft tag", "nta_code": "BK0601", "neighborhood": "Carroll Gardens-Cobble Hill-Gowanus-Red Hook", "borough": "Brooklyn"}}, {"type": "Feature", "geometry": {"type": "Point", "coordinates": [-73.9884812, 40.6773022]}, "properties": {"name": "Hey Clay", "category": "make", "website": "https://heyclay.studio", "address": "430 Carroll Street", "source": "OpenStreetMap", "source_id": "node/13942790049", "reason": "Named making space with a relevant craft tag", "nta_code": "BK0601", "neighborhood": "Carroll Gardens-Cobble Hill-Gowanus-Red Hook", "borough": "Brooklyn"}}, {"type": "Feature", "geometry": {"type": "Point", "coordinates": [-73.993937, 40.748299]}, "properties": {"name": "Historic Districts Council, Inc.", "category": "connect", "website": "", "address": "231 West 29th Street, New York, 10001", "source": "NYC DCLA", "source_id": "dcla-row-1099", "reason": "DCLA Architecture/Design professional organization", "nta_code": "MN0501", "neighborhood": "Midtown South-Flatiron-Union Square", "borough": "Manhattan"}}, {"type": "Feature", "geometry": {"type": "Point", "coordinates": [-73.9846926, 40.7226517]}, "properties": {"name": "Holographic Studios NYC", "category": "experience", "website": "https://www.holostudios.nyc/", "address": "172 East 2nd Street", "source": "OpenStreetMap", "source_id": "node/13527284801", "reason": "Design-focused museum, gallery, or arts center", "nta_code": "MN0303", "neighborhood": "East Village", "borough": "Manhattan"}}, {"type": "Feature", "geometry": {"type": "Point", "coordinates": [-73.989773, 40.739109]}, "properties": {"name": "Institute for Public Architecture", "category": "connect", "website": "", "address": "900 Broadway, New York, 10003", "source": "NYC DCLA", "source_id": "dcla-row-1171", "reason": "DCLA Architecture/Design professional organization", "nta_code": "MN0501", "neighborhood": "Midtown South-Flatiron-Union Square", "borough": "Manhattan"}}, {"type": "Feature", "geometry": {"type": "Point", "coordinates": [-73.9891854, 40.7182002]}, "properties": {"name": "International Center of Photography", "category": "experience", "website": "https://www.icp.org", "address": "84 Ludlow Street", "source": "OpenStreetMap", "source_id": "node/9371206934", "reason": "Design-focused museum, gallery, or arts center", "nta_code": "MN0302", "neighborhood": "Lower East Side", "borough": "Manhattan"}}, {"type": "Feature", "geometry": {"type": "Point", "coordinates": [-73.937405, 40.767243]}, "properties": {"name": "Isamu Noguchi Foundation and Garden Museum", "category": "experience", "website": "", "address": "32-37 Vernon Boulevard, Long Island City, 11106", "source": "NYC DCLA", "source_id": "dcla-row-1200", "reason": "Design-related name in DCLA Museum discipline", "nta_code": "QN0105", "neighborhood": "Queensbridge-Ravenswood-Dutch Kills", "borough": "Queens"}}, {"type": "Feature", "geometry": {"type": "Point", "coordinates": [-73.9863455, 40.6706406]}, "properties": {"name": "J-Collabo", "category": "connect", "website": "https://www.j-collabo.org", "address": "300-302 7th Street", "source": "OpenStreetMap", "source_id": "way/629237094", "reason": "Design-related community or association", "nta_code": "BK0602", "neighborhood": "Park Slope", "borough": "Brooklyn"}}, {"type": "Feature", "geometry": {"type": "Point", "coordinates": [-73.9543979, 40.6932743]}, "properties": {"name": "Jem Woodwork", "category": "make", "website": "", "address": "407 Willoughby Avenue", "source": "OpenStreetMap", "source_id": "node/6876268362", "reason": "Named making space with a relevant craft tag", "nta_code": "BK0301", "neighborhood": "Bedford-Stuyvesant (West)", "borough": "Brooklyn"}}, {"type": "Feature", "geometry": {"type": "Point", "coordinates": [-73.999405, 40.72333]}, "properties": {"name": "Judd Foundation", "category": "connect", "website": "", "address": "101 Spring Street, New York, 10012", "source": "NYC DCLA", "source_id": "dcla-row-1252", "reason": "DCLA Architecture/Design professional organization", "nta_code": "MN0201", "neighborhood": "SoHo-Little Italy-Hudson Square", "borough": "Manhattan"}}, {"type": "Feature", "geometry": {"type": "Point", "coordinates": [-74.0130914, 40.6770075]}, "properties": {"name": "Kentler International Drawing Space", "category": "experience", "website": "https://kentlergallery.org", "address": "", "source": "OpenStreetMap", "source_id": "node/10876530574", "reason": "Design-focused museum, gallery, or arts center", "nta_code": "BK0601", "neighborhood": "Carroll Gardens-Cobble Hill-Gowanus-Red Hook", "borough": "Brooklyn"}}, {"type": "Feature", "geometry": {"type": "Point", "coordinates": [-73.9339644, 40.7440823]}, "properties": {"name": "LaGuardia Community College Library Media Resources Center", "category": "learn", "website": "", "address": "", "source": "OpenStreetMap", "source_id": "node/11737350713", "reason": "Design-related library", "nta_code": "QN0202", "neighborhood": "Sunnyside", "borough": "Queens"}}, {"type": "Feature", "geometry": {"type": "Point", "coordinates": [-73.979594, 40.773595]}, "properties": {"name": "Landmark West, Inc.", "category": "experience", "website": "", "address": "45 W 67th St, New York, 10023", "source": "NYC DCLA", "source_id": "dcla-row-1316", "reason": "DCLA Architecture/Design discipline", "nta_code": "MN0701", "neighborhood": "Upper West Side-Lincoln Square", "borough": "Manhattan"}}, {"type": "Feature", "geometry": {"type": "Point", "coordinates": [-73.9884051, 40.7452836]}, "properties": {"name": "Mainartery Sculpture", "category": "make", "website": "https://www.mainartery.art/", "address": "1178 Broadway", "source": "OpenStreetMap", "source_id": "node/12539079815", "reason": "Named making space with a relevant craft tag", "nta_code": "MN0501", "neighborhood": "Midtown South-Flatiron-Union Square", "borough": "Manhattan"}}, {"type": "Feature", "geometry": {"type": "Point", "coordinates": [-73.987079, 40.676204]}, "properties": {"name": "Manhattan Graphics Center", "category": "experience", "website": "", "address": "322 3rd Ave, Brooklyn, 11215", "source": "NYC DCLA", "source_id": "dcla-row-1431", "reason": "Design-related name in DCLA Visual Arts discipline", "nta_code": "BK0601", "neighborhood": "Carroll Gardens-Cobble Hill-Gowanus-Red Hook", "borough": "Brooklyn"}}, {"type": "Feature", "geometry": {"type": "Point", "coordinates": [-73.9610395, 40.6796843]}, "properties": {"name": "Metro Craft", "category": "experience", "website": "https://metrocraft.nyc", "address": "", "source": "OpenStreetMap", "source_id": "node/12608602579", "reason": "Design-focused museum, gallery, or arts center", "nta_code": "BK0802", "neighborhood": "Crown Heights (North)", "borough": "Brooklyn"}}, {"type": "Feature", "geometry": {"type": "Point", "coordinates": [-73.9551746, 40.7728676]}, "properties": {"name": "Metropolitan Graphic Art Gallery", "category": "experience", "website": "https://mgagallery.com", "address": "1504 2nd Avenue", "source": "OpenStreetMap", "source_id": "node/12150623970", "reason": "Design-focused museum, gallery, or arts center", "nta_code": "MN0801", "neighborhood": "Upper East Side-Lenox Hill-Roosevelt Island", "borough": "Manhattan"}}, {"type": "Feature", "geometry": {"type": "Point", "coordinates": [-73.9916285, 40.7156258]}, "properties": {"name": "ML Graphic & Printing", "category": "make", "website": "", "address": "", "source": "OpenStreetMap", "source_id": "node/11523643184", "reason": "Named making space with a relevant craft tag", "nta_code": "MN0301", "neighborhood": "Chinatown-Two Bridges", "borough": "Manhattan"}}, {"type": "Feature", "geometry": {"type": "Point", "coordinates": [-73.9695564, 40.643679]}, "properties": {"name": "Mouse Ceramic Studio", "category": "make", "website": "https://www.mouseceramicstudio.com", "address": "1012 Beverley Road", "source": "OpenStreetMap", "source_id": "node/6044324735", "reason": "Named making space with a relevant craft tag", "nta_code": "BK1402", "neighborhood": "Flatbush (West)-Ditmas Park-Parkville", "borough": "Brooklyn"}}, {"type": "Feature", "geometry": {"type": "Point", "coordinates": [-73.9642268, 40.8021288]}, "properties": {"name": "MUGI Pottery", "category": "make", "website": "https://www.mugipottery.com/", "address": "993 Amsterdam Avenue", "source": "OpenStreetMap", "source_id": "node/8831369669", "reason": "Named making space with a relevant craft tag", "nta_code": "MN0703", "neighborhood": "Upper West Side-Manhattan Valley", "borough": "Manhattan"}}, {"type": "Feature", "geometry": {"type": "Point", "coordinates": [-74.011113, 40.708486]}, "properties": {"name": "Municipal Art Society of New York", "category": "connect", "website": "", "address": "111 Broadway, New York, 10006", "source": "NYC DCLA", "source_id": "dcla-row-1515", "reason": "DCLA Architecture/Design professional organization", "nta_code": "MN0101", "neighborhood": "Financial District-Battery Park City", "borough": "Manhattan"}}, {"type": "Feature", "geometry": {"type": "Point", "coordinates": [-73.9820053, 40.7673824]}, "properties": {"name": "Museum of Arts and Design", "category": "experience", "website": "https://www.madmuseum.org/", "address": "2 Columbus Circle", "source": "OpenStreetMap", "source_id": "way/109269297", "reason": "Design-focused museum, gallery, or arts center", "nta_code": "MN0502", "neighborhood": "Midtown-Times Square", "borough": "Manhattan"}}, {"type": "Feature", "geometry": {"type": "Point", "coordinates": [-73.977201, 40.761002]}, "properties": {"name": "Museum of Modern Art", "category": "experience", "website": "", "address": "11 West 53rd Street, New York, 10019", "source": "NYC DCLA", "source_id": "dcla-row-1530", "reason": "Design-related name in DCLA Museum discipline", "nta_code": "MN0502", "neighborhood": "Midtown-Times Square", "borough": "Manhattan"}}, {"type": "Feature", "geometry": {"type": "Point", "coordinates": [-74.0035315, 40.7502469]}, "properties": {"name": "National Academy of Design", "category": "experience", "website": "https://nationalacademy.org/", "address": "519 West 26th Street", "source": "OpenStreetMap", "source_id": "node/11079626705", "reason": "Design-focused museum, gallery, or arts center", "nta_code": "MN0401", "neighborhood": "Chelsea-Hudson Yards", "borough": "Manhattan"}}, {"type": "Feature", "geometry": {"type": "Point", "coordinates": [-73.9866814, 40.7377541]}, "properties": {"name": "National Arts Club", "category": "connect", "website": "https://www.nacnyc.org", "address": "15 Gramercy Park South", "source": "OpenStreetMap", "source_id": "node/2562374815", "reason": "Design-related community or association", "nta_code": "MN0602", "neighborhood": "Gramercy", "borough": "Manhattan"}}, {"type": "Feature", "geometry": {"type": "Point", "coordinates": [-73.9928406, 40.7223463]}, "properties": {"name": "New Museum", "category": "experience", "website": "https://www.newmuseum.org/", "address": "235 Bowery", "source": "OpenStreetMap", "source_id": "node/13732385972", "reason": "Design-focused museum, gallery, or arts center", "nta_code": "MN0302", "neighborhood": "Lower East Side", "borough": "Manhattan"}}, {"type": "Feature", "geometry": {"type": "Point", "coordinates": [-73.9869439, 40.697328]}, "properties": {"name": "New York City College of Technology", "category": "learn", "website": "https://www.citytech.cuny.edu", "address": "", "source": "OpenStreetMap", "source_id": "relation/14767202", "reason": "Design-related college or university", "nta_code": "BK0202", "neighborhood": "Downtown Brooklyn-DUMBO-Boerum Hill", "borough": "Brooklyn"}}, {"type": "Feature", "geometry": {"type": "Point", "coordinates": [-73.933996, 40.713595]}, "properties": {"name": "New York City Street Photography Collective", "category": "experience", "website": "", "address": "1027 Grand Street, Brooklyn, 11211", "source": "NYC DCLA", "source_id": "dcla-row-1649", "reason": "Design-related name in DCLA Photography discipline", "nta_code": "BK0104", "neighborhood": "East Williamsburg", "borough": "Brooklyn"}}, {"type": "Feature", "geometry": {"type": "Point", "coordinates": [-74.013153, 40.7053483]}, "properties": {"name": "New York Film Academy", "category": "learn", "website": "https://www.nyfa.edu/", "address": "26 Broadway", "source": "OpenStreetMap", "source_id": "node/14044900951", "reason": "Design-related college or university", "nta_code": "MN0101", "neighborhood": "Financial District-Battery Park City", "borough": "Manhattan"}}, {"type": "Feature", "geometry": {"type": "Point", "coordinates": [-73.9829529, 40.7698384]}, "properties": {"name": "New York Institute of Technology", "category": "learn", "website": "https://www.nyit.edu/nyc/", "address": "", "source": "OpenStreetMap", "source_id": "way/1024411997", "reason": "Design-related college or university", "nta_code": "MN0701", "neighborhood": "Upper West Side-Lincoln Square", "borough": "Manhattan"}}, {"type": "Feature", "geometry": {"type": "Point", "coordinates": [-73.9624636, 40.7685642]}, "properties": {"name": "New York School of Interior Design", "category": "learn", "website": "https://www.nysid.edu", "address": "170 East 70th Street", "source": "OpenStreetMap", "source_id": "way/266879276", "reason": "Design-related college or university", "nta_code": "MN0802", "neighborhood": "Upper East Side-Carnegie Hill", "borough": "Manhattan"}}, {"type": "Feature", "geometry": {"type": "Point", "coordinates": [-73.9972548, 40.7322674]}, "properties": {"name": "New York Studio School of Drawing, Painting and Sculpture", "category": "learn", "website": "", "address": "", "source": "OpenStreetMap", "source_id": "node/357618558", "reason": "Design-related college or university", "nta_code": "MN0202", "neighborhood": "Greenwich Village", "borough": "Manhattan"}}, {"type": "Feature", "geometry": {"type": "Point", "coordinates": [-73.9836119, 40.7405695]}, "properties": {"name": "Newman Library and Technology Center", "category": "learn", "website": "https://library.baruch.cuny.edu/", "address": "151 East 25th Street", "source": "OpenStreetMap", "source_id": "node/368050654", "reason": "Design-related library", "nta_code": "MN0602", "neighborhood": "Gramercy", "borough": "Manhattan"}}, {"type": "Feature", "geometry": {"type": "Point", "coordinates": [-74.0175051, 40.6473371]}, "properties": {"name": "Nova Printing", "category": "make", "website": "https://www.novaprinting.com", "address": "226 52nd Street", "source": "OpenStreetMap", "source_id": "way/249586851", "reason": "Named making space with a relevant craft tag", "nta_code": "BK0702", "neighborhood": "Sunset Park (West)", "borough": "Brooklyn"}}, {"type": "Feature", "geometry": {"type": "Point", "coordinates": [-74.0168886, 40.6737155]}, "properties": {"name": "NY Printing & Graphics", "category": "make", "website": "https://www.nyprintinggraphics.com", "address": "481 Van Brunt Street", "source": "OpenStreetMap", "source_id": "node/10208686512", "reason": "Named making space with a relevant craft tag", "nta_code": "BK0601", "neighborhood": "Carroll Gardens-Cobble Hill-Gowanus-Red Hook", "borough": "Brooklyn"}}, {"type": "Feature", "geometry": {"type": "Point", "coordinates": [-73.9488935, 40.6787171]}, "properties": {"name": "NY Woodwork Doron", "category": "make", "website": "", "address": "1259 Atlantic Avenue", "source": "OpenStreetMap", "source_id": "way/247912923", "reason": "Named making space with a relevant craft tag", "nta_code": "BK0301", "neighborhood": "Bedford-Stuyvesant (West)", "borough": "Brooklyn"}}, {"type": "Feature", "geometry": {"type": "Point", "coordinates": [-73.7805989, 40.7052393]}, "properties": {"name": "NYADI The College of Transportation Technology", "category": "learn", "website": "https://nyadi.edu/", "address": "178-18 Liberty Avenue", "source": "OpenStreetMap", "source_id": "node/13144484942", "reason": "Design-related college or university", "nta_code": "QN1202", "neighborhood": "South Jamaica", "borough": "Queens"}}, {"type": "Feature", "geometry": {"type": "Point", "coordinates": [-73.975165, 40.749798]}, "properties": {"name": "NYCxD", "category": "experience", "website": "", "address": "630 3rd Avenue, New York, 10017", "source": "NYC DCLA", "source_id": "dcla-row-1728", "reason": "DCLA Architecture/Design discipline", "nta_code": "MN0603", "neighborhood": "Murray Hill-Kips Bay", "borough": "Manhattan"}}, {"type": "Feature", "geometry": {"type": "Point", "coordinates": [-74.005693, 40.726143]}, "properties": {"name": "openhousenewyork, Inc.", "category": "experience", "website": "", "address": "150 Varick Street, New York, 10013", "source": "NYC DCLA", "source_id": "dcla-row-1753", "reason": "DCLA Architecture/Design discipline", "nta_code": "MN0201", "neighborhood": "SoHo-Little Italy-Hudson Square", "borough": "Manhattan"}}, {"type": "Feature", "geometry": {"type": "Point", "coordinates": [-74.0271176, 40.6349044]}, "properties": {"name": "Ovington Pottery", "category": "make", "website": "https://www.ovingtonpottery.com/", "address": "264 Ovington Avenue", "source": "OpenStreetMap", "source_id": "node/13295789975", "reason": "Named making space with a relevant craft tag", "nta_code": "BK1001", "neighborhood": "Bay Ridge", "borough": "Brooklyn"}}, {"type": "Feature", "geometry": {"type": "Point", "coordinates": [-73.9945327, 40.735357]}, "properties": {"name": "Parsons School of Design", "category": "learn", "website": "", "address": "66 5th Avenue", "source": "OpenStreetMap", "source_id": "node/1427294706", "reason": "Design-related college or university", "nta_code": "MN0202", "neighborhood": "Greenwich Village", "borough": "Manhattan"}}, {"type": "Feature", "geometry": {"type": "Point", "coordinates": [-73.9984548, 40.6773554]}, "properties": {"name": "Plant 486", "category": "experience", "website": "https://plant486.com", "address": "486 Court Street", "source": "OpenStreetMap", "source_id": "node/13885512121", "reason": "Design-focused museum, gallery, or arts center", "nta_code": "BK0601", "neighborhood": "Carroll Gardens-Cobble Hill-Gowanus-Red Hook", "borough": "Brooklyn"}}, {"type": "Feature", "geometry": {"type": "Point", "coordinates": [-73.9930673, 40.6696564]}, "properties": {"name": "Post Heritage Printing", "category": "make", "website": "https://www.postheritage.com", "address": "138 12th Street", "source": "OpenStreetMap", "source_id": "way/248171236", "reason": "Named making space with a relevant craft tag", "nta_code": "BK0601", "neighborhood": "Carroll Gardens-Cobble Hill-Gowanus-Red Hook", "borough": "Brooklyn"}}, {"type": "Feature", "geometry": {"type": "Point", "coordinates": [-73.9933334, 40.7435904]}, "properties": {"name": "Poster House", "category": "experience", "website": "https://posterhouse.org/", "address": "119 West 23rd Street", "source": "OpenStreetMap", "source_id": "way/705811842", "reason": "Design-focused museum, gallery, or arts center", "nta_code": "MN0401", "neighborhood": "Chelsea-Hudson Yards", "borough": "Manhattan"}}, {"type": "Feature", "geometry": {"type": "Point", "coordinates": [-73.994835, 40.7190663]}, "properties": {"name": "Pottery Studio 1", "category": "make", "website": "https://pottery-nyc.com", "address": "", "source": "OpenStreetMap", "source_id": "node/10756703055", "reason": "Named making space with a relevant craft tag", "nta_code": "MN0201", "neighborhood": "SoHo-Little Italy-Hudson Square", "borough": "Manhattan"}}, {"type": "Feature", "geometry": {"type": "Point", "coordinates": [-73.9643559, 40.6911395]}, "properties": {"name": "Pratt Institute", "category": "learn", "website": "https://www.pratt.edu/", "address": "200 Willoughby Avenue", "source": "OpenStreetMap", "source_id": "relation/4425764", "reason": "Design-related college or university", "nta_code": "BK0204", "neighborhood": "Clinton Hill", "borough": "Brooklyn"}}, {"type": "Feature", "geometry": {"type": "Point", "coordinates": [-73.9958739, 40.6602376]}, "properties": {"name": "Print By Pop", "category": "make", "website": "https://printbypop.com/", "address": "", "source": "OpenStreetMap", "source_id": "node/2547745168", "reason": "Named making space with a relevant craft tag", "nta_code": "BK0702", "neighborhood": "Sunset Park (West)", "borough": "Brooklyn"}}, {"type": "Feature", "geometry": {"type": "Point", "coordinates": [-73.9872924, 40.6590578]}, "properties": {"name": "Printique", "category": "make", "website": "https://www.printique.com", "address": "370 19th Street", "source": "OpenStreetMap", "source_id": "way/647047095", "reason": "Named making space with a relevant craft tag", "nta_code": "BK0701", "neighborhood": "Windsor Terrace-South Slope", "borough": "Brooklyn"}}, {"type": "Feature", "geometry": {"type": "Point", "coordinates": [-73.986587, 40.704313]}, "properties": {"name": "Public Policy Lab", "category": "experience", "website": "", "address": "20 Jay St, Suite 203, Brooklyn, 11201", "source": "NYC DCLA", "source_id": "dcla-row-1907", "reason": "DCLA Architecture/Design discipline", "nta_code": "BK0202", "neighborhood": "Downtown Brooklyn-DUMBO-Boerum Hill", "borough": "Brooklyn"}}, {"type": "Feature", "geometry": {"type": "Point", "coordinates": [-73.984513, 40.75009]}, "properties": {"name": "Publicolor, Inc.", "category": "experience", "website": "", "address": "20 West 36 Street, New York, 10018", "source": "NYC DCLA", "source_id": "dcla-row-1906", "reason": "DCLA Architecture/Design discipline", "nta_code": "MN0502", "neighborhood": "Midtown-Times Square", "borough": "Manhattan"}}, {"type": "Feature", "geometry": {"type": "Point", "coordinates": [-73.9850392, 40.6809693]}, "properties": {"name": "Quality Woodworking Corp", "category": "make", "website": "http://qualitywoodworkingcorp.com", "address": "260 Butler Street", "source": "OpenStreetMap", "source_id": "way/1250317788", "reason": "Named making space with a relevant craft tag", "nta_code": "BK0601", "neighborhood": "Carroll Gardens-Cobble Hill-Gowanus-Red Hook", "borough": "Brooklyn"}}, {"type": "Feature", "geometry": {"type": "Point", "coordinates": [-73.8467443, 40.7458698]}, "properties": {"name": "Queens Museum", "category": "experience", "website": "https://queensmuseum.org", "address": "", "source": "OpenStreetMap", "source_id": "way/284856409", "reason": "Design-focused museum, gallery, or arts center", "nta_code": "QN8191", "neighborhood": "Flushing Meadows-Corona Park", "borough": "Queens"}}, {"type": "Feature", "geometry": {"type": "Point", "coordinates": [-74.0183134, 40.6447136]}, "properties": {"name": "Redline Screen Printing", "category": "make", "website": "", "address": "5518 3rd Avenue", "source": "OpenStreetMap", "source_id": "way/249587189", "reason": "Named making space with a relevant craft tag", "nta_code": "BK0702", "neighborhood": "Sunset Park (West)", "borough": "Brooklyn"}}, {"type": "Feature", "geometry": {"type": "Point", "coordinates": [-73.9927703, 40.7223303]}, "properties": {"name": "Rhizome", "category": "connect", "website": "https://rhizome.org", "address": "235 Bowery", "source": "OpenStreetMap", "source_id": "node/6234635908", "reason": "Design-related community or association", "nta_code": "MN0302", "neighborhood": "Lower East Side", "borough": "Manhattan"}}, {"type": "Feature", "geometry": {"type": "Point", "coordinates": [-73.9056392, 40.7050087]}, "properties": {"name": "Ridgewood Ceramics", "category": "make", "website": "https://ridgewoodceramics.com/", "address": "689 Woodward Avenue", "source": "OpenStreetMap", "source_id": "node/13917810727", "reason": "Named making space with a relevant craft tag", "nta_code": "QN0502", "neighborhood": "Ridgewood", "borough": "Queens"}}, {"type": "Feature", "geometry": {"type": "Point", "coordinates": [-73.981512, 40.6774975]}, "properties": {"name": "Sackett Woodworking", "category": "make", "website": "", "address": "", "source": "OpenStreetMap", "source_id": "node/9356039178", "reason": "Named making space with a relevant craft tag", "nta_code": "BK0602", "neighborhood": "Park Slope", "borough": "Brooklyn"}}, {"type": "Feature", "geometry": {"type": "Point", "coordinates": [-73.964168, 40.811101]}, "properties": {"name": "Salvadori Center", "category": "experience", "website": "", "address": "475 Riverside Drive, Suite 239, New York, 10115", "source": "NYC DCLA", "source_id": "dcla-row-2043", "reason": "DCLA Architecture/Design discipline", "nta_code": "MN0901", "neighborhood": "Morningside Heights", "borough": "Manhattan"}}, {"type": "Feature", "geometry": {"type": "Point", "coordinates": [-73.9907497, 40.7415841]}, "properties": {"name": "School of Visual Arts", "category": "learn", "website": "https://sva.edu", "address": "209 East 23rd Street", "source": "OpenStreetMap", "source_id": "relation/15402496", "reason": "Design-related college or university", "nta_code": "MN0501", "neighborhood": "Midtown South-Flatiron-Union Square", "borough": "Manhattan"}}, {"type": "Feature", "geometry": {"type": "Point", "coordinates": [-73.9068568, 40.7054271]}, "properties": {"name": "Scratch Ceramics", "category": "make", "website": "https://scratchceramics.com/", "address": "658 Woodward Avenue", "source": "OpenStreetMap", "source_id": "node/13837887720", "reason": "Named making space with a relevant craft tag", "nta_code": "QN0502", "neighborhood": "Ridgewood", "borough": "Queens"}}, {"type": "Feature", "geometry": {"type": "Point", "coordinates": [-73.9408643, 40.7469077]}, "properties": {"name": "Sculpture Center", "category": "experience", "website": "https://www.sculpture-center.org/", "address": "44-19 Purves Street", "source": "OpenStreetMap", "source_id": "node/6764188983", "reason": "Design-focused museum, gallery, or arts center", "nta_code": "QN0201", "neighborhood": "Long Island City-Hunters Point", "borough": "Queens"}}, {"type": "Feature", "geometry": {"type": "Point", "coordinates": [-73.9301029, 40.7416117]}, "properties": {"name": "Sculpture Space NYC", "category": "experience", "website": "https://www.sculpturespacenyc.com", "address": "47-21 35th Street", "source": "OpenStreetMap", "source_id": "way/280352386", "reason": "Design-focused museum, gallery, or arts center", "nta_code": "QN0202", "neighborhood": "Sunnyside", "borough": "Queens"}}, {"type": "Feature", "geometry": {"type": "Point", "coordinates": [-73.936314, 40.767634]}, "properties": {"name": "Socrates Sculpture Park, Inc.", "category": "experience", "website": "", "address": "32-01 Vernon Blvd., Long Island City, 11106", "source": "NYC DCLA", "source_id": "dcla-row-2119", "reason": "Design-related name in DCLA Visual Arts discipline", "nta_code": "QN0105", "neighborhood": "Queensbridge-Ravenswood-Dutch Kills", "borough": "Queens"}}, {"type": "Feature", "geometry": {"type": "Point", "coordinates": [-73.935577, 40.7136163]}, "properties": {"name": "Soft Surplus", "category": "experience", "website": "", "address": "366 Devoe Street", "source": "OpenStreetMap", "source_id": "node/6226020236", "reason": "Design-focused museum, gallery, or arts center", "nta_code": "BK0104", "neighborhood": "East Williamsburg", "borough": "Brooklyn"}}, {"type": "Feature", "geometry": {"type": "Point", "coordinates": [-73.9791134, 40.6422243]}, "properties": {"name": "Spectrum Printing", "category": "make", "website": "", "address": "", "source": "OpenStreetMap", "source_id": "node/9740146608", "reason": "Named making space with a relevant craft tag", "nta_code": "BK1203", "neighborhood": "Kensington", "borough": "Brooklyn"}}, {"type": "Feature", "geometry": {"type": "Point", "coordinates": [-73.9971028, 40.7214798]}, "properties": {"name": "Storefront for Art and Architecture", "category": "experience", "website": "https://storefrontnews.org", "address": "97 Kenmare Street", "source": "OpenStreetMap", "source_id": "node/368042980", "reason": "Design-focused museum, gallery, or arts center", "nta_code": "MN0201", "neighborhood": "SoHo-Little Italy-Hudson Square", "borough": "Manhattan"}}, {"type": "Feature", "geometry": {"type": "Point", "coordinates": [-73.9860395, 40.6772035]}, "properties": {"name": "Studio Craftspring", "category": "experience", "website": "", "address": "", "source": "OpenStreetMap", "source_id": "node/6286959724", "reason": "Design-focused museum, gallery, or arts center", "nta_code": "BK0601", "neighborhood": "Carroll Gardens-Cobble Hill-Gowanus-Red Hook", "borough": "Brooklyn"}}, {"type": "Feature", "geometry": {"type": "Point", "coordinates": [-74.0119432, 40.6512781]}, "properties": {"name": "T&K Printing & Graphic", "category": "make", "website": "", "address": "262 44th Street", "source": "OpenStreetMap", "source_id": "way/249592166", "reason": "Named making space with a relevant craft tag", "nta_code": "BK0702", "neighborhood": "Sunset Park (West)", "borough": "Brooklyn"}}, {"type": "Feature", "geometry": {"type": "Point", "coordinates": [-74.1331478, 40.6385288]}, "properties": {"name": "TDS Woodcraft", "category": "make", "website": "https://www.tdswoodcraft.com", "address": "104 Port Richmond Avenue", "source": "OpenStreetMap", "source_id": "node/9630506337", "reason": "Named making space with a relevant craft tag", "nta_code": "SI0106", "neighborhood": "Port Richmond", "borough": "Staten Island"}}, {"type": "Feature", "geometry": {"type": "Point", "coordinates": [-73.953255, 40.713047]}, "properties": {"name": "Territorial Empathy, Inc.", "category": "experience", "website": "", "address": "31 Ainslie Street, Brooklyn, 11211", "source": "NYC DCLA", "source_id": "dcla-row-2262", "reason": "DCLA Architecture/Design discipline", "nta_code": "BK0102", "neighborhood": "Williamsburg", "borough": "Brooklyn"}}, {"type": "Feature", "geometry": {"type": "Point", "coordinates": [-73.9852434, 40.6768058]}, "properties": {"name": "Textile Arts Center", "category": "experience", "website": "", "address": "", "source": "OpenStreetMap", "source_id": "node/5620571661", "reason": "Design-focused museum, gallery, or arts center", "nta_code": "BK0601", "neighborhood": "Carroll Gardens-Cobble Hill-Gowanus-Red Hook", "borough": "Brooklyn"}}, {"type": "Feature", "geometry": {"type": "Point", "coordinates": [-73.9504689, 40.8176789]}, "properties": {"name": "The Bernard and Anne Spitzer School of Architecture", "category": "learn", "website": "", "address": "", "source": "OpenStreetMap", "source_id": "node/4111168785", "reason": "Design-related college or university", "nta_code": "MN0902", "neighborhood": "Manhattanville-West Harlem", "borough": "Manhattan"}}, {"type": "Feature", "geometry": {"type": "Point", "coordinates": [-74.0028908, 40.7224437]}, "properties": {"name": "The Drawing Center", "category": "experience", "website": "https://drawingcenter.org", "address": "35 Wooster Street", "source": "OpenStreetMap", "source_id": "way/249664327", "reason": "Design-focused museum, gallery, or arts center", "nta_code": "MN0201", "neighborhood": "SoHo-Little Italy-Hudson Square", "borough": "Manhattan"}}, {"type": "Feature", "geometry": {"type": "Point", "coordinates": [-73.9940704, 40.7493717]}, "properties": {"name": "The Drawing Room", "category": "experience", "website": "https://www.nycdrawingroom.com/", "address": "", "source": "OpenStreetMap", "source_id": "node/12312858201", "reason": "Design-focused museum, gallery, or arts center", "nta_code": "MN0501", "neighborhood": "Midtown South-Flatiron-Union Square", "borough": "Manhattan"}}, {"type": "Feature", "geometry": {"type": "Point", "coordinates": [-73.9922363, 40.7367924]}, "properties": {"name": "The New School", "category": "learn", "website": "", "address": "6 East 16th Street", "source": "OpenStreetMap", "source_id": "node/2259028668", "reason": "Design-related college or university", "nta_code": "MN0501", "neighborhood": "Midtown South-Flatiron-Union Square", "borough": "Manhattan"}}, {"type": "Feature", "geometry": {"type": "Point", "coordinates": [-73.9934962, 40.7354952]}, "properties": {"name": "The New School University Center", "category": "learn", "website": "", "address": "65 5th Avenue", "source": "OpenStreetMap", "source_id": "way/377077898", "reason": "Design-related college or university", "nta_code": "MN0202", "neighborhood": "Greenwich Village", "borough": "Manhattan"}}, {"type": "Feature", "geometry": {"type": "Point", "coordinates": [-73.9801045, 40.6771965]}, "properties": {"name": "The Painted Pot", "category": "make", "website": "https://www.paintedpot.com", "address": "", "source": "OpenStreetMap", "source_id": "node/2550057146", "reason": "Named making space with a relevant craft tag", "nta_code": "BK0602", "neighborhood": "Park Slope", "borough": "Brooklyn"}}, {"type": "Feature", "geometry": {"type": "Point", "coordinates": [-73.9958258, 40.6739195]}, "properties": {"name": "The Pottery Studio", "category": "make", "website": "https://thepotterystudio.com/pages/brooklyn", "address": "43C 9th Street", "source": "OpenStreetMap", "source_id": "node/6433148367", "reason": "Named making space with a relevant craft tag", "nta_code": "BK0601", "neighborhood": "Carroll Gardens-Cobble Hill-Gowanus-Red Hook", "borough": "Brooklyn"}}, {"type": "Feature", "geometry": {"type": "Point", "coordinates": [-74.0181506, 40.6377741]}, "properties": {"name": "Upper Deck Screen Printing & Embroidery", "category": "make", "website": "", "address": "6302 5th Avenue", "source": "OpenStreetMap", "source_id": "node/2561668321", "reason": "Named making space with a relevant craft tag", "nta_code": "BK0703", "neighborhood": "Sunset Park (Central)", "borough": "Brooklyn"}}, {"type": "Feature", "geometry": {"type": "Point", "coordinates": [-73.989451, 40.680088]}, "properties": {"name": "Van Alen Institute: Projects in Public Architecture", "category": "connect", "website": "", "address": "303 Bond St, Brooklyn, 11231", "source": "NYC DCLA", "source_id": "dcla-row-2385", "reason": "DCLA Architecture/Design professional organization", "nta_code": "BK0601", "neighborhood": "Carroll Gardens-Cobble Hill-Gowanus-Red Hook", "borough": "Brooklyn"}}, {"type": "Feature", "geometry": {"type": "Point", "coordinates": [-74.0089385, 40.739633]}, "properties": {"name": "Whitney Museum of American Art", "category": "experience", "website": "https://www.whitney.org/", "address": "99 Gansevoort Street", "source": "OpenStreetMap", "source_id": "way/288749896", "reason": "Design-focused museum, gallery, or arts center", "nta_code": "MN0203", "neighborhood": "West Village", "borough": "Manhattan"}}, {"type": "Feature", "geometry": {"type": "Point", "coordinates": [-73.9904159, 40.643426]}, "properties": {"name": "Wide Printing", "category": "make", "website": "", "address": "", "source": "OpenStreetMap", "source_id": "node/2561930498", "reason": "Named making space with a relevant craft tag", "nta_code": "BK1201", "neighborhood": "Sunset Park (East)-Borough Park (West)", "borough": "Brooklyn"}}]}