{"type": "FeatureCollection", "features": [{"type": "Feature", "properties": {"ip": "13.226.222.150", "url": "https://d37vpt3xizf75m.cloudfront.net/api/file/tgyHxU2RKKb2dgNAZESg/convert?w=750&compress=true&fit=max"}, "geometry": {"type": "Point", "coordinates": [-77.4158, 39.0376]}}, {"type": "Feature", "properties": {"ip": "146.75.30.133", "url": "https://www.filepicker.io/api/file/MbsSqcnRwWiKNCVmAFfF"}, "geometry": {"type": "Point", "coordinates": [-77.4875, 39.0437]}}, {"type": "Feature", "properties": {"ip": "142.250.31.97", "url": "https://www.googletagmanager.com/gtag/js?id=G-JYEQBPW4VK&cx=c&gtm=4e6852h1"}, "geometry": {"type": "Point", "coordinates": [-77.5636, 39.1157]}}, {"type": "Feature", "properties": {"ip": "162.247.243.29", "url": "https://bam.nr-data.net/1/NRJS-b5ac9db1333d8077889?a=568760387&v=1.319.0&to=IFhbTUQOD1lcRRgLWg5SaklXBgYaSl9YFA%3D%3D&rst=1699&ck=0&s=84d970b7f1f48874&ref=https://www.arch.columbia.edu/&ptid=d8ecd51dee3646e5&qt=1&ap=377&be=468&fe=1187&dc=223&fsh=1&perf=%7B%22timing%22:%7B%22of%22:1786200781757,%22n%22:0,%22f%22:1,%22dn%22:2,%22dne%22:28,%22c%22:28,%22s%22:41,%22ce%22:69,%22rq%22:69,%22rp%22:469,%22rpe%22:534,%22di%22:673,%22ds%22:673,%22de%22:691,%22dc%22:1654,%22l%22:1654,%22le%22:1655%7D,%22navigation%22:%7B%7D%7D&fp=676&fcp=676"}, "geometry": {"type": "Point", "coordinates": [-122.3892, 37.7864]}}, {"type": "Feature", "properties": {"ip": "35.71.145.101", "url": "https://www.arch.columbia.edu/"}, "geometry": {"type": "Point", "coordinates": [-122.3476, 47.6339]}}, {"type": "Feature", "properties": {"ip": "172.217.114.4", "url": "https://maps.googleapis.com/maps/api/js?key=AIzaSyDD9_E7AdTC06VawRUh6uGRluJjn8UzzNk&loading=async&callback=Gsapp.initMap"}, "geometry": {"type": "Point", "coordinates": [-122.1175, 38.0088]}}, {"type": "Feature", "properties": {"ip": "57.145.2.128", "url": "https://connect.facebook.net/signals/config/2359763880923005?v=2.9.373&r=stable&domain=www.arch.columbia.edu&hme=6d1ed5deee7eafc01c53d9e9fc3c4e10db50c3d28237bc4932686777e5c3969a&ex_m=111%2C215%2C163%2C23%2C76%2C77%2C154%2C72%2C71%2C11%2C172%2C96%2C17%2C146%2C134%2C41%2C79%2C84%2C142%2C168%2C174%2C27%2C15%2C28%2C29%2C30%2C32%2C50%2C155%2C81%2C119%2C19%2C21%2C46%2C42%2C44%2C43%2C89%2C98%2C102%2C117%2C153%2C156%2C48%2C118%2C25%2C22%2C126%2C73%2C38%2C158%2C157%2C159%2C150%2C148%2C26%2C37%2C61%2C116%2C170%2C74%2C18%2C161%2C121%2C87%2C70%2C20%2C91%2C92%2C123%2C90%2C144%2C143%2C147%2C103%2C169%2C36%2C51%2C120%2C49%2C8%2C4%2C5%2C7%2C6%2C3%2C97%2C108%2C175%2C182%2C229%2C78%2C242%2C241%2C240%2C24%2C35%2C57%2C110%2C63%2C10%2C67%2C104%2C105%2C106%2C112%2C137%2C33%2C31%2C139%2C140%2C141%2C136%2C135%2C164%2C80%2C167%2C165%2C166%2C52%2C62%2C130%2C16%2C171%2C47%2C286%2C287%2C285%2C300%2C318%2C222%2C211%2C64%2C212%2C210%2C321%2C312%2C54%2C223%2C114%2C138%2C86%2C128%2C56%2C127%2C133%2C132%2C60%2C68%2C66%2C160%2C82%2C83%2C122%2C39%2C34%2C55%2C58%2C107%2C173%2C1%2C131%2C14%2C129%2C12%2C2%2C59%2C99%2C69%2C65%2C125%2C95%2C94%2C176%2C177%2C100%2C101%2C9%2C109%2C53%2C151%2C93%2C85%2C75%2C124%2C113%2C45%2C152%2C0%2C88%2C145%2C149%2C162%2C40%2C115%2C13%2C178"}, "geometry": {"type": "Point", "coordinates": [-77.4875, 39.0437]}}, {"type": "Feature", "properties": {"ip": "104.17.25.14", "url": "https://cdnjs.cloudflare.com/ajax/libs/videojs-youtube/2.1.1/Youtube.js"}, "geometry": {"type": "Point", "coordinates": [-122.3971, 37.7621]}}, {"type": "Feature", "properties": {"ip": "151.101.65.155", "url": "https://code.jquery.com/ui/1.12.1/jquery-ui.min.js"}, "geometry": {"type": "Point", "coordinates": [-122.3971, 37.7621]}}, {"type": "Feature", "properties": {"ip": "146.75.38.217", "url": "https://vjs.zencdn.net/ie8/1.1.2/videojs-ie8.min.js"}, "geometry": {"type": "Point", "coordinates": [-77.4875, 39.0437]}}, {"type": "Feature", "properties": {"ip": "142.251.150.4", "url": "https://www.youtube.com/iframe_api"}, "geometry": {"type": "Point", "coordinates": [-122.1175, 38.0088]}}, {"type": "Feature", "properties": {"ip": "192.178.155.154", "url": "https://stats.g.doubleclick.net/g/collect?v=2&ngs=1&ibt=1&tid=G-JYEQBPW4VK&cid=1889680347.1786200783&gtm=45je6852v9134445253za200&rcb=9&aip=1&dma=0&gcd=13l3l3l3l1l1&npa=0&frm=0&tag_exp=115938466~115938469~118897920~118897930~119337770~119527020~119896803"}, "geometry": {"type": "Point", "coordinates": [-77.5636, 39.1157]}}, {"type": "Feature", "properties": {"ip": "162.247.243.39", "url": "https://js-agent.newrelic.com/nr-rum-1.319.0.min.js"}, "geometry": {"type": "Point", "coordinates": [-122.3892, 37.7864]}}]}