{
"type": "FeatureCollection",
"name": "manhattan_rent_growth_points",
"crs": { "type": "name", "properties": { "name": "urn:ogc:def:crs:OGC:1.3:CRS84" } },
"features": [
{ "type": "Feature", "properties": { "area_id": "battery_park_city", "area_name": "Battery Park City", "borough": "Manhattan", "longitude": -74.0163, "latitude": 40.7113, "baseline_month": "2016-07", "latest_month": "2026-06", "baseline_rent_usd": 4750, "latest_rent_usd": 5758, "rent_change_usd": 1008, "growth_pct": 21.2, "min_rent_usd": 3750, "max_rent_usd": 6250, "observation_months": 120, "source": "StreetEasy Data Dashboard master report, medianAskingRent_All.csv", "source_url": "https://cdn-charts.streeteasy.com/Master%20Report.zip" }, "geometry": { "type": "Point", "coordinates": [ -74.0163, 40.7113 ] } },
{ "type": "Feature", "properties": { "area_id": "central_harlem", "area_name": "Central Harlem", "borough": "Manhattan", "longitude": -73.9442, "latitude": 40.8116, "baseline_month": "2016-07", "latest_month": "2026-06", "baseline_rent_usd": 2500, "latest_rent_usd": 3600, "rent_change_usd": 1100, "growth_pct": 44.0, "min_rent_usd": 2295, "max_rent_usd": 3600, "observation_months": 120, "source": "StreetEasy Data Dashboard master report, medianAskingRent_All.csv", "source_url": "https://cdn-charts.streeteasy.com/Master%20Report.zip" }, "geometry": { "type": "Point", "coordinates": [ -73.9442, 40.8116 ] } },
{ "type": "Feature", "properties": { "area_id": "central_park_south", "area_name": "Central Park South", "borough": "Manhattan", "longitude": -73.9797, "latitude": 40.7669, "baseline_month": "2016-07", "latest_month": "2026-06", "baseline_rent_usd": 7400, "latest_rent_usd": 12500, "rent_change_usd": 5100, "growth_pct": 68.9, "min_rent_usd": 6185, "max_rent_usd": 14000, "observation_months": 120, "source": "StreetEasy Data Dashboard master report, medianAskingRent_All.csv", "source_url": "https://cdn-charts.streeteasy.com/Master%20Report.zip" }, "geometry": { "type": "Point", "coordinates": [ -73.9797, 40.7669 ] } },
{ "type": "Feature", "properties": { "area_id": "chelsea", "area_name": "Chelsea", "borough": "Manhattan", "longitude": -74.0014, "latitude": 40.7465, "baseline_month": "2016-07", "latest_month": "2026-06", "baseline_rent_usd": 4200, "latest_rent_usd": 6131, "rent_change_usd": 1931, "growth_pct": 46.0, "min_rent_usd": 3313, "max_rent_usd": 6142, "observation_months": 120, "source": "StreetEasy Data Dashboard master report, medianAskingRent_All.csv", "source_url": "https://cdn-charts.streeteasy.com/Master%20Report.zip" }, "geometry": { "type": "Point", "coordinates": [ -74.0014, 40.7465 ] } },
{ "type": "Feature", "properties": { "area_id": "chinatown", "area_name": "Chinatown", "borough": "Manhattan", "longitude": -73.9968, "latitude": 40.7158, "baseline_month": "2016-07", "latest_month": "2026-06", "baseline_rent_usd": 2800, "latest_rent_usd": 4380, "rent_change_usd": 1580, "growth_pct": 56.4, "min_rent_usd": 2050, "max_rent_usd": 4380, "observation_months": 120, "source": "StreetEasy Data Dashboard master report, medianAskingRent_All.csv", "source_url": "https://cdn-charts.streeteasy.com/Master%20Report.zip" }, "geometry": { "type": "Point", "coordinates": [ -73.9968, 40.7158 ] } },
{ "type": "Feature", "properties": { "area_id": "east_harlem", "area_name": "East Harlem", "borough": "Manhattan", "longitude": -73.9419, "latitude": 40.7957, "baseline_month": "2016-07", "latest_month": "2026-06", "baseline_rent_usd": 2450, "latest_rent_usd": 3250, "rent_change_usd": 800, "growth_pct": 32.7, "min_rent_usd": 2025, "max_rent_usd": 3250, "observation_months": 120, "source": "StreetEasy Data Dashboard master report, medianAskingRent_All.csv", "source_url": "https://cdn-charts.streeteasy.com/Master%20Report.zip" }, "geometry": { "type": "Point", "coordinates": [ -73.9419, 40.7957 ] } },
{ "type": "Feature", "properties": { "area_id": "east_village", "area_name": "East Village", "borough": "Manhattan", "longitude": -73.984, "latitude": 40.7265, "baseline_month": "2016-07", "latest_month": "2026-06", "baseline_rent_usd": 3300, "latest_rent_usd": 5250, "rent_change_usd": 1950, "growth_pct": 59.1, "min_rent_usd": 2500, "max_rent_usd": 5495, "observation_months": 120, "source": "StreetEasy Data Dashboard master report, medianAskingRent_All.csv", "source_url": "https://cdn-charts.streeteasy.com/Master%20Report.zip" }, "geometry": { "type": "Point", "coordinates": [ -73.984, 40.7265 ] } },
{ "type": "Feature", "properties": { "area_id": "financial_district", "area_name": "Financial District", "borough": "Manhattan", "longitude": -74.01, "latitude": 40.7075, "baseline_month": "2016-07", "latest_month": "2026-06", "baseline_rent_usd": 3695, "latest_rent_usd": 4925, "rent_change_usd": 1230, "growth_pct": 33.3, "min_rent_usd": 3070, "max_rent_usd": 4925, "observation_months": 120, "source": "StreetEasy Data Dashboard master report, medianAskingRent_All.csv", "source_url": "https://cdn-charts.streeteasy.com/Master%20Report.zip" }, "geometry": { "type": "Point", "coordinates": [ -74.01, 40.7075 ] } },
{ "type": "Feature", "properties": { "area_id": "flatiron", "area_name": "Flatiron", "borough": "Manhattan", "longitude": -73.9903, "latitude": 40.7411, "baseline_month": "2016-07", "latest_month": "2026-06", "baseline_rent_usd": 5000, "latest_rent_usd": 6593, "rent_change_usd": 1593, "growth_pct": 31.9, "min_rent_usd": 3900, "max_rent_usd": 6595, "observation_months": 120, "source": "StreetEasy Data Dashboard master report, medianAskingRent_All.csv", "source_url": "https://cdn-charts.streeteasy.com/Master%20Report.zip" }, "geometry": { "type": "Point", "coordinates": [ -73.9903, 40.7411 ] } },
{ "type": "Feature", "properties": { "area_id": "gramercy_park", "area_name": "Gramercy Park", "borough": "Manhattan", "longitude": -73.9851, "latitude": 40.7379, "baseline_month": "2016-07", "latest_month": "2026-06", "baseline_rent_usd": 3600, "latest_rent_usd": 5350, "rent_change_usd": 1750, "growth_pct": 48.6, "min_rent_usd": 2850, "max_rent_usd": 5695, "observation_months": 120, "source": "StreetEasy Data Dashboard master report, medianAskingRent_All.csv", "source_url": "https://cdn-charts.streeteasy.com/Master%20Report.zip" }, "geometry": { "type": "Point", "coordinates": [ -73.9851, 40.7379 ] } },
{ "type": "Feature", "properties": { "area_id": "greenwich_village", "area_name": "Greenwich Village", "borough": "Manhattan", "longitude": -73.9973, "latitude": 40.7336, "baseline_month": "2016-07", "latest_month": "2026-06", "baseline_rent_usd": 3900, "latest_rent_usd": 5850, "rent_change_usd": 1950, "growth_pct": 50.0, "min_rent_usd": 3000, "max_rent_usd": 5895, "observation_months": 120, "source": "StreetEasy Data Dashboard master report, medianAskingRent_All.csv", "source_url": "https://cdn-charts.streeteasy.com/Master%20Report.zip" }, "geometry": { "type": "Point", "coordinates": [ -73.9973, 40.7336 ] } },
{ "type": "Feature", "properties": { "area_id": "hamilton_heights", "area_name": "Hamilton Heights", "borough": "Manhattan", "longitude": -73.9496, "latitude": 40.8262, "baseline_month": "2016-07", "latest_month": "2026-06", "baseline_rent_usd": 2300, "latest_rent_usd": 3250, "rent_change_usd": 950, "growth_pct": 41.3, "min_rent_usd": 2180, "max_rent_usd": 3250, "observation_months": 120, "source": "StreetEasy Data Dashboard master report, medianAskingRent_All.csv", "source_url": "https://cdn-charts.streeteasy.com/Master%20Report.zip" }, "geometry": { "type": "Point", "coordinates": [ -73.9496, 40.8262 ] } },
{ "type": "Feature", "properties": { "area_id": "inwood", "area_name": "Inwood", "borough": "Manhattan", "longitude": -73.9217, "latitude": 40.8677, "baseline_month": "2016-07", "latest_month": "2026-06", "baseline_rent_usd": 1875, "latest_rent_usd": 2795, "rent_change_usd": 920, "growth_pct": 49.1, "min_rent_usd": 1750, "max_rent_usd": 3225, "observation_months": 120, "source": "StreetEasy Data Dashboard master report, medianAskingRent_All.csv", "source_url": "https://cdn-charts.streeteasy.com/Master%20Report.zip" }, "geometry": { "type": "Point", "coordinates": [ -73.9217, 40.8677 ] } },
{ "type": "Feature", "properties": { "area_id": "little_italy", "area_name": "Little Italy", "borough": "Manhattan", "longitude": -73.9975, "latitude": 40.7191, "baseline_month": "2016-07", "latest_month": "2026-06", "baseline_rent_usd": 3500, "latest_rent_usd": 5250, "rent_change_usd": 1750, "growth_pct": 50.0, "min_rent_usd": 2325, "max_rent_usd": 5700, "observation_months": 120, "source": "StreetEasy Data Dashboard master report, medianAskingRent_All.csv", "source_url": "https://cdn-charts.streeteasy.com/Master%20Report.zip" }, "geometry": { "type": "Point", "coordinates": [ -73.9975, 40.7191 ] } },
{ "type": "Feature", "properties": { "area_id": "lower_east_side", "area_name": "Lower East Side", "borough": "Manhattan", "longitude": -73.9897, "latitude": 40.7184, "baseline_month": "2016-07", "latest_month": "2026-06", "baseline_rent_usd": 3391, "latest_rent_usd": 5100, "rent_change_usd": 1709, "growth_pct": 50.4, "min_rent_usd": 2665, "max_rent_usd": 5300, "observation_months": 120, "source": "StreetEasy Data Dashboard master report, medianAskingRent_All.csv", "source_url": "https://cdn-charts.streeteasy.com/Master%20Report.zip" }, "geometry": { "type": "Point", "coordinates": [ -73.9897, 40.7184 ] } },
{ "type": "Feature", "properties": { "area_id": "marble_hill", "area_name": "Marble Hill", "borough": "Manhattan", "longitude": -73.9106, "latitude": 40.8763, "baseline_month": "2016-07", "latest_month": "2026-06", "baseline_rent_usd": 1660, "latest_rent_usd": 3275, "rent_change_usd": 1615, "growth_pct": 97.3, "min_rent_usd": 1620, "max_rent_usd": 3350, "observation_months": 120, "source": "StreetEasy Data Dashboard master report, medianAskingRent_All.csv", "source_url": "https://cdn-charts.streeteasy.com/Master%20Report.zip" }, "geometry": { "type": "Point", "coordinates": [ -73.9106, 40.8763 ] } },
{ "type": "Feature", "properties": { "area_id": "midtown", "area_name": "Midtown", "borough": "Manhattan", "longitude": -73.9845, "latitude": 40.7549, "baseline_month": "2016-07", "latest_month": "2026-06", "baseline_rent_usd": 4200, "latest_rent_usd": 5765, "rent_change_usd": 1565, "growth_pct": 37.3, "min_rent_usd": 3400, "max_rent_usd": 6000, "observation_months": 120, "source": "StreetEasy Data Dashboard master report, medianAskingRent_All.csv", "source_url": "https://cdn-charts.streeteasy.com/Master%20Report.zip" }, "geometry": { "type": "Point", "coordinates": [ -73.9845, 40.7549 ] } },
{ "type": "Feature", "properties": { "area_id": "midtown_east", "area_name": "Midtown East", "borough": "Manhattan", "longitude": -73.9712, "latitude": 40.754, "baseline_month": "2016-07", "latest_month": "2026-06", "baseline_rent_usd": 3400, "latest_rent_usd": 5095, "rent_change_usd": 1695, "growth_pct": 49.9, "min_rent_usd": 2700, "max_rent_usd": 5095, "observation_months": 120, "source": "StreetEasy Data Dashboard master report, medianAskingRent_All.csv", "source_url": "https://cdn-charts.streeteasy.com/Master%20Report.zip" }, "geometry": { "type": "Point", "coordinates": [ -73.9712, 40.754 ] } },
{ "type": "Feature", "properties": { "area_id": "midtown_south", "area_name": "Midtown South", "borough": "Manhattan", "longitude": -73.985, "latitude": 40.749, "baseline_month": "2016-07", "latest_month": "2026-06", "baseline_rent_usd": 3930, "latest_rent_usd": 5450, "rent_change_usd": 1520, "growth_pct": 38.7, "min_rent_usd": 3100, "max_rent_usd": 5450, "observation_months": 120, "source": "StreetEasy Data Dashboard master report, medianAskingRent_All.csv", "source_url": "https://cdn-charts.streeteasy.com/Master%20Report.zip" }, "geometry": { "type": "Point", "coordinates": [ -73.985, 40.749 ] } },
{ "type": "Feature", "properties": { "area_id": "midtown_west", "area_name": "Midtown West", "borough": "Manhattan", "longitude": -73.9922, "latitude": 40.761, "baseline_month": "2016-07", "latest_month": "2026-06", "baseline_rent_usd": 3433, "latest_rent_usd": 4930, "rent_change_usd": 1497, "growth_pct": 43.6, "min_rent_usd": 2800, "max_rent_usd": 4930, "observation_months": 120, "source": "StreetEasy Data Dashboard master report, medianAskingRent_All.csv", "source_url": "https://cdn-charts.streeteasy.com/Master%20Report.zip" }, "geometry": { "type": "Point", "coordinates": [ -73.9922, 40.761 ] } },
{ "type": "Feature", "properties": { "area_id": "morningside_heights", "area_name": "Morningside Heights", "borough": "Manhattan", "longitude": -73.9626, "latitude": 40.8075, "baseline_month": "2016-07", "latest_month": "2026-06", "baseline_rent_usd": 3400, "latest_rent_usd": 4800, "rent_change_usd": 1400, "growth_pct": 41.2, "min_rent_usd": 2795, "max_rent_usd": 4985, "observation_months": 120, "source": "StreetEasy Data Dashboard master report, medianAskingRent_All.csv", "source_url": "https://cdn-charts.streeteasy.com/Master%20Report.zip" }, "geometry": { "type": "Point", "coordinates": [ -73.9626, 40.8075 ] } },
{ "type": "Feature", "properties": { "area_id": "nolita", "area_name": "Nolita", "borough": "Manhattan", "longitude": -73.9952, "latitude": 40.7223, "baseline_month": "2016-07", "latest_month": "2026-06", "baseline_rent_usd": 3695, "latest_rent_usd": 5495, "rent_change_usd": 1800, "growth_pct": 48.7, "min_rent_usd": 2625, "max_rent_usd": 5630, "observation_months": 120, "source": "StreetEasy Data Dashboard master report, medianAskingRent_All.csv", "source_url": "https://cdn-charts.streeteasy.com/Master%20Report.zip" }, "geometry": { "type": "Point", "coordinates": [ -73.9952, 40.7223 ] } },
{ "type": "Feature", "properties": { "area_id": "roosevelt_island", "area_name": "Roosevelt Island", "borough": "Manhattan", "longitude": -73.9496, "latitude": 40.7617, "baseline_month": "2016-07", "latest_month": "2026-06", "baseline_rent_usd": 3390, "latest_rent_usd": 4550, "rent_change_usd": 1160, "growth_pct": 34.2, "min_rent_usd": 2875, "max_rent_usd": 4750, "observation_months": 120, "source": "StreetEasy Data Dashboard master report, medianAskingRent_All.csv", "source_url": "https://cdn-charts.streeteasy.com/Master%20Report.zip" }, "geometry": { "type": "Point", "coordinates": [ -73.9496, 40.7617 ] } },
{ "type": "Feature", "properties": { "area_id": "soho", "area_name": "Soho", "borough": "Manhattan", "longitude": -74.0016, "latitude": 40.724, "baseline_month": "2016-07", "latest_month": "2026-06", "baseline_rent_usd": 5000, "latest_rent_usd": 6250, "rent_change_usd": 1250, "growth_pct": 25.0, "min_rent_usd": 3695, "max_rent_usd": 10950, "observation_months": 120, "source": "StreetEasy Data Dashboard master report, medianAskingRent_All.csv", "source_url": "https://cdn-charts.streeteasy.com/Master%20Report.zip" }, "geometry": { "type": "Point", "coordinates": [ -74.0016, 40.724 ] } },
{ "type": "Feature", "properties": { "area_id": "stuyvesant_town_pcv", "area_name": "Stuyvesant Town/PCV", "borough": "Manhattan", "longitude": -73.9766, "latitude": 40.7317, "baseline_month": "2016-07", "latest_month": "2026-06", "baseline_rent_usd": 4480, "latest_rent_usd": 6799, "rent_change_usd": 2319, "growth_pct": 51.8, "min_rent_usd": 3452, "max_rent_usd": 6799, "observation_months": 120, "source": "StreetEasy Data Dashboard master report, medianAskingRent_All.csv", "source_url": "https://cdn-charts.streeteasy.com/Master%20Report.zip" }, "geometry": { "type": "Point", "coordinates": [ -73.9766, 40.7317 ] } },
{ "type": "Feature", "properties": { "area_id": "tribeca", "area_name": "Tribeca", "borough": "Manhattan", "longitude": -74.0086, "latitude": 40.7163, "baseline_month": "2016-07", "latest_month": "2026-06", "baseline_rent_usd": 8700, "latest_rent_usd": 8750, "rent_change_usd": 50, "growth_pct": 0.6, "min_rent_usd": 5200, "max_rent_usd": 11999, "observation_months": 120, "source": "StreetEasy Data Dashboard master report, medianAskingRent_All.csv", "source_url": "https://cdn-charts.streeteasy.com/Master%20Report.zip" }, "geometry": { "type": "Point", "coordinates": [ -74.0086, 40.7163 ] } },
{ "type": "Feature", "properties": { "area_id": "upper_east_side", "area_name": "Upper East Side", "borough": "Manhattan", "longitude": -73.956, "latitude": 40.7736, "baseline_month": "2016-07", "latest_month": "2026-06", "baseline_rent_usd": 2995, "latest_rent_usd": 4425, "rent_change_usd": 1430, "growth_pct": 47.7, "min_rent_usd": 2395, "max_rent_usd": 4425, "observation_months": 120, "source": "StreetEasy Data Dashboard master report, medianAskingRent_All.csv", "source_url": "https://cdn-charts.streeteasy.com/Master%20Report.zip" }, "geometry": { "type": "Point", "coordinates": [ -73.956, 40.7736 ] } },
{ "type": "Feature", "properties": { "area_id": "upper_west_side", "area_name": "Upper West Side", "borough": "Manhattan", "longitude": -73.9762, "latitude": 40.787, "baseline_month": "2016-07", "latest_month": "2026-06", "baseline_rent_usd": 3500, "latest_rent_usd": 4800, "rent_change_usd": 1300, "growth_pct": 37.1, "min_rent_usd": 2795, "max_rent_usd": 4918, "observation_months": 120, "source": "StreetEasy Data Dashboard master report, medianAskingRent_All.csv", "source_url": "https://cdn-charts.streeteasy.com/Master%20Report.zip" }, "geometry": { "type": "Point", "coordinates": [ -73.9762, 40.787 ] } },
{ "type": "Feature", "properties": { "area_id": "washington_heights", "area_name": "Washington Heights", "borough": "Manhattan", "longitude": -73.9389, "latitude": 40.842, "baseline_month": "2016-07", "latest_month": "2026-06", "baseline_rent_usd": 2195, "latest_rent_usd": 3000, "rent_change_usd": 805, "growth_pct": 36.7, "min_rent_usd": 2000, "max_rent_usd": 3000, "observation_months": 120, "source": "StreetEasy Data Dashboard master report, medianAskingRent_All.csv", "source_url": "https://cdn-charts.streeteasy.com/Master%20Report.zip" }, "geometry": { "type": "Point", "coordinates": [ -73.9389, 40.842 ] } },
{ "type": "Feature", "properties": { "area_id": "west_harlem", "area_name": "West Harlem", "borough": "Manhattan", "longitude": -73.952, "latitude": 40.8216, "baseline_month": "2016-07", "latest_month": "2026-06", "baseline_rent_usd": 2800, "latest_rent_usd": 3800, "rent_change_usd": 1000, "growth_pct": 35.7, "min_rent_usd": 2287, "max_rent_usd": 4000, "observation_months": 120, "source": "StreetEasy Data Dashboard master report, medianAskingRent_All.csv", "source_url": "https://cdn-charts.streeteasy.com/Master%20Report.zip" }, "geometry": { "type": "Point", "coordinates": [ -73.952, 40.8216 ] } },
{ "type": "Feature", "properties": { "area_id": "west_village", "area_name": "West Village", "borough": "Manhattan", "longitude": -74.0059, "latitude": 40.7358, "baseline_month": "2016-07", "latest_month": "2026-06", "baseline_rent_usd": 3995, "latest_rent_usd": 6300, "rent_change_usd": 2305, "growth_pct": 57.7, "min_rent_usd": 3000, "max_rent_usd": 6300, "observation_months": 120, "source": "StreetEasy Data Dashboard master report, medianAskingRent_All.csv", "source_url": "https://cdn-charts.streeteasy.com/Master%20Report.zip" }, "geometry": { "type": "Point", "coordinates": [ -74.0059, 40.7358 ] } }
]
}
