{"type":"FeatureCollection","features":[{"type":"Feature","properties":{"name":"Hailun City","nameZh":"海伦市","osmRelationId":2755368,"source":"OpenStreetMap contributors","snapshot":"2026-07-02T16:51:45Z","dataStatus":"documented-current-map"},"geometry":{"type":"MultiPolygon","coordinates":[[[[127.6069793,47.6648789],[127.6156233,47.6685449],[127.6298293,47.6793859],[127.6335068,47.6819309],[127.6381838,47.6853979],[127.6438828,47.6888769],[127.6535873,47.6942174],[127.6656568,47.7004889],[127.6666338,47.7032394],[127.6634828,47.7086944],[127.6593018,47.7143669],[127.6540833,47.7218589],[127.6566698,47.7275924],[127.6640703,47.7306249],[127.6722108,47.7306974],[127.6797028,47.7291639],[127.6868668,47.7260284],[127.6906813,47.7217184],[127.6961668,47.7185669],[127.7090918,47.7161634],[127.7199178,47.7173959],[127.7269668,47.7208824],[127.7292863,47.7240944],[127.7342603,47.7303049],[127.7375488,47.7360419],[127.7411193,47.7447509],[127.7434083,47.7497939],[127.7469863,47.7578199],[127.7462233,47.7630654],[127.7427828,47.7657774],[127.7369768,47.7677879],[127.7314988,47.7707099],[127.7199178,47.7729034],[127.7028198,47.7805254],[127.6974788,47.7754554],[127.6954878,47.7731514],[127.6893998,47.7719614],[127.6825638,47.7746429],[127.6767423,47.7775609],[127.6708528,47.7839049],[127.6677098,47.7884484],[127.6632003,47.7936634],[127.6596678,47.8007089],[127.6544723,47.8061484],[127.6512528,47.8145674],[127.6487273,47.8218534],[127.6476133,47.8270989],[127.6478728,47.8312149],[127.6511533,47.8369529],[127.6568833,47.8397404],[127.6605683,47.8420564],[127.6601183,47.8475384],[127.6600038,47.8539314],[127.6568833,47.8573299],[127.6486893,47.8588564],[127.6408998,47.8574174],[127.6333768,47.8594049],[127.6251373,47.8636704],[127.6203538,47.8649979],[127.6128233,47.8676679],[127.6009218,47.8680189],[127.5941468,47.8665849],[127.5850068,47.8648984],[127.5745313,47.8620604],[127.5637208,47.8589859],[127.5546263,47.8547899],[127.5475923,47.8503839],[127.5419008,47.8464394],[127.5365678,47.8415909],[127.5325698,47.8378984],[127.5295713,47.8353574],[127.5296708,47.8307609],[127.5198823,47.8257444],[127.5087968,47.8240854],[127.4879228,47.8162879],[127.4781418,47.8086434],[127.4638138,47.8046834],[127.4585188,47.7963524],[127.4496763,47.7947234],[127.4446028,47.8001059],[127.4097823,47.7903824],[127.3956068,47.7819139],[127.3689218,47.7820872],[127.3611298,47.7821389],[127.3532488,47.7850189],[127.3377688,47.7825244],[127.3255233,47.7830849],[127.3120498,47.7866209],[127.3085633,47.7910689],[127.3018873,47.7909624],[127.2953798,47.7863579],[127.2765123,47.7853049],[127.2470168,47.7705689],[127.2325513,47.7710799],[127.2289198,47.7792739],[127.2055588,47.7796324],[127.1967773,47.7764809],[127.1745223,47.7768594],[127.1755218,47.7798769],[127.1709673,47.7827989],[127.1664733,47.7842254],[127.1509933,47.7817079],[127.1397708,47.7845154],[127.1374395,47.7825083],[127.1289978,47.7753219],[127.1179198,47.7743799],[127.1078263,47.7764549],[127.1001428,47.7740669],[127.0937723,47.7664529],[127.0836793,47.7685279],[127.0772628,47.7624054],[127.0709231,47.7611758],[127.0640108,47.7599179],[127.0563278,47.7575299],[127.0407178,47.7587469],[127.0288923,47.7487789],[127.0155563,47.7485349],[127.0011903,47.7467649],[126.9882428,47.7375219],[126.9884183,47.7330249],[126.9786073,47.7283399],[126.9777223,47.7230684],[126.9723588,47.7184634],[126.9588468,47.7227174],[126.9490203,47.7187729],[126.9410543,47.7163798],[126.9303663,47.7131689],[126.9038008,47.7111589],[126.8961504,47.714573],[126.8924788,47.7161904],[126.8820723,47.7257459],[126.8747447,47.7256015],[126.8654328,47.7254179],[126.8597108,47.7290574],[126.8374483,47.7301179],[126.8326108,47.7390289],[126.8280718,47.7411879],[126.8265411,47.7411928],[126.7958373,47.7412909],[126.7904203,47.7381784],[126.7908628,47.7284279],[126.7843323,47.7252959],[126.7776713,47.7251584],[126.7660026,47.7326531],[126.7629908,47.7325153],[126.7624571,47.7322909],[126.7620905,47.7315923],[126.7616898,47.7312704],[126.760584,47.7311146],[126.7597411,47.7308933],[126.7583681,47.7306254],[126.757477,47.7307068],[126.7564065,47.7317191],[126.7561195,47.7322431],[126.7555885,47.7326327],[126.7546912,47.7326455],[126.7541592,47.7323069],[126.7539446,47.7315782],[126.7536902,47.7313215],[126.7529957,47.7311913],[126.7522044,47.731487],[126.7514279,47.7322292],[126.7509974,47.7322955],[126.7503953,47.7320705],[126.7498551,47.7315084],[126.7488478,47.7308377],[126.7485885,47.729561],[126.7479949,47.7292999],[126.7466668,47.7293557],[126.7463306,47.7292546],[126.7461643,47.7288729],[126.7458699,47.7284768],[126.7453195,47.7282799],[126.7444487,47.7286131],[126.7435948,47.7283387],[126.7431158,47.7273926],[126.7428631,47.7272065],[126.7415596,47.727157],[126.7411944,47.7270771],[126.740702,47.7263268],[126.740398,47.7259981],[126.7397787,47.7257675],[126.7391733,47.7257901],[126.7378347,47.7263835],[126.7363881,47.7266577],[126.7356652,47.726711],[126.7338365,47.7261857],[126.7326851,47.7261235],[126.7321077,47.7259128],[126.7318802,47.725723],[126.7318902,47.7251437],[126.7318458,47.7248601],[126.7315002,47.7245601],[126.731086,47.724402],[126.7302426,47.724367],[126.7298669,47.7242763],[126.729445,47.7240312],[126.7292246,47.7234919],[126.7290238,47.7230653],[126.7282826,47.7223815],[126.7269982,47.7218769],[126.7268123,47.7216446],[126.7269677,47.7213832],[126.727367,47.7212996],[126.7280281,47.7214365],[126.7285761,47.7214057],[126.7288773,47.7211626],[126.7288773,47.720681],[126.7284858,47.7204021],[126.7276292,47.7202527],[126.7270866,47.7201266],[126.7264177,47.7196153],[126.7260111,47.7193633],[126.7253632,47.7191817],[126.7240137,47.7191538],[126.7231421,47.7190296],[126.7225947,47.7189707],[126.7222412,47.7191019],[126.7219535,47.7196251],[126.7215244,47.7201622],[126.7210701,47.7203378],[126.72034,47.7204772],[126.719669,47.7203547],[126.7192145,47.7199578],[126.7188538,47.7186751],[126.7185711,47.7184012],[126.717779,47.7181749],[126.7166952,47.7181679],[126.7150298,47.7182578],[126.7143037,47.7181842],[126.7138106,47.7179825],[126.7134001,47.7175221],[126.7133695,47.716651],[126.7132297,47.7161665],[126.7128395,47.7158499],[126.711822,47.7158358],[126.7114324,47.7156797],[126.7110461,47.7150779],[126.710228,47.7144438],[126.7091557,47.713159],[126.7089336,47.7123913],[126.7089869,47.7118748],[126.7084276,47.7114459],[126.707036,47.7112658],[126.7059214,47.7114971],[126.7050279,47.7115305],[126.7043038,47.7112671],[126.7038664,47.7108485],[126.7038451,47.7102087],[126.7047306,47.7082293],[126.7055265,47.7077406],[126.7060951,47.7075757],[126.7078514,47.7075549],[126.7085634,47.707417],[126.7090648,47.7070871],[126.709173,47.7064244],[126.70868,47.7052079],[126.7088358,47.7047753],[126.7091125,47.7045057],[126.7098923,47.7042535],[126.7105224,47.7039445],[126.7108838,47.7034949],[126.7108191,47.7029075],[126.7105524,47.702448],[126.7092699,47.7013087],[126.7092046,47.7010575],[126.7093481,47.7006776],[126.7103844,47.7000491],[126.710625,47.6996369],[126.7106031,47.6991347],[126.7096386,47.6982832],[126.7091966,47.6971279],[126.7088291,47.6967277],[126.7081135,47.6964186],[126.7071656,47.6961967],[126.7064975,47.6959081],[126.7058791,47.6953393],[126.7051814,47.6950431],[126.7046036,47.6949697],[126.7038569,47.6950584],[126.7034519,47.6953764],[126.7032807,47.6958805],[126.7032293,47.6964197],[126.7031038,47.6967122],[126.7028049,47.6969259],[126.70233,47.6970154],[126.7016533,47.696956],[126.7012145,47.6967891],[126.7008187,47.6963296],[126.7003244,47.6953108],[126.700073,47.6950017],[126.6995172,47.6947623],[126.6981604,47.6947764],[126.697643,47.6947107],[126.69733,47.6945511],[126.6954682,47.6927578],[126.6940985,47.6918634],[126.6940008,47.6916244],[126.694155,47.6914398],[126.6947727,47.691249],[126.6951752,47.6909706],[126.6952832,47.6903817],[126.6951554,47.6897655],[126.694784,47.689361],[126.6943032,47.689176],[126.6936864,47.6892666],[126.6927914,47.689701],[126.6922571,47.6898808],[126.6917844,47.6898999],[126.6915,47.6897955],[126.6913492,47.6893704],[126.6914919,47.6890117],[126.6918529,47.6887749],[126.692886,47.6887476],[126.6933967,47.6886057],[126.6937339,47.6882954],[126.6938591,47.6875087],[126.6941777,47.6868238],[126.6942759,47.6864347],[126.6939623,47.6859673],[126.6935117,47.6858429],[126.6927372,47.685857],[126.6924053,47.6858307],[126.6919494,47.6857011],[126.6914122,47.6855854],[126.6908142,47.6856366],[126.6897445,47.6859512],[126.689087,47.6861055],[126.6887438,47.6860751],[126.688588,47.6859755],[126.6886791,47.685199],[126.6885091,47.6849091],[126.6880298,47.6846389],[126.687297,47.6845755],[126.6869309,47.6844587],[126.6865973,47.6842406],[126.686384,47.6837278],[126.68602,47.6833241],[126.68525,47.6828934],[126.6844531,47.6829387],[126.6839015,47.6832877],[126.6835795,47.6838513],[126.6835795,47.6845525],[126.6833495,47.6849783],[126.6831425,47.6850452],[126.6827441,47.685039],[126.680917,47.6842643],[126.6799139,47.6831662],[126.6795759,47.6822285],[126.6789615,47.681146],[126.6789615,47.6806506],[126.6792291,47.6799227],[126.6792404,47.6795437],[126.6787484,47.6792279],[126.6780128,47.6791761],[126.6771985,47.6793223],[126.6762483,47.6800746],[126.6756747,47.6803941],[126.6745034,47.6805187],[126.6738908,47.6808132],[126.6735257,47.681354],[126.6732303,47.681585],[126.6726945,47.6817009],[126.6713112,47.6815906],[126.6702987,47.6816838],[126.6694093,47.6821434],[126.6689175,47.6822198],[126.6685416,47.6821234],[126.6683183,47.6818102],[126.6683377,47.6812863],[126.6689636,47.6806643],[126.6698954,47.6802279],[126.6702362,47.6800947],[126.6704446,47.6797751],[126.670329,47.6794402],[126.6697329,47.6790741],[126.669483,47.678757],[126.6695341,47.6779029],[126.6693076,47.6773871],[126.6686874,47.6769623],[126.66773,47.6768141],[126.6670045,47.6771397],[126.6665065,47.6776427],[126.6661725,47.6778432],[126.6659268,47.6777812],[126.6657704,47.6775296],[126.6664755,47.6764907],[126.666397,47.6760071],[126.6658359,47.6756973],[126.664778,47.6755925],[126.6642338,47.6753766],[126.6640108,47.6751364],[126.6641365,47.6749277],[126.6651764,47.6745776],[126.665569,47.6742277],[126.6652914,47.6737837],[126.6645268,47.6734755],[126.6639766,47.6729093],[126.66316,47.6726894],[126.6624179,47.6727261],[126.6618384,47.6729718],[126.6611221,47.6733726],[126.6607565,47.6734019],[126.6604815,47.6732167],[126.6602255,47.6726863],[126.6602624,47.6724065],[126.6612056,47.6717504],[126.6611491,47.6712099],[126.6604941,47.6707761],[126.6595001,47.6705334],[126.6588232,47.6708054],[126.6580963,47.6711494],[126.6577826,47.671066],[126.6574384,47.6704971],[126.6566336,47.6704042],[126.6563272,47.6705549],[126.655917,47.6708918],[126.6556715,47.6709272],[126.6545726,47.6708504],[126.6529934,47.671251],[126.6525781,47.6711719],[126.6523103,47.6708954],[126.6524656,47.6706062],[126.6531292,47.6700686],[126.6532646,47.669628],[126.6527021,47.6690635],[126.6517657,47.6688603],[126.6505415,47.6680495],[126.6501404,47.6675977],[126.6495111,47.6675325],[126.6490921,47.6679401],[126.6491728,47.6686465],[126.6487174,47.6688352],[126.6480714,47.6686817],[126.6474754,47.6683377],[126.6467103,47.6684343],[126.6466612,47.6688641],[126.6476019,47.6695803],[126.6473754,47.6701396],[126.6467721,47.6704189],[126.6453123,47.6702329],[126.6439809,47.6692276],[126.6429898,47.6678094],[126.6416875,47.6670455],[126.6383554,47.6661867],[126.637406,47.6654941],[126.6374843,47.6648086],[126.6379859,47.6640768],[126.63761,47.6632329],[126.6376927,47.6621188],[126.6363124,47.6601187],[126.6355192,47.6598218],[126.6338945,47.6600234],[126.632668,47.6609321],[126.6318394,47.6608814],[126.6313315,47.6604866],[126.6307547,47.6598484],[126.6299155,47.6591984],[126.6285281,47.6587037],[126.6281306,47.6580611],[126.6278721,47.6573648],[126.6267063,47.6571836],[126.6253826,47.6579637],[126.6240861,47.6578843],[126.6234568,47.6575452],[126.6220569,47.6577393],[126.6213612,47.6573534],[126.6199133,47.6574394],[126.6184774,47.6578089],[126.6177553,47.6577489],[126.6168703,47.6575547],[126.6163755,47.657156],[126.6162611,47.6567515],[126.6166805,47.6561012],[126.6181254,47.6556318],[126.6184057,47.6553407],[126.6182538,47.6548921],[126.6177434,47.6547481],[126.6160695,47.6550283],[126.6150995,47.6550019],[126.6147277,47.6547148],[126.6147715,47.6545026],[126.6156628,47.6534624],[126.6155641,47.6528347],[126.6149153,47.6523612],[126.6138863,47.6520354],[126.6132846,47.6515769],[126.6131602,47.6512095],[126.613487,47.6503151],[126.6135292,47.6494323],[126.6130978,47.6489181],[126.6120936,47.6487362],[126.6108944,47.6487432],[126.6097199,47.6484169],[126.6081496,47.6484381],[126.6064715,47.6486587],[126.6060418,47.6485909],[126.6056853,47.6481801],[126.6057898,47.6477831],[126.605978,47.6475929],[126.6075063,47.646789],[126.6074601,47.6462438],[126.6068521,47.6459707],[126.6049329,47.6457702],[126.6044521,47.6454787],[126.604091,47.6448705],[126.6035418,47.6433973],[126.6026521,47.6426823],[126.6017069,47.6426082],[126.6009733,47.6428517],[126.6005453,47.6432804],[126.6004636,47.6443607],[126.5998471,47.6447111],[126.5992641,47.644827],[126.5987073,47.6446872],[126.5982756,47.6442994],[126.5982565,47.6438287],[126.5987178,47.643322],[126.5993743,47.642523],[126.5991292,47.6419226],[126.5984541,47.6416467],[126.597784,47.6416097],[126.5957335,47.6422078],[126.5953009,47.642933],[126.5943665,47.6439348],[126.5939752,47.6439934],[126.5934202,47.6437355],[126.5928302,47.6432167],[126.5922986,47.642079],[126.5912199,47.641712],[126.5902796,47.6418372],[126.5897188,47.6422076],[126.5892099,47.6435232],[126.5889212,47.6439641],[126.5886878,47.6440007],[126.5879317,47.6437041],[126.5875682,47.6429958],[126.5878937,47.6415633],[126.5882891,47.6406028],[126.5880037,47.6396058],[126.5867937,47.6384281],[126.5858353,47.6368769],[126.58481,47.6366169],[126.5840689,47.6368299],[126.5831227,47.6372911],[126.5823636,47.6372005],[126.5813818,47.6367482],[126.5800446,47.6355263],[126.5799343,47.6349182],[126.5798196,47.6339627],[126.5793321,47.6333825],[126.5791342,47.6328359],[126.5793819,47.6322149],[126.5801988,47.6314374],[126.5806442,47.6309371],[126.5806853,47.6303275],[126.5813948,47.629593],[126.5814598,47.629111],[126.5811231,47.6281484],[126.5814394,47.6276288],[126.5822931,47.6267026],[126.5822931,47.6260897],[126.581936,47.6255859],[126.5810198,47.6254729],[126.5795896,47.6259513],[126.578439,47.6267817],[126.5777296,47.6268072],[126.5771626,47.6265588],[126.5769501,47.626051],[126.5770898,47.6254724],[126.5777143,47.6243361],[126.5774029,47.6235246],[126.5778392,47.6214934],[126.5782229,47.6212286],[126.5788991,47.6212742],[126.5799867,47.6214049],[126.580475,47.6209916],[126.5805757,47.6206371],[126.5804002,47.6202474],[126.5805749,47.6195131],[126.580409,47.6190656],[126.5796962,47.6186887],[126.5788132,47.618632],[126.5780805,47.6184985],[126.5774742,47.6180898],[126.5771606,47.617783],[126.5765858,47.6171576],[126.5765268,47.6166475],[126.5766924,47.6162471],[126.5778911,47.6153477],[126.5778,47.6149868],[126.5776458,47.6147419],[126.5771688,47.6143998],[126.577033,47.6138895],[126.5773078,47.6133073],[126.5782978,47.6127012],[126.5789479,47.6123506],[126.5789235,47.6119807],[126.5778062,47.6114249],[126.5768351,47.6114323],[126.5761546,47.6117356],[126.5757919,47.6122709],[126.5755381,47.6122357],[126.5753068,47.6120558],[126.5752087,47.6115202],[126.5754395,47.6107219],[126.5761993,47.6099711],[126.5761203,47.6094839],[126.5755504,47.6091223],[126.5746385,47.6090608],[126.5741149,47.6084463],[126.5740853,47.6080614],[126.5741729,47.6073308],[126.5736615,47.6072274],[126.5732239,47.6073709],[126.5728172,47.6079122],[126.5723871,47.6086945],[126.5718276,47.6088202],[126.5711076,47.6087546],[126.5706273,47.6085133],[126.570502,47.6080715],[126.5707597,47.6061465],[126.5702664,47.6048231],[126.5705302,47.6038791],[126.5708807,47.6029269],[126.5710561,47.6021618],[126.5714304,47.6009279],[126.5711215,47.6001092],[126.5704916,47.5996413],[126.5689849,47.5989916],[126.5686685,47.5986425],[126.5686781,47.5982164],[126.5691115,47.5977153],[126.5690896,47.5971021],[126.5682773,47.5964433],[126.5682867,47.5960364],[126.5691794,47.5950468],[126.5692997,47.5945161],[126.5690136,47.5941526],[126.568452,47.5937256],[126.5678596,47.592541],[126.5666846,47.5921228],[126.5658448,47.592304],[126.565378,47.5928737],[126.5656472,47.5934765],[126.5660674,47.5941579],[126.5658248,47.5945354],[126.5652162,47.594796],[126.5644685,47.5948412],[126.5638994,47.5945342],[126.56347,47.5935138],[126.5625658,47.5927025],[126.5620822,47.5923126],[126.561206,47.5919667],[126.5605039,47.5919742],[126.5600584,47.5922272],[126.5600701,47.5926145],[126.5610613,47.5934431],[126.5611546,47.5937639],[126.5609596,47.5940568],[126.5604097,47.5941071],[126.5596211,47.5940739],[126.5588395,47.5937002],[126.557636,47.5926977],[126.5572458,47.5917462],[126.5575221,47.5908281],[126.557251,47.5897098],[126.5557666,47.5872],[126.5544402,47.5855295],[126.553625,47.5851316],[126.5526708,47.5850593],[126.5510992,47.5853711],[126.5504933,47.5853264],[126.550228,47.5851155],[126.5503355,47.5848999],[126.5519048,47.5841077],[126.5525291,47.5834543],[126.5525848,47.5828603],[126.5519684,47.5821864],[126.5510611,47.5812405],[126.5507847,47.5809997],[126.5499431,47.580877],[126.5493272,47.5810658],[126.549027,47.5812356],[126.5484974,47.5812538],[126.5479685,47.581041],[126.5471983,47.5801933],[126.5462114,47.5794178],[126.5458591,47.578685],[126.5461547,47.5777774],[126.5459835,47.5769835],[126.5454455,47.5764131],[126.544697,47.5762142],[126.5438488,47.576343],[126.5433893,47.576362],[126.5428085,47.57615],[126.5419103,47.5755372],[126.5415079,47.5753398],[126.5409015,47.5755187],[126.5406948,47.5759737],[126.5405834,47.5760939],[126.5402005,47.5760994],[126.5398901,47.5759714],[126.5392954,47.5751691],[126.5394006,47.5746401],[126.5398105,47.5741266],[126.5408705,47.5735364],[126.5412013,47.5730742],[126.5407893,47.5727036],[126.5396979,47.5725881],[126.5392899,47.5725241],[126.5388158,47.5722419],[126.5385949,47.5716912],[126.5387461,47.5707863],[126.5388375,47.5703778],[126.5384091,47.5701143],[126.5373273,47.5700788],[126.5366123,47.5698938],[126.5359419,47.5695384],[126.535812,47.569119],[126.5359655,47.5685947],[126.5375973,47.5673148],[126.5378535,47.5669841],[126.5378535,47.5666381],[126.5371141,47.5660056],[126.5370052,47.5657241],[126.5372862,47.5650265],[126.5375449,47.5638745],[126.5375879,47.5633448],[126.5367778,47.5621477],[126.5368329,47.5617879],[126.5370975,47.5615261],[126.5374757,47.5614681],[126.5385285,47.561644],[126.5392412,47.561746],[126.5397301,47.5616306],[126.5400692,47.5611649],[126.5395164,47.5597302],[126.5389226,47.5592923],[126.5378904,47.5590256],[126.5364376,47.5593548],[126.5359488,47.5594979],[126.5356268,47.5593514],[126.5360135,47.5579527],[126.5360799,47.5576094],[126.5355367,47.5567705],[126.535004,47.5552771],[126.5345636,47.5543643],[126.5336638,47.5536604],[126.5334702,47.553066],[126.5336528,47.5524362],[126.5336117,47.5511051],[126.5337541,47.5506109],[126.5338455,47.5500008],[126.5345776,47.5486994],[126.534545,47.5478929],[126.5340514,47.5474904],[126.5340456,47.5473923],[126.5343475,47.54727],[126.5348169,47.5470512],[126.5349934,47.5466463],[126.5347377,47.546107],[126.5346962,47.5459671],[126.534833,47.5457987],[126.5353391,47.5456111],[126.5356396,47.5454239],[126.5359204,47.5448552],[126.5364021,47.544426],[126.5372668,47.5441898],[126.5376673,47.5438081],[126.5374929,47.5432902],[126.5369161,47.5429414],[126.5359861,47.543191],[126.5352681,47.5434761],[126.5348817,47.5437216],[126.5347544,47.5441298],[126.5346228,47.5442908],[126.534446,47.5443249],[126.5340248,47.5440754],[126.5339763,47.5438572],[126.5342153,47.5436028],[126.5344723,47.5433932],[126.5349262,47.5423955],[126.5349262,47.5420748],[126.534669,47.541688],[126.5339072,47.541501],[126.5333746,47.5416017],[126.5331502,47.5415961],[126.5322009,47.5411645],[126.532056,47.5409401],[126.532114,47.5407688],[126.532522,47.5406831],[126.53296,47.5405197],[126.5331736,47.5401673],[126.5330954,47.5398332],[126.5324157,47.5396777],[126.5320462,47.5394347],[126.5318271,47.5391821],[126.5318735,47.5388252],[126.5321012,47.5384601],[126.5330863,47.5379141],[126.5331807,47.5376226],[126.5328545,47.5373932],[126.532265,47.5373932],[126.532037,47.5373217],[126.5315649,47.5367429],[126.5314673,47.5359515],[126.5316275,47.5357459],[126.5323714,47.5356799],[126.533019,47.535416],[126.5332217,47.5351343],[126.53321,47.5347074],[126.5325824,47.5342906],[126.5325757,47.5341784],[126.5326549,47.5341085],[126.5335795,47.5339889],[126.5338619,47.5336472],[126.5340242,47.5331287],[126.533884,47.5324881],[126.5336041,47.5321731],[126.5326671,47.5319271],[126.5322926,47.5316553],[126.5321962,47.53146],[126.532256,47.5310969],[126.5322336,47.5307495],[126.5314861,47.5299784],[126.5313358,47.5296167],[126.5314943,47.5292263],[126.532095,47.5287618],[126.5337916,47.5282748],[126.534315,47.5280718],[126.5345556,47.5276981],[126.5343704,47.5273647],[126.5336445,47.5270522],[126.5327468,47.5263014],[126.5323314,47.5260504],[126.5316793,47.5258966],[126.5313384,47.525724],[126.5309578,47.525377],[126.5308908,47.524899],[126.5311087,47.5242403],[126.5309715,47.5238866],[126.5305631,47.523801],[126.5302715,47.523903],[126.5298264,47.5238843],[126.5294303,47.5237991],[126.529239,47.5235947],[126.5294286,47.5232571],[126.5310045,47.5226432],[126.5315987,47.5222865],[126.5316642,47.5220565],[126.5313982,47.5215878],[126.5308892,47.5214309],[126.5305205,47.5212691],[126.5304242,47.5210795],[126.5305957,47.5207565],[126.5313511,47.5202662],[126.5323376,47.5199709],[126.5327121,47.5198023],[126.5329218,47.5195108],[126.5327427,47.5191238],[126.532206,47.5188308],[126.5312242,47.5187361],[126.5302989,47.5187986],[126.5297893,47.5187548],[126.5295885,47.5186139],[126.5296785,47.5177217],[126.5294954,47.5172053],[126.5286155,47.5162032],[126.5285396,47.515806],[126.5287209,47.5153677],[126.5293499,47.5148791],[126.5293371,47.5145147],[126.5284594,47.5141119],[126.5275088,47.5140529],[126.5266269,47.5142631],[126.5259509,47.5142908],[126.5254295,47.5144028],[126.5252396,47.5147418],[126.525654,47.5150585],[126.5257158,47.515351],[126.5255361,47.5156169],[126.5250689,47.5157259],[126.5248163,47.5156356],[126.524648,47.5150547],[126.525156,47.5138882],[126.525402,47.5125937],[126.5258311,47.5118118],[126.5265479,47.5112654],[126.527028,47.510517],[126.5273407,47.5094326],[126.5273512,47.5086679],[126.5271697,47.5080189],[126.5267689,47.5076244],[126.5261059,47.5075284],[126.5257069,47.5076632],[126.5254323,47.5078164],[126.5246883,47.5094707],[126.5244559,47.509682],[126.5239516,47.5097975],[126.5235242,47.5097151],[126.5231706,47.5093844],[126.5231706,47.508557],[126.523013,47.5079538],[126.5223778,47.5067287],[126.5222224,47.505637],[126.5217706,47.5051518],[126.521114,47.5051604],[126.5205403,47.5056254],[126.5199975,47.5057062],[126.5197046,47.5056713],[126.5193585,47.5054667],[126.5193509,47.5052714],[126.5206997,47.5042854],[126.5212222,47.5037811],[126.5214562,47.5029692],[126.5213807,47.5023428],[126.5209069,47.5017994],[126.5201489,47.5015472],[126.5194575,47.5016501],[126.5189708,47.5021013],[126.518875,47.502626],[126.5188009,47.5028889],[126.5181753,47.5032852],[126.5177938,47.5034926],[126.5174223,47.5034772],[126.5172907,47.5031549],[126.5175814,47.5025928],[126.5176371,47.5021032],[126.5172942,47.5017596],[126.5164795,47.5015588],[126.5155482,47.5015381],[126.5146067,47.5012655],[126.5136809,47.5013189],[126.5132976,47.5016665],[126.5131711,47.5017378],[126.5128726,47.5016847],[126.5124875,47.5014184],[126.5124784,47.501033],[126.51278,47.5006188],[126.5130852,47.4997251],[126.5133827,47.4994676],[126.513779,47.4993182],[126.5144979,47.4992916],[126.5151114,47.4992916],[126.5155043,47.499009],[126.515431,47.4986375],[126.5148223,47.4980938],[126.5147448,47.4978378],[126.51495,47.4976125],[126.5152729,47.4974913],[126.5165624,47.4973647],[126.5169358,47.4971292],[126.5169358,47.496682],[126.5164808,47.4961947],[126.5160616,47.4960262],[126.5152775,47.4958868],[126.5150394,47.4958036],[126.514973,47.495624],[126.5151215,47.4954735],[126.5164119,47.4952978],[126.5169065,47.4951423],[126.5171664,47.4947592],[126.5170791,47.4944222],[126.5164751,47.4941553],[126.5157668,47.4941245],[126.5150964,47.4944217],[126.5147568,47.4944629],[126.5144514,47.4943685],[126.5133335,47.4936063],[126.5124932,47.4933189],[126.5119571,47.4930506],[126.5114775,47.4926802],[126.5113019,47.492343],[126.5114822,47.4918492],[126.5117625,47.4916109],[126.5127302,47.4913861],[126.5131032,47.4912181],[126.5132586,47.4910518],[126.5132586,47.4908175],[126.5129715,47.4906522],[126.512905,47.4904107],[126.5131166,47.4901545],[126.5135805,47.4899414],[126.5148762,47.4898713],[126.515457,47.4894861],[126.5162587,47.489064],[126.5166384,47.4886641],[126.5166274,47.4880403],[126.5162238,47.4874181],[126.516147,47.4870219],[126.5162381,47.4867878],[126.517125,47.4859461],[126.5177655,47.4856876],[126.5184513,47.4856683],[126.519258,47.485863],[126.5195782,47.4861536],[126.5197734,47.4869798],[126.5201539,47.4873226],[126.5207122,47.487435],[126.5213736,47.4872754],[126.5216239,47.4868806],[126.5213064,47.4856505],[126.5210032,47.4852618],[126.5206547,47.4846429],[126.5206843,47.4839695],[126.5208985,47.4835228],[126.5212182,47.483431],[126.521558,47.4835038],[126.5218201,47.4837603],[126.5220523,47.484395],[126.5222835,47.4848488],[126.5227114,47.4850306],[126.5231411,47.485013],[126.5234735,47.4847384],[126.5235541,47.4843028],[126.5232327,47.4838534],[126.5225006,47.4833308],[126.5222818,47.4830721],[126.5223618,47.482712],[126.5226117,47.4825589],[126.5232891,47.4826701],[126.5240162,47.4826187],[126.5243618,47.4825175],[126.524979,47.4821058],[126.5253688,47.4813533],[126.5265488,47.4806117],[126.5272875,47.4800789],[126.5273899,47.4796091],[126.5265586,47.4795467],[126.525967,47.4798914],[126.52549,47.4798198],[126.5244727,47.4793803],[126.5238532,47.4786323],[126.5227961,47.4781894],[126.5223934,47.4779481],[126.5222366,47.4776426],[126.5222629,47.4773937],[126.5226295,47.4771097],[126.5233643,47.4770407],[126.5239904,47.4766483],[126.5240914,47.476125],[126.5238846,47.4754627],[126.5231481,47.4749278],[126.5219812,47.474716],[126.5208442,47.4747892],[126.5203958,47.4750166],[126.5195628,47.4756406],[126.5191603,47.4756739],[126.5187479,47.4753952],[126.5181047,47.4746887],[126.517991,47.4744132],[126.5180533,47.4736691],[126.5178135,47.4732964],[126.5170824,47.4731506],[126.5162098,47.4734865],[126.5152487,47.474143],[126.5149088,47.474171],[126.5146543,47.4740668],[126.5146036,47.4737755],[126.5147564,47.473575],[126.5152435,47.473167],[126.5153373,47.4727153],[126.5149687,47.4723748],[126.5140355,47.4722988],[126.5125811,47.4726192],[126.5122157,47.4729743],[126.5120669,47.4733843],[126.5126768,47.4743509],[126.512904,47.4749318],[126.5127529,47.4753787],[126.5123993,47.4756361],[126.5118928,47.4757046],[126.5106736,47.4755572],[126.5102545,47.4753601],[126.51011,47.4750549],[126.5101444,47.4748629],[126.5112123,47.4738398],[126.5111773,47.4733981],[126.5107846,47.4730281],[126.510205,47.4729948],[126.5095973,47.4732562],[126.509026,47.4735824],[126.5085615,47.4735883],[126.508104,47.4733718],[126.5078571,47.4730252],[126.507676,47.4722981],[126.5067019,47.471869],[126.5054104,47.4715804],[126.5044186,47.4717131],[126.5039599,47.4716253],[126.5038069,47.4713324],[126.5041643,47.4703385],[126.5040531,47.4697295],[126.5031562,47.469186],[126.5030958,47.4688767],[126.5033812,47.4685874],[126.5043737,47.4682908],[126.5046125,47.467871],[126.504428,47.4674658],[126.503362,47.4666309],[126.5022908,47.4661023],[126.5016396,47.4660866],[126.5011274,47.4663092],[126.5010549,47.4667422],[126.5014147,47.4671845],[126.501798,47.4676031],[126.5017729,47.4678632],[126.5013131,47.4681253],[126.499688,47.4682751],[126.4994894,47.4686599],[126.4998,47.4689706],[126.5001916,47.4690874],[126.5011639,47.4692483],[126.5013258,47.4694255],[126.5012117,47.4696734],[126.5007415,47.4698568],[126.5002003,47.4698757],[126.499764,47.4697502],[126.4987199,47.4690165],[126.4974349,47.4687246],[126.4971354,47.4684924],[126.4971354,47.4681861],[126.4972816,47.4673111],[126.4970624,47.4667852],[126.4965897,47.4663913],[126.4953962,47.4659283],[126.4946703,47.4654913],[126.4943432,47.4650555],[126.4943432,47.4647702],[126.4945357,47.4644479],[126.4955155,47.4640531],[126.4962993,47.4638103],[126.4964574,47.4634815],[126.496421,47.4632434],[126.4960819,47.4628823],[126.4960346,47.4624472],[126.4965655,47.4615253],[126.4963536,47.4610637],[126.4956318,47.4607849],[126.4948527,47.4608225],[126.4941764,47.461031],[126.4937369,47.4609261],[126.4935712,47.4607412],[126.4935904,47.4602082],[126.4938488,47.4597679],[126.4938386,47.4591386],[126.493983,47.4589542],[126.4943818,47.4589014],[126.4951116,47.4589648],[126.4958801,47.4587865],[126.496101,47.4584174],[126.4957601,47.4581072],[126.4950265,47.4580718],[126.4947354,47.4578865],[126.4946644,47.4576411],[126.4950288,47.4574533],[126.4955837,47.4572657],[126.4958935,47.4569435],[126.495818,47.4565607],[126.494939,47.456217],[126.4946407,47.4558766],[126.4946226,47.4555645],[126.494849,47.455289],[126.4952706,47.4551092],[126.4958031,47.45509],[126.4963301,47.4551505],[126.4969761,47.455271],[126.4973914,47.4550753],[126.4979939,47.4540778],[126.4984699,47.4537366],[126.4988998,47.4536624],[126.5004913,47.4537742],[126.5011306,47.4536275],[126.5015512,47.4532167],[126.5014485,47.4527614],[126.5004029,47.4513261],[126.4996053,47.4507148],[126.4987179,47.4503934],[126.4977565,47.4500886],[126.4974933,47.4498186],[126.4974576,47.4495048],[126.4979085,47.4490405],[126.4978978,47.4480991],[126.4976146,47.4474288],[126.4968448,47.4470272],[126.4960995,47.4468738],[126.4950269,47.4468272],[126.4948818,47.4466554],[126.4949891,47.4464767],[126.4956075,47.4458529],[126.4956756,47.4452929],[126.4950852,47.4447505],[126.4939112,47.444368],[126.4931992,47.4442731],[126.4911686,47.4443986],[126.4908232,47.4443556],[126.4905627,47.4442135],[126.4904946,47.4439427],[126.4907544,47.4435975],[126.4917956,47.4429872],[126.4924873,47.4428847],[126.4940473,47.4432061],[126.4948239,47.4430538],[126.4953622,47.4426674],[126.4956445,47.4423085],[126.4954565,47.4412098],[126.4955908,47.4399378],[126.4953335,47.4391473],[126.4947658,47.4386881],[126.4939607,47.4385292],[126.4932765,47.4386218],[126.4926227,47.4390861],[126.4919546,47.4398536],[126.4916684,47.4411877],[126.4912723,47.4414556],[126.49053,47.4416382],[126.4900184,47.4416011],[126.4892252,47.4411309],[126.4884964,47.4403573],[126.4878969,47.4395108],[126.4873459,47.4392826],[126.485311,47.4389454],[126.485142,47.4387814],[126.4852987,47.4385846],[126.4857073,47.4385125],[126.486877,47.4385125],[126.4874638,47.4382912],[126.4878588,47.437914],[126.4877423,47.4374727],[126.486887,47.4366433],[126.4868128,47.4363672],[126.4869895,47.4355729],[126.4868032,47.4352185],[126.4863144,47.4349524],[126.484919,47.4350764],[126.4847109,47.4349005],[126.484775,47.4347433],[126.4850358,47.4343244],[126.4847785,47.4337267],[126.4838621,47.4330928],[126.4836416,47.4325547],[126.4837675,47.432202],[126.4840244,47.4320879],[126.4847302,47.4321156],[126.4852074,47.4319381],[126.4854558,47.4315701],[126.4853246,47.4310674],[126.4851217,47.4305732],[126.4851313,47.4302362],[126.4854147,47.4297107],[126.4852168,47.4291157],[126.4841118,47.4279618],[126.4832821,47.4279156],[126.4824013,47.4280554],[126.4812251,47.4287198],[126.4797717,47.4287804],[126.479368,47.4287432],[126.4790991,47.4285726],[126.4790545,47.4282649],[126.4794254,47.427526],[126.4793685,47.4271334],[126.4790633,47.4268157],[126.4781802,47.4265908],[126.4778605,47.4263312],[126.4777863,47.4260362],[126.4779306,47.4251157],[126.4777919,47.4245887],[126.4774026,47.4238541],[126.4771973,47.4217146],[126.4769429,47.4206258],[126.4766114,47.4201048],[126.4748085,47.4187439],[126.4735578,47.4183485],[126.4728714,47.417831],[126.472642,47.4174236],[126.4726706,47.4169332],[126.4728821,47.4166887],[126.474064,47.4163303],[126.4747331,47.4157387],[126.4750015,47.4150122],[126.4744804,47.4129101],[126.4740443,47.4124985],[126.473347,47.4124345],[126.4723881,47.4128179],[126.4709952,47.4140932],[126.4704683,47.4142871],[126.4699819,47.4142452],[126.4693418,47.4138318],[126.467809,47.412396],[126.4676171,47.4120714],[126.4675879,47.4115849],[126.4677205,47.4112709],[126.4688502,47.4101965],[126.4693659,47.4095737],[126.4707491,47.4087419],[126.4709573,47.4083192],[126.4707243,47.4079171],[126.4702077,47.407647],[126.4690134,47.4077508],[126.4683023,47.4080692],[126.4678826,47.4085208],[126.4673475,47.4094569],[126.4668839,47.4096922],[126.4662934,47.4096184],[126.4658692,47.409427],[126.4653682,47.4089841],[126.4645146,47.4085685],[126.463799,47.4081981],[126.4628069,47.4080338],[126.4611931,47.4078374],[126.4608553,47.4075902],[126.4607587,47.4074323],[126.4609653,47.4070676],[126.4612064,47.4069424],[126.4623292,47.4070442],[126.4639159,47.4067526],[126.4647926,47.4064053],[126.4651825,47.4060327],[126.465063,47.4053191],[126.4646278,47.4045289],[126.4640036,47.4041287],[126.4629102,47.4038893],[126.4622543,47.4039194],[126.4617093,47.4041345],[126.4613959,47.4045209],[126.4612244,47.4053129],[126.4609728,47.4054775],[126.4607116,47.4055078],[126.4604055,47.4053006],[126.4601508,47.4048166],[126.4599717,47.404232],[126.4595441,47.4039045],[126.4583507,47.4035386],[126.4580853,47.4032871],[126.4580937,47.4030816],[126.4583335,47.4027383],[126.4587544,47.4025737],[126.4594162,47.4024003],[126.4605087,47.4013091],[126.4606304,47.4007323],[126.4602831,47.4002318],[126.459064,47.3996841],[126.4577298,47.3997278],[126.4570143,47.3999557],[126.4554073,47.4003935],[126.4551054,47.4003997],[126.4543335,47.4002829],[126.4530154,47.4002011],[126.4528017,47.400097],[126.4519233,47.3992646],[126.4505643,47.3988401],[126.449204,47.3983621],[126.4476984,47.3982496],[126.4462781,47.3980941],[126.4452548,47.398325],[126.4447768,47.3983189],[126.4443158,47.3980374],[126.4441213,47.3974382],[126.4440692,47.3966273],[126.4437318,47.3962335],[126.4429811,47.3961046],[126.4417397,47.3961114],[126.4411085,47.3957407],[126.4409649,47.3952156],[126.4410249,47.3942941],[126.4413621,47.3936967],[126.4419348,47.3930976],[126.4420413,47.3923834],[126.4419497,47.3916868],[126.4422907,47.3905884],[126.4419756,47.3899042],[126.4408076,47.3890918],[126.440108,47.3890452],[126.4394447,47.3892376],[126.4390238,47.3892983],[126.4385363,47.3890782],[126.4378106,47.3881995],[126.4370234,47.3877858],[126.4361423,47.3870418],[126.4351589,47.3867535],[126.4348939,47.3864194],[126.4348557,47.3859664],[126.4349751,47.3857114],[126.4356238,47.3851885],[126.4358595,47.3845212],[126.4358289,47.3834989],[126.436058,47.3830788],[126.4363426,47.3828861],[126.4365747,47.3828861],[126.4368653,47.3831246],[126.437321,47.383889],[126.4380245,47.384276],[126.4386046,47.3843512],[126.4389673,47.3840618],[126.4389232,47.3833605],[126.4385773,47.3828848],[126.4381548,47.3825521],[126.4381459,47.3822087],[126.4384071,47.3819098],[126.4395038,47.3815596],[126.4397389,47.3811489],[126.4394997,47.380916],[126.4386751,47.3809548],[126.4378424,47.3811789],[126.43677,47.3817407],[126.4360765,47.3817845],[126.4356362,47.3815959],[126.4353341,47.3811996],[126.4352988,47.3809006],[126.4355928,47.3806488],[126.4381077,47.3802231],[126.4393961,47.3804377],[126.4404613,47.3802979],[126.4410317,47.3799268],[126.4412786,47.3793948],[126.4410794,47.3790238],[126.4404105,47.378903],[126.4396621,47.3787031],[126.4393164,47.3787265],[126.4385942,47.3788538],[126.4381993,47.378761],[126.4381687,47.3785335],[126.4384685,47.3781829],[126.4390635,47.3780031],[126.4396431,47.3780881],[126.4403693,47.3781701],[126.4408409,47.3779572],[126.4410767,47.377526],[126.4408019,47.3771215],[126.4403943,47.3769916],[126.4378721,47.3768469],[126.4375796,47.3766605],[126.4375189,47.376496],[126.4376901,47.3763026],[126.4381544,47.3762384],[126.4390033,47.3760588],[126.4396861,47.3756185],[126.4402648,47.3744565],[126.4406481,47.3743267],[126.4410057,47.3743562],[126.4413068,47.3745262],[126.4420835,47.374671],[126.4426912,47.3743915],[126.4431283,47.3737699],[126.4428595,47.3727434],[126.4418553,47.3721502],[126.4403376,47.3717036],[126.4383078,47.3715931],[126.4351641,47.3701532],[126.435008,47.3697924],[126.4351183,47.369425],[126.4356771,47.3691097],[126.436153,47.369097],[126.4374306,47.36924],[126.4382255,47.3687927],[126.4383501,47.3683246],[126.4379754,47.3676067],[126.435911,47.3659865],[126.435667,47.3649654],[126.4357856,47.3642825],[126.4364911,47.363383],[126.4362073,47.3626732],[126.4349706,47.3617929],[126.4338843,47.3614034],[126.4325679,47.3614911],[126.4308564,47.3626364],[126.4297315,47.3630107],[126.4283102,47.3629557],[126.4263337,47.3633382],[126.4256192,47.3630452],[126.4250305,47.3623715],[126.4231587,47.3613126],[126.4222199,47.3607032],[126.4223075,47.3603233],[126.4237267,47.3594992],[126.4240824,47.3589723],[126.4237766,47.3584466],[126.4224413,47.3583444],[126.421813,47.3583311],[126.4213984,47.3581439],[126.4214328,47.3577709],[126.4226564,47.35701],[126.4248606,47.3549499],[126.4256013,47.3545933],[126.4266028,47.3545119],[126.4275075,47.354366],[126.4279015,47.3539734],[126.4276932,47.3530277],[126.4278064,47.3524651],[126.4285942,47.352185],[126.4290902,47.3517878],[126.4289284,47.3512239],[126.4274081,47.3506031],[126.4268631,47.3502084],[126.4269673,47.3498789],[126.4273855,47.3496078],[126.4285158,47.3495675],[126.4293457,47.3494936],[126.4299024,47.3489052],[126.4298356,47.3482263],[126.4287033,47.3476215],[126.4270743,47.3476941],[126.4254479,47.3486147],[126.424766,47.3487687],[126.4239555,47.348569],[126.4235616,47.3473946],[126.4234812,47.3460326],[126.4238475,47.3454708],[126.4249051,47.3449798],[126.426616,47.3448434],[126.4278978,47.344758],[126.4290719,47.3440192],[126.4305884,47.3429072],[126.4308042,47.342074],[126.4301617,47.3411611],[126.4299437,47.3403824],[126.4303908,47.3391982],[126.4304119,47.3383228],[126.4296155,47.3374848],[126.4284403,47.3364229],[126.4275749,47.3359366],[126.4260874,47.3356565],[126.4248079,47.3352929],[126.4234884,47.3352636],[126.4223349,47.3362301],[126.421915,47.3365023],[126.4211784,47.336344],[126.4209992,47.3361121],[126.4214927,47.3354562],[126.4224739,47.3350355],[126.4231962,47.3346611],[126.4235334,47.3340823],[126.4227432,47.3332226],[126.4226814,47.3320235],[126.4219303,47.3314695],[126.4206145,47.3314256],[126.4195233,47.3317527],[126.4189873,47.3319603],[126.418324,47.3318105],[126.4176114,47.3312492],[126.4175504,47.3295007],[126.4170815,47.3287784],[126.4150593,47.3276985],[126.4147972,47.3272417],[126.4155468,47.3256625],[126.4155687,47.3251286],[126.4150753,47.3246726],[126.4133755,47.3243635],[126.4111367,47.3235142],[126.4086348,47.3234308],[126.4040871,47.3222227],[126.4011736,47.3224591],[126.3995696,47.3222527],[126.3980647,47.3221562],[126.3966799,47.3218249],[126.3951869,47.3216169],[126.3927533,47.3210485],[126.3909341,47.3208103],[126.389276,47.3208658],[126.3883931,47.3207727],[126.3876803,47.320407],[126.3870883,47.3194706],[126.3871701,47.3187638],[126.386817,47.3182006],[126.3864936,47.3169947],[126.386473,47.3158089],[126.3860242,47.315062],[126.3861051,47.3135127],[126.3862053,47.3126835],[126.3865528,47.3122384],[126.3872864,47.3118405],[126.3873761,47.311187],[126.3865379,47.3104055],[126.3861903,47.3099996],[126.386372,47.3089322],[126.3862638,47.3084776],[126.3856965,47.3078858],[126.3845884,47.3077157],[126.383967,47.3074523],[126.3834645,47.3069805],[126.3832402,47.3053627],[126.3827639,47.3047902],[126.3819425,47.304497],[126.3797482,47.3043023],[126.3787047,47.3040353],[126.3781701,47.3035562],[126.3781336,47.3031487],[126.3791535,47.3023079],[126.3795598,47.3018874],[126.379647,47.3012073],[126.3792131,47.3007427],[126.3780034,47.3006275],[126.3773953,47.3005344],[126.3769033,47.3002906],[126.3767428,47.3000609],[126.3768863,47.2988402],[126.3762884,47.2980292],[126.3747215,47.2972882],[126.3741659,47.2968854],[126.3741843,47.2963984],[126.3746795,47.295982],[126.3752131,47.2952871],[126.3750497,47.2947645],[126.3740662,47.2945319],[126.3734099,47.2948081],[126.3724373,47.2958327],[126.3721212,47.2961354],[126.3717252,47.2961466],[126.3710844,47.2957631],[126.3708357,47.2952183],[126.3711707,47.2942028],[126.3722385,47.2934512],[126.372777,47.2929545],[126.3727092,47.2923109],[126.3721457,47.292051],[126.3712028,47.2918007],[126.3700649,47.2913268],[126.3689706,47.2902337],[126.3689098,47.2887767],[126.3685716,47.2878734],[126.3674918,47.2872377],[126.3672522,47.2862487],[126.3670206,47.2855632],[126.3659043,47.2846938],[126.3622263,47.280757],[126.3605239,47.2792034],[126.3603678,47.2781578],[126.3611159,47.2775592],[126.3634609,47.277075],[126.3641445,47.2766412],[126.364189,47.2759016],[126.3627389,47.2748607],[126.3610972,47.2741319],[126.3607236,47.2735996],[126.3612287,47.2729268],[126.3628814,47.2726971],[126.3636175,47.2725356],[126.3646816,47.2714455],[126.3657955,47.2702278],[126.3661251,47.2693051],[126.3665015,47.2686196],[126.3676735,47.2679614],[126.3682339,47.2674934],[126.3682562,47.2671304],[126.3681491,47.2665631],[126.3668727,47.2654875],[126.3665799,47.2649841],[126.366599,47.264492],[126.3670585,47.2640175],[126.3672871,47.2636297],[126.3668384,47.2631488],[126.3656368,47.2631488],[126.3645107,47.2637998],[126.3637833,47.26408],[126.3630945,47.2641179],[126.3627139,47.2638948],[126.3626954,47.2633935],[126.3632586,47.2627872],[126.3640039,47.262463],[126.3656332,47.2625995],[126.3667995,47.2625288],[126.3678583,47.2623228],[126.3689317,47.261929],[126.3696753,47.2612562],[126.3698364,47.2602487],[126.3700748,47.2592237],[126.3700512,47.2585326],[126.3696458,47.2581974],[126.3690595,47.2580762],[126.3684765,47.2582345],[126.3677578,47.259318],[126.3672992,47.2595481],[126.3669217,47.2594918],[126.3667682,47.2593509],[126.3666203,47.2587719],[126.3662699,47.2585066],[126.3657278,47.2585454],[126.3654961,47.2588691],[126.3656489,47.2596828],[126.366327,47.2607644],[126.3663853,47.2610807],[126.3660889,47.2612286],[126.3658326,47.2611938],[126.3652677,47.2607309],[126.3644349,47.2593682],[126.3638172,47.2591251],[126.3630668,47.2590922],[126.3619237,47.2594144],[126.3617251,47.2593639],[126.3615711,47.2591978],[126.361597,47.2589984],[126.3631481,47.2583894],[126.3634542,47.25814],[126.3636787,47.2577339],[126.3634677,47.2573848],[126.3623139,47.2569584],[126.3615375,47.2562329],[126.361075,47.2560149],[126.3604105,47.2561387],[126.3599052,47.2566921],[126.3596232,47.2568033],[126.3592387,47.2566951],[126.3584607,47.2558811],[126.3584813,47.2553924],[126.3590764,47.2549308],[126.3599322,47.254622],[126.3607054,47.254585],[126.3612943,47.254609],[126.3619009,47.2543821],[126.3621264,47.2541186],[126.3624408,47.2533044],[126.3623111,47.2527359],[126.3618518,47.252006],[126.3618719,47.251664],[126.3623038,47.25133],[126.3635018,47.2512852],[126.3639483,47.2512073],[126.3642927,47.2508387],[126.3640464,47.2503811],[126.3630771,47.2500156],[126.3615701,47.2499125],[126.3603661,47.2502595],[126.3595926,47.2502667],[126.3591098,47.2500645],[126.3586764,47.2495693],[126.3587398,47.2488738],[126.3594508,47.248377],[126.3608365,47.2483546],[126.3619562,47.2482675],[126.3624464,47.2480067],[126.3623416,47.2475175],[126.3616321,47.2470848],[126.3601526,47.2466847],[126.3592387,47.2466375],[126.3575887,47.2466527],[126.3570989,47.2464726],[126.3567733,47.2460513],[126.3569296,47.2457398],[126.3584742,47.2448963],[126.3591297,47.2443499],[126.3600358,47.2433687],[126.3601929,47.2428929],[126.3599937,47.2424534],[126.3594682,47.2421836],[126.3583202,47.242286],[126.3577018,47.2422281],[126.3571523,47.2419887],[126.3567785,47.2413021],[126.3563794,47.2407442],[126.3556504,47.2404115],[126.3543123,47.240192],[126.3539756,47.2398893],[126.3540239,47.2395221],[126.3553366,47.2389405],[126.3558279,47.2383385],[126.3557475,47.2374733],[126.3558546,47.2369976],[126.3562663,47.2370318],[126.3570503,47.2376325],[126.3576779,47.2377685],[126.3581473,47.2373809],[126.3585714,47.236885],[126.3586848,47.235414],[126.3590138,47.2348736],[126.36049,47.2343344],[126.361052,47.2338879],[126.3613026,47.2330535],[126.3606419,47.2322192],[126.3598815,47.231071],[126.359347,47.2305739],[126.3573776,47.2294811],[126.3566362,47.2283673],[126.3545942,47.2266666],[126.3540336,47.2254699],[126.353328,47.2252085],[126.352848,47.2253567],[126.3527788,47.2262654],[126.3522115,47.2266926],[126.3517183,47.226712],[126.351303,47.2263963],[126.3512596,47.2256885],[126.351316,47.2249075],[126.351327,47.2243749],[126.3518966,47.223431],[126.3518024,47.223102],[126.3510908,47.222812],[126.3502384,47.2230935],[126.3498056,47.2231469],[126.3495386,47.222989],[126.349588,47.2227933],[126.3503848,47.2224758],[126.3512826,47.2222554],[126.3528066,47.2225294],[126.3535315,47.2224785],[126.3539076,47.2220909],[126.3538275,47.2215237],[126.3544501,47.2205473],[126.3543505,47.220051],[126.3547373,47.2197172],[126.3551675,47.2194183],[126.3556657,47.2195715],[126.3559909,47.2199912],[126.3562811,47.220274],[126.3569228,47.220335],[126.3574029,47.220186],[126.3574699,47.2196579],[126.3566935,47.2192801],[126.3564179,47.2186288],[126.3559388,47.2180256],[126.3547771,47.2173943],[126.3537001,47.2171454],[126.353494,47.21691],[126.3535487,47.2167668],[126.3544501,47.216516],[126.3549247,47.2162763],[126.3556898,47.2150557],[126.3557143,47.2144916],[126.3554116,47.214258],[126.3548985,47.2142121],[126.3543026,47.2145279],[126.3538893,47.2147034],[126.3535576,47.2146658],[126.3533065,47.2144826],[126.35334,47.2135562],[126.3529232,47.2130272],[126.353068,47.2128305],[126.3546237,47.2129783],[126.3549851,47.2129432],[126.3555508,47.2126201],[126.3554652,47.2122133],[126.3539361,47.2118803],[126.3534424,47.2116497],[126.35338,47.2114258],[126.3535909,47.2112328],[126.3542958,47.211096],[126.3546619,47.2108384],[126.3546619,47.2104613],[126.3541224,47.2102414],[126.3535144,47.2103293],[126.3527538,47.2109478],[126.3506417,47.2119597],[126.3502334,47.211979],[126.3498378,47.2117103],[126.3505617,47.2100836],[126.3504817,47.2098029],[126.3500049,47.209533],[126.3490644,47.2096847],[126.3487755,47.2096724],[126.3486463,47.2095188],[126.3487192,47.2093647],[126.3493942,47.2091609],[126.3498907,47.2089553],[126.3501975,47.2085124],[126.3498731,47.2080717],[126.348865,47.2078189],[126.3479901,47.2078354],[126.3475123,47.2081429],[126.3472483,47.2086576],[126.3467476,47.2091678],[126.3464231,47.2093148],[126.3461238,47.2092973],[126.3457601,47.2088033],[126.3451243,47.2083031],[126.3449208,47.2077064],[126.3453391,47.2063675],[126.3455376,47.2062263],[126.3466491,47.2059746],[126.3467966,47.2056557],[126.3467428,47.2053631],[126.3459277,47.2049664],[126.3443762,47.2047907],[126.344032,47.2045636],[126.3439959,47.2043242],[126.3449563,47.2036635],[126.3450814,47.2031708],[126.3446892,47.202701],[126.3439182,47.2025452],[126.3430142,47.2029282],[126.3428512,47.2037904],[126.3425829,47.2042571],[126.3420155,47.2045935],[126.341139,47.2045321],[126.3401765,47.2040572],[126.339926,47.2037437],[126.3401663,47.203245],[126.3409772,47.2029892],[126.3416329,47.2025546],[126.341665,47.2019552],[126.3413943,47.2013711],[126.3398382,47.2006697],[126.3396762,47.2003819],[126.3399604,47.2001049],[126.3408413,47.2000339],[126.3415455,47.1993519],[126.3421141,47.1992816],[126.342815,47.1996388],[126.3429041,47.2004559],[126.3432888,47.2007035],[126.3441269,47.200191],[126.3444368,47.1996591],[126.3441295,47.1992184],[126.3425362,47.1988266],[126.3411424,47.1980867],[126.3408804,47.1974964],[126.3411745,47.1970876],[126.3423299,47.19671],[126.3427613,47.1964958],[126.3428519,47.1961139],[126.341376,47.1951834],[126.3409988,47.1946612],[126.3411862,47.1941702],[126.3429717,47.1935384],[126.3436576,47.1929453],[126.3439529,47.1920792],[126.3436823,47.1914412],[126.3424038,47.1907155],[126.3420924,47.1903198],[126.3427143,47.1891627],[126.3425752,47.188761],[126.3413106,47.1883986],[126.3406744,47.1878605],[126.3405076,47.1869126],[126.3395857,47.1865279],[126.3385076,47.1865483],[126.3376626,47.1862324],[126.3371802,47.1856689],[126.3366183,47.18553],[126.3361237,47.1856296],[126.3356338,47.1869405],[126.3349331,47.1878831],[126.3342578,47.1882368],[126.3334244,47.1883123],[126.3326498,47.1880242],[126.3314525,47.1878513],[126.3309445,47.1876834],[126.3307124,47.1873592],[126.3308805,47.1870781],[126.3315861,47.1866085],[126.332816,47.1855812],[126.3337054,47.1852477],[126.3338165,47.1849331],[126.3334937,47.1845918],[126.3313916,47.1845193],[126.329752,47.1841749],[126.3281857,47.1840533],[126.3264615,47.1836457],[126.3255898,47.1836564],[126.3249037,47.1839707],[126.3246232,47.1839707],[126.324284,47.1838255],[126.324182,47.1834964],[126.324524,47.1830874],[126.3252575,47.1827313],[126.3261033,47.1816234],[126.326087,47.1812241],[126.3257817,47.1807861],[126.3249147,47.1807514],[126.3244541,47.1810181],[126.3240171,47.1821038],[126.3238587,47.1822611],[126.3235727,47.1822922],[126.3233072,47.1821666],[126.3232364,47.1811763],[126.3237811,47.180476],[126.3239906,47.1799392],[126.3236127,47.1795539],[126.3230469,47.1794578],[126.3224328,47.1797624],[126.3219688,47.1804133],[126.3213689,47.1807358],[126.3207243,47.1807917],[126.3202507,47.1806576],[126.3199507,47.180222],[126.3199932,47.1796252],[126.3202506,47.1792651],[126.3201989,47.1788907],[126.3197602,47.1786402],[126.319092,47.1786641],[126.3186624,47.1791939],[126.3182884,47.1795753],[126.3176517,47.1798638],[126.3166327,47.1799984],[126.316122,47.1798249],[126.3152825,47.1789939],[126.313824,47.1778812],[126.3133467,47.1772225],[126.3132606,47.1764227],[126.3138047,47.1756246],[126.3154917,47.1748127],[126.3158366,47.1743215],[126.3155248,47.1737524],[126.3146035,47.1733529],[126.3137854,47.1733418],[126.3128239,47.1739227],[126.3124833,47.1740385],[126.3120226,47.1739602],[126.3116001,47.1735433],[126.3115723,47.1729292],[126.3125243,47.1720356],[126.3137761,47.1715885],[126.3141753,47.1711077],[126.3141635,47.1706731],[126.3137669,47.170379],[126.312805,47.1702046],[126.3122506,47.1699374],[126.311538,47.1693687],[126.3106168,47.1681881],[126.3093124,47.167334],[126.3085814,47.1669009],[126.308047,47.1655792],[126.307436,47.1646213],[126.3058428,47.1631811],[126.3042537,47.1619548],[126.3036327,47.1614513],[126.3034169,47.1608729],[126.3033398,47.1603232],[126.3034956,47.1595037],[126.3036558,47.1579691],[126.3035707,47.1555777],[126.3037903,47.1545312],[126.3037459,47.1525125],[126.3038675,47.1518226],[126.3037761,47.1512569],[126.3039389,47.1502585],[126.303599,47.1490896],[126.3037791,47.1486919],[126.3042216,47.1485929],[126.3048765,47.1488007],[126.305722,47.1486489],[126.3060762,47.1482613],[126.305756,47.1477977],[126.3057746,47.1474319],[126.3066089,47.1468356],[126.3070639,47.1459678],[126.3075897,47.1457493],[126.3083045,47.1457493],[126.3083011,47.1461916],[126.3075939,47.1467948],[126.3074186,47.1475425],[126.307895,47.1480233],[126.3081223,47.1486022],[126.3085728,47.148962],[126.3091552,47.1488135],[126.3095472,47.1483687],[126.3092176,47.1477839],[126.3091211,47.1469546],[126.3097545,47.1461132],[126.3106614,47.1459243],[126.3111217,47.1458328],[126.3120233,47.1451937],[126.312428,47.1445352],[126.3122824,47.1438809],[126.3116689,47.1432098],[126.310787,47.1428516],[126.3095509,47.1424112],[126.308955,47.1419669],[126.3085045,47.1413226],[126.308282,47.1402233],[126.3083288,47.139706],[126.3088295,47.1367544],[126.3087454,47.1353489],[126.3083122,47.1340918],[126.3084627,47.1336925],[126.3099156,47.1331472],[126.3104016,47.1325088],[126.3111033,47.1322966],[126.3123208,47.1323193],[126.3131857,47.1321967],[126.3140453,47.1318183],[126.3143927,47.1309912],[126.3145113,47.1298611],[126.3151991,47.1286994],[126.3154219,47.1279921],[126.3152039,47.1276027],[126.3147225,47.1274679],[126.3138281,47.1276417],[126.3130708,47.1281409],[126.3125858,47.1281959],[126.3122931,47.1279968],[126.3121805,47.1273684],[126.3124922,47.1262428],[126.3121174,47.1254948],[126.311387,47.1250322],[126.3095227,47.1247232],[126.3080516,47.1240082],[126.3071675,47.1232441],[126.306105,47.1228197],[126.3060837,47.1224419],[126.3061571,47.1217255],[126.3058384,47.1213821],[126.3045331,47.1208868],[126.3037179,47.1211015],[126.3034295,47.1213869],[126.3029369,47.1223287],[126.3017076,47.1228708],[126.3009959,47.1228708],[126.3004347,47.1225042],[126.2989302,47.1213366],[126.2988195,47.1210503],[126.298786,47.1208434],[126.298339,47.1207389],[126.2977308,47.1206941],[126.296515,47.1201275],[126.2956804,47.1198858],[126.2948362,47.1200382],[126.2941941,47.1200158],[126.2930547,47.1200046],[126.2919933,47.1196435],[126.2905086,47.1192761],[126.289727,47.1190496],[126.2893134,47.1188867],[126.288881,47.1189287],[126.2886226,47.1191316],[126.2882042,47.1191258],[126.287965,47.1190154],[126.2875826,47.1185617],[126.287285,47.118089],[126.2868494,47.1180613],[126.2865848,47.1182242],[126.2862002,47.118785],[126.2864201,47.1191912],[126.2863562,47.1194774],[126.2862588,47.1195844],[126.2860473,47.1196152],[126.2853501,47.1194433],[126.2849529,47.1194687],[126.2847493,47.1196567],[126.2848672,47.1198975],[126.2849632,47.1201651],[126.2849082,47.1204083],[126.284578,47.1208015],[126.2842633,47.1208234],[126.2835315,47.1205965],[126.283478,47.1204405],[126.2836575,47.119979],[126.2837287,47.1190873],[126.2839252,47.1187178],[126.2845324,47.1184517],[126.2846112,47.1182282],[126.2844569,47.1179569],[126.2840781,47.1178946],[126.2836027,47.1179998],[126.2834153,47.1182229],[126.2832928,47.1184383],[126.2830999,47.1186732],[126.2828537,47.1190664],[126.2821444,47.1191807],[126.2813581,47.1191668],[126.2809084,47.1192466],[126.2804978,47.1191348],[126.2804978,47.118893],[126.2808937,47.1182506],[126.2809588,47.1177109],[126.2806994,47.1173931],[126.2803231,47.1174595],[126.2796971,47.1177947],[126.2790585,47.1179527],[126.2783371,47.1179457],[126.2778057,47.1181381],[126.2773728,47.1186793],[126.2771008,47.1187358],[126.2833023,47.1089134],[126.2749328,47.1011964],[126.2774428,47.0952534],[126.2755738,47.0891989],[126.2669983,47.0852319],[126.2672803,47.0799829],[126.2630233,47.0776174],[126.2558668,47.0676804],[126.2530376,47.0638487],[126.2510764,47.054357],[126.2557373,47.0496519],[126.2469254,47.0433087],[126.2463683,47.0404089],[126.2532268,47.0353204],[126.2529833,47.0195464],[126.2554093,47.0151024],[126.2599563,47.0122109],[126.2634833,47.0100204],[126.2670789,47.0073773],[126.2669678,47.0041274],[126.2574768,46.9971314],[126.2434083,46.9937744],[126.2402498,46.9914399],[126.2395173,46.9846609],[126.2299498,46.9791639],[126.2268828,46.9753264],[126.2349013,46.9687769],[126.2350998,46.9650269],[126.2626268,46.9665529],[126.2813033,46.9678574],[126.3002778,46.9696199],[126.3142473,46.9712789],[126.3369063,46.9733389],[126.3525463,46.9752579],[126.3655393,46.9764329],[126.3745573,46.9766119],[126.3906478,46.9757919],[126.4046323,46.9772069],[126.4123308,46.9771309],[126.4216688,46.9777679],[126.4353408,46.9787214],[126.4503098,46.9808424],[126.4588928,46.9837494],[126.4658128,46.9861679],[126.4787368,46.9889304],[126.4910888,46.9896204],[126.5037763,46.9903184],[126.5121233,46.9907074],[126.5191865,46.9929855],[126.5197218,46.9931334],[126.5276338,46.9962499],[126.5345993,46.9975244],[126.5430223,46.9960824],[126.5473938,46.9954759],[126.5537268,46.9958189],[126.5603868,46.9968564],[126.5656888,46.9980964],[126.5683518,47.0070569],[126.5678403,47.0203094],[126.5676728,47.0331079],[126.5669173,47.0438384],[126.5653763,47.0572934],[126.5640028,47.0670969],[126.5633468,47.0748559],[126.5620573,47.0823744],[126.5605013,47.0878334],[126.5599368,47.0937654],[126.5608063,47.0969809],[126.5674138,47.0996169],[126.5831678,47.0996744],[126.5995788,47.0999679],[126.6083582,47.1004721],[126.6166303,47.1009599],[126.6324463,47.0991819],[126.6485368,47.0992359],[126.6626968,47.0969734],[126.6761933,47.0946929],[126.6880033,47.0928384],[126.6970293,47.0932234],[126.7060468,47.0940629],[126.7194288,47.0947454],[126.729073,47.0949086],[126.7291413,47.0949094],[126.7388608,47.0948484],[126.7508928,47.0959589],[126.7575838,47.0960729],[126.7639768,47.0954969],[126.7690198,47.0948904],[126.7730638,47.0942724],[126.7793808,47.0957449],[126.7824323,47.1042514],[126.7843628,47.1067994],[126.7926633,47.1089934],[126.8076933,47.1103784],[126.8190533,47.1117059],[126.8317488,47.1128234],[126.8451768,47.1123504],[126.8522188,47.1122324],[126.8582383,47.1127854],[126.8669128,47.1140634],[126.8732528,47.1150779],[126.8778913,47.1165239],[126.8818208,47.1193274],[126.8842773,47.1259919],[126.8854903,47.1298944],[126.8907163,47.1340864],[126.8950423,47.1350709],[126.9121778,47.1341934],[126.9279328,47.1344299],[126.9352873,47.1349984],[126.9399413,47.1364404],[126.9439393,47.1371839],[126.9529573,47.1380079],[126.9599763,47.1390264],[126.9685363,47.1397134],[126.9736018,47.1503179],[126.9790268,47.1519204],[126.9840088,47.1647794],[126.9837263,47.1715314],[126.9886398,47.1773319],[126.9973833,47.1875494],[126.9969633,47.1980514],[127.0077363,47.2035064],[127.0099979,47.2068092],[127.0118868,47.2095869],[127.0195238,47.2112274],[127.0344388,47.2235184],[127.0309068,47.2294579],[127.0328978,47.2347489],[127.0467574,47.2457244],[127.0470172,47.2459171],[127.0542373,47.2516519],[127.0682828,47.2586629],[127.0688173,47.2729339],[127.0719528,47.2774959],[127.0830873,47.2844817],[127.0891573,47.2883109],[127.0909498,47.2988509],[127.0995028,47.3057594],[127.1044308,47.3208619],[127.1083852,47.3232867],[127.1356733,47.3401754],[127.1438903,47.3560829],[127.1458663,47.3621179],[127.1567533,47.3660619],[127.1623948,47.375506],[127.1671378,47.3835029],[127.1613693,47.3901559],[127.1610563,47.3984109],[127.1671068,47.4135244],[127.1882093,47.4401514],[127.2086713,47.4547574],[127.2085263,47.4585074],[127.2217638,47.4764974],[127.2448215,47.4907546],[127.2471083,47.4921684],[127.2523118,47.5012624],[127.2719193,47.5098379],[127.2837903,47.5182839],[127.2869188,47.5235899],[127.3077013,47.5306779],[127.3185273,47.5376014],[127.3291168,47.5512809],[127.3413468,47.5599594],[127.3493728,47.5640449],[127.3528288,47.5685959],[127.3577728,47.5737724],[127.362149,47.5797816],[127.3626633,47.5804939],[127.3675538,47.5876314],[127.3737793,47.5956914],[127.3800428,47.6028479],[127.3879778,47.6100194],[127.3962633,47.6171914],[127.4028623,47.6241149],[127.4111328,47.6324349],[127.4184263,47.6379929],[127.4294283,47.6456529],[127.4398498,47.6487349],[127.4514088,47.6465719],[127.4623033,47.6441724],[127.4755098,47.6436234],[127.4842683,47.6455384],[127.4898988,47.6510809],[127.4989088,47.6568834],[127.5077898,47.6654929],[127.5315168,47.6653479],[127.5547483,47.6679234],[127.5782163,47.6622429],[127.6069793,47.6648789]]]]}}]}
