{"type": "FeatureCollection", "features": [
{"id":"3b769fe7-a10e-4e06-ab3c-e8b5f1e58ba4","type":"Feature","geometry":{"type":"Point","coordinates":[126.5087,47.2306]},"properties":{"categories":{"primary":"structure_and_geography","alternate":null},"confidence":0.7616239190101624,"socials":["https://www.facebook.com/233415216842841"],"brand":{"wikidata":null,"names":{"primary":null,"common":null,"rules":null}},"addresses":[{"freeform":null,"locality":null,"postcode":null,"region":null,"country":"CN"}],"names":{"primary":"联丰水库","common":null,"rules":null},"sources":[{"property":"","dataset":"meta","license":"CDLA-Permissive-2.0","record_id":"233415216842841","update_time":"2026-07-02T00:00:00.000Z","confidence":0.7616239190101624,"between":null},{"property":"/properties/confidence","dataset":"Overture","license":"CDLA-Permissive-2.0","record_id":null,"update_time":"2026-07-14T20:34:55Z","confidence":null,"between":null}],"taxonomy":{"primary":"geographic_entities","hierarchy":["geographic_entities"],"alternates":null},"version":6}},
{"id":"90793f7b-b3b5-4169-b361-db827813c63e","type":"Feature","geometry":{"type":"Point","coordinates":[126.46182,47.5127]},"properties":{"categories":{"primary":"structure_and_geography","alternate":null},"confidence":0.7202483415603638,"socials":["https://www.facebook.com/247590632272932"],"brand":{"wikidata":null,"names":{"primary":null,"common":null,"rules":null}},"addresses":[{"freeform":null,"locality":"Qiqihar","postcode":null,"region":null,"country":"CN"}],"names":{"primary":"Sandaozhen Shuiku","common":null,"rules":null},"sources":[{"property":"","dataset":"meta","license":"CDLA-Permissive-2.0","record_id":"247590632272932","update_time":"2026-07-02T00:00:00.000Z","confidence":0.7202483415603638,"between":null},{"property":"/properties/confidence","dataset":"Overture","license":"CDLA-Permissive-2.0","record_id":null,"update_time":"2026-07-14T20:34:55Z","confidence":null,"between":null}],"taxonomy":{"primary":"geographic_entities","hierarchy":["geographic_entities"],"alternates":null},"version":6}},
{"id":"c0c828ee-4f40-41e8-a955-14955fa25937","type":"Feature","geometry":{"type":"Point","coordinates":[126.5625,47.491224888202]},"properties":{"confidence":0.19110025465488434,"emails":["alienleeh@foxmail.com"],"socials":["https://www.facebook.com/1187882551070210"],"phones":["+8618596372050"],"brand":{"wikidata":null,"names":{"primary":null,"common":null,"rules":null}},"addresses":[{"freeform":null,"locality":null,"postcode":null,"region":null,"country":"CN"}],"names":{"primary":"Henrich Equipments","common":null,"rules":null},"sources":[{"property":"","dataset":"meta","license":"CDLA-Permissive-2.0","record_id":"1187882551070210","update_time":"2026-07-02T00:00:00.000Z","confidence":0.19110025465488434,"between":null},{"property":"/properties/confidence","dataset":"Overture","license":"CDLA-Permissive-2.0","record_id":null,"update_time":"2026-07-14T20:34:55Z","confidence":null,"between":null}],"version":1}},
{"id":"cf22a44f-9432-4fc8-8b89-0f87b5156f96","type":"Feature","geometry":{"type":"Point","coordinates":[126.68638888889,47.440833333333]},"properties":{"categories":{"primary":"structure_and_geography","alternate":null},"confidence":0.7105706930160522,"socials":["https://www.facebook.com/831230403688419"],"brand":{"wikidata":null,"names":{"primary":null,"common":null,"rules":null}},"addresses":[{"freeform":null,"locality":null,"postcode":null,"region":null,"country":"CN"}],"names":{"primary":"Jingjian Shuiku","common":null,"rules":null},"sources":[{"property":"","dataset":"meta","license":"CDLA-Permissive-2.0","record_id":"831230403688419","update_time":"2026-07-02T00:00:00.000Z","confidence":0.7105706930160522,"between":null},{"property":"/properties/confidence","dataset":"Overture","license":"CDLA-Permissive-2.0","record_id":null,"update_time":"2026-07-14T20:34:55Z","confidence":null,"between":null}],"taxonomy":{"primary":"geographic_entities","hierarchy":["geographic_entities"],"alternates":null},"version":6}},
{"id":"def0612d-769c-40fb-8fc0-5b47484437a0","type":"Feature","geometry":{"type":"Point","coordinates":[126.755,47.7219]},"properties":{"categories":{"primary":"structure_and_geography","alternate":null},"confidence":0.7283423542976379,"socials":["https://www.facebook.com/1362190333795027"],"brand":{"wikidata":null,"names":{"primary":null,"common":null,"rules":null}},"addresses":[{"freeform":null,"locality":null,"postcode":null,"region":null,"country":"CN"}],"names":{"primary":"Liaoyuan Shuiku (reservoar i Kina, Heilongjiang)","common":null,"rules":null},"sources":[{"property":"","dataset":"meta","license":"CDLA-Permissive-2.0","record_id":"1362190333795027","update_time":"2026-07-02T00:00:00.000Z","confidence":0.7283423542976379,"between":null},{"property":"/properties/confidence","dataset":"Overture","license":"CDLA-Permissive-2.0","record_id":null,"update_time":"2026-07-14T20:34:55Z","confidence":null,"between":null}],"taxonomy":{"primary":"geographic_entities","hierarchy":["geographic_entities"],"alternates":null},"version":6}},
{"id":"c8d893cc-1d8f-4322-a7b3-c2cb47c68ba4","type":"Feature","geometry":{"type":"Point","coordinates":[126.60083333333,47.367222222222]},"properties":{"categories":{"primary":"structure_and_geography","alternate":null},"confidence":0.7105706930160522,"socials":["https://www.facebook.com/1717334301817377"],"brand":{"wikidata":null,"names":{"primary":null,"common":null,"rules":null}},"addresses":[{"freeform":null,"locality":null,"postcode":null,"region":null,"country":"CN"}],"names":{"primary":"Hongxin Shuiku","common":null,"rules":null},"sources":[{"property":"","dataset":"meta","license":"CDLA-Permissive-2.0","record_id":"1717334301817377","update_time":"2026-07-02T00:00:00.000Z","confidence":0.7105706930160522,"between":null},{"property":"/properties/confidence","dataset":"Overture","license":"CDLA-Permissive-2.0","record_id":null,"update_time":"2026-07-14T20:34:55Z","confidence":null,"between":null}],"taxonomy":{"primary":"geographic_entities","hierarchy":["geographic_entities"],"alternates":null},"version":6}},
{"id":"0ad9ccff-fff2-42c9-b6cb-c95c6f00d27b","type":"Feature","geometry":{"type":"Point","coordinates":[126.81074,46.99052]},"properties":{"categories":{"primary":"public_and_government_association","alternate":null},"confidence":0.7141345143318176,"socials":["https://www.facebook.com/203438789857443"],"brand":{"wikidata":null,"names":{"primary":null,"common":null,"rules":null}},"addresses":[{"freeform":null,"locality":null,"postcode":null,"region":null,"country":"CN"}],"names":{"primary":"莲花镇 (望奎县)","common":null,"rules":null},"sources":[{"property":"","dataset":"meta","license":"CDLA-Permissive-2.0","record_id":"203438789857443","update_time":"2026-07-02T00:00:00.000Z","confidence":0.7141345143318176,"between":null},{"property":"/properties/confidence","dataset":"Overture","license":"CDLA-Permissive-2.0","record_id":null,"update_time":"2026-07-14T20:34:55Z","confidence":null,"between":null}],"basic_category":"government_office","taxonomy":{"primary":"government_office","hierarchy":["community_and_government","government_office"],"alternates":null},"version":7}},
{"id":"e473b08a-0337-40e8-ad0c-f76c6caba5b5","type":"Feature","geometry":{"type":"Point","coordinates":[126.97341978549959,47.46209916734273]},"properties":{"categories":{"primary":"coffee_shop","alternate":["cafe","coffee_roastery"]},"confidence":0.8,"brand":{"wikidata":"Q37158","names":{"primary":"星巴克","common":null,"rules":[{"variant":"language","language":"en","perspectives":null,"value":"Starbucks","between":null,"side":null},{"variant":"language","language":"zh","perspectives":null,"value":"星巴克","between":null,"side":null}]}},"addresses":[{"freeform":"黑龙江省绥化市","locality":"绥化市","postcode":"152000","region":null,"country":"CN"}],"names":{"primary":"星巴克","common":null,"rules":[{"variant":"language","language":"en","perspectives":null,"value":"Starbucks","between":null,"side":null},{"variant":"language","language":"zh","perspectives":null,"value":"星巴克","between":null,"side":null}]},"sources":[{"property":"","dataset":"AllThePlaces","license":"CC0-1.0","record_id":"izgDxqStdSiH_DED0lon9ivjsZQ=","update_time":"2026-07-07T19:10:41.000Z","confidence":0.8,"between":null},{"property":"/properties/confidence","dataset":"Overture","license":"CDLA-Permissive-2.0","record_id":null,"update_time":"2026-07-14T20:34:55Z","confidence":null,"between":null}],"basic_category":"coffee_shop","taxonomy":{"primary":"coffee_shop","hierarchy":["food_and_drink","non_alcoholic_beverage_venue","coffee_shop"],"alternates":null},"version":5}},
{"id":"a65df9a4-bcf1-42f1-b269-cde51c56e089","type":"Feature","geometry":{"type":"Point","coordinates":[127.02583333333,47.089444444444]},"properties":{"categories":{"primary":"structure_and_geography","alternate":null},"confidence":0.7706900238990784,"socials":["https://www.facebook.com/143629162719093"],"brand":{"wikidata":null,"names":{"primary":null,"common":null,"rules":null}},"addresses":[{"freeform":null,"locality":null,"postcode":null,"region":null,"country":"CN"}],"names":{"primary":"Dongfanghong Shuiku (reservoar i Kina, Heilongjiang, lat 47,09, long 127,03)","common":null,"rules":null},"sources":[{"property":"","dataset":"meta","license":"CDLA-Permissive-2.0","record_id":"143629162719093","update_time":"2026-07-02T00:00:00.000Z","confidence":0.7706900238990784,"between":null},{"property":"/properties/confidence","dataset":"Overture","license":"CDLA-Permissive-2.0","record_id":null,"update_time":"2026-07-14T20:34:55Z","confidence":null,"between":null}],"taxonomy":{"primary":"geographic_entities","hierarchy":["geographic_entities"],"alternates":null},"version":6}},
{"id":"35d35170-a6a7-4dc9-9526-acca6e391cda","type":"Feature","geometry":{"type":"Point","coordinates":[126.9884,47.4647]},"properties":{"categories":{"primary":"train_station","alternate":["transportation"]},"confidence":0.7262423038482666,"socials":["https://www.facebook.com/474278349405340"],"brand":{"wikidata":null,"names":{"primary":null,"common":null,"rules":null}},"addresses":[{"freeform":null,"locality":null,"postcode":null,"region":null,"country":"CN"}],"names":{"primary":"海倫駅","common":null,"rules":null},"sources":[{"property":"","dataset":"meta","license":"CDLA-Permissive-2.0","record_id":"474278349405340","update_time":"2026-07-02T00:00:00.000Z","confidence":0.7262423038482666,"between":null},{"property":"/properties/confidence","dataset":"Overture","license":"CDLA-Permissive-2.0","record_id":null,"update_time":"2026-07-14T20:34:55Z","confidence":null,"between":null}],"basic_category":"train_station","taxonomy":{"primary":"train_station","hierarchy":["travel_and_transportation","ground_transport_facility_or_service","rail_facility_or_service","train_station"],"alternates":null},"version":7}},
{"id":"3c634787-61e0-44e3-8134-305dc1843185","type":"Feature","geometry":{"type":"Point","coordinates":[127.0769,47.2477]},"properties":{"categories":{"primary":"train_station","alternate":["transportation"]},"confidence":0.7335328459739685,"socials":["https://www.facebook.com/1605514606379359"],"brand":{"wikidata":null,"names":{"primary":null,"common":null,"rules":null}},"addresses":[{"freeform":null,"locality":null,"postcode":null,"region":null,"country":"CN"}],"names":{"primary":"綏リョウ駅","common":null,"rules":null},"sources":[{"property":"","dataset":"meta","license":"CDLA-Permissive-2.0","record_id":"1605514606379359","update_time":"2026-07-02T00:00:00.000Z","confidence":0.7335328459739685,"between":null},{"property":"/properties/confidence","dataset":"Overture","license":"CDLA-Permissive-2.0","record_id":null,"update_time":"2026-07-14T20:34:55Z","confidence":null,"between":null}],"basic_category":"train_station","taxonomy":{"primary":"train_station","hierarchy":["travel_and_transportation","ground_transport_facility_or_service","rail_facility_or_service","train_station"],"alternates":null},"version":7}},
{"id":"81cd0627-2664-4d28-b791-fc43a5117567","type":"Feature","geometry":{"type":"Point","coordinates":[127.7,47.1]},"properties":{"categories":{"primary":"structure_and_geography","alternate":null},"confidence":0.7661760449409485,"socials":["https://www.facebook.com/377999732579679"],"brand":{"wikidata":null,"names":{"primary":null,"common":null,"rules":null}},"addresses":[{"freeform":null,"locality":null,"postcode":null,"region":null,"country":"CN"}],"names":{"primary":"塞赫尔斯陨石坑","common":null,"rules":null},"sources":[{"property":"","dataset":"meta","license":"CDLA-Permissive-2.0","record_id":"377999732579679","update_time":"2026-07-02T00:00:00.000Z","confidence":0.7661760449409485,"between":null},{"property":"/properties/confidence","dataset":"Overture","license":"CDLA-Permissive-2.0","record_id":null,"update_time":"2026-07-14T20:34:55Z","confidence":null,"between":null}],"taxonomy":{"primary":"geographic_entities","hierarchy":["geographic_entities"],"alternates":null},"version":6}},
{"id":"c1a551e7-0849-4fbf-abf5-14a6b5156d0d","type":"Feature","geometry":{"type":"Point","coordinates":[127.74527777778,47.214166666667]},"properties":{"categories":{"primary":"river","alternate":null},"confidence":0.737830400466919,"socials":["https://www.facebook.com/1704455223152726"],"brand":{"wikidata":null,"names":{"primary":null,"common":null,"rules":null}},"addresses":[{"freeform":null,"locality":null,"postcode":null,"region":null,"country":"CN"}],"names":{"primary":"Erdao Ougen He","common":null,"rules":null},"sources":[{"property":"","dataset":"meta","license":"CDLA-Permissive-2.0","record_id":"1704455223152726","update_time":"2026-07-02T00:00:00.000Z","confidence":0.737830400466919,"between":null},{"property":"/properties/confidence","dataset":"Overture","license":"CDLA-Permissive-2.0","record_id":null,"update_time":"2026-07-14T20:34:55Z","confidence":null,"between":null}],"basic_category":"river","taxonomy":{"primary":"river","hierarchy":["geographic_entities","water_feature","river"],"alternates":null},"version":6}},
{"id":"62cf314a-64f3-4f4e-a7f6-a91041defff8","type":"Feature","geometry":{"type":"Point","coordinates":[127.4478,47.363]},"properties":{"categories":{"primary":"structure_and_geography","alternate":null},"confidence":0.7688270807266235,"socials":["https://www.facebook.com/634100533292903"],"brand":{"wikidata":null,"names":{"primary":null,"common":null,"rules":null}},"addresses":[{"freeform":null,"locality":null,"postcode":null,"region":null,"country":"CN"}],"names":{"primary":"向阳水库 (绥棱)","common":null,"rules":null},"sources":[{"property":"","dataset":"meta","license":"CDLA-Permissive-2.0","record_id":"634100533292903","update_time":"2026-07-02T00:00:00.000Z","confidence":0.7688270807266235,"between":null},{"property":"/properties/confidence","dataset":"Overture","license":"CDLA-Permissive-2.0","record_id":null,"update_time":"2026-07-14T20:34:55Z","confidence":null,"between":null}],"taxonomy":{"primary":"geographic_entities","hierarchy":["geographic_entities"],"alternates":null},"version":6}},
{"id":"7cca2cf2-8a0d-4499-9cda-75f8cdff527e","type":"Feature","geometry":{"type":"Point","coordinates":[127.4297,47.1732]},"properties":{"categories":{"primary":"structure_and_geography","alternate":null},"confidence":0.7806086540222168,"socials":["https://www.facebook.com/211659015698225"],"brand":{"wikidata":null,"names":{"primary":null,"common":null,"rules":null}},"addresses":[{"freeform":null,"locality":null,"postcode":null,"region":null,"country":"CN"}],"names":{"primary":"红旗水库 (绥棱)","common":null,"rules":null},"sources":[{"property":"","dataset":"meta","license":"CDLA-Permissive-2.0","record_id":"211659015698225","update_time":"2026-07-02T00:00:00.000Z","confidence":0.7806086540222168,"between":null},{"property":"/properties/confidence","dataset":"Overture","license":"CDLA-Permissive-2.0","record_id":null,"update_time":"2026-07-14T20:34:55Z","confidence":null,"between":null}],"taxonomy":{"primary":"geographic_entities","hierarchy":["geographic_entities"],"alternates":null},"version":6}},
{"id":"7caab7d0-6127-47d2-80d0-c2529c3ea668","type":"Feature","geometry":{"type":"Point","coordinates":[127.16305555556,47.652777777778]},"properties":{"categories":{"primary":"structure_and_geography","alternate":null},"confidence":0.7706900238990784,"socials":["https://www.facebook.com/874459899348530"],"brand":{"wikidata":null,"names":{"primary":null,"common":null,"rules":null}},"addresses":[{"freeform":null,"locality":null,"postcode":null,"region":null,"country":"CN"}],"names":{"primary":"Dongfanghong Shuiku (reservoar i Kina, Heilongjiang, lat 47,65, long 127,16)","common":null,"rules":null},"sources":[{"property":"","dataset":"meta","license":"CDLA-Permissive-2.0","record_id":"874459899348530","update_time":"2026-07-02T00:00:00.000Z","confidence":0.7706900238990784,"between":null},{"property":"/properties/confidence","dataset":"Overture","license":"CDLA-Permissive-2.0","record_id":null,"update_time":"2026-07-14T20:34:55Z","confidence":null,"between":null}],"taxonomy":{"primary":"geographic_entities","hierarchy":["geographic_entities"],"alternates":null},"version":6}},
{"id":"258ce43c-d4c8-4387-a9d1-5e4f8f013643","type":"Feature","geometry":{"type":"Point","coordinates":[127.09892,47.41011]},"properties":{"categories":{"primary":"landmark_and_historical_building","alternate":["fountain"]},"confidence":0.7356633543968201,"socials":["https://www.facebook.com/258008354318701"],"brand":{"wikidata":null,"names":{"primary":null,"common":null,"rules":null}},"addresses":[{"freeform":null,"locality":null,"postcode":null,"region":null,"country":"CN"}],"names":{"primary":"Dongfeng, Hailun","common":null,"rules":null},"sources":[{"property":"","dataset":"meta","license":"CDLA-Permissive-2.0","record_id":"258008354318701","update_time":"2026-07-02T00:00:00.000Z","confidence":0.7356633543968201,"between":null},{"property":"/properties/confidence","dataset":"Overture","license":"CDLA-Permissive-2.0","record_id":null,"update_time":"2026-07-14T20:34:55Z","confidence":null,"between":null}],"basic_category":"historic_site","taxonomy":{"primary":"historic_site","hierarchy":["cultural_and_historic","historic_site"],"alternates":null},"version":1}}]}