{"type":"FeatureCollection","features":[{"type":"Feature","properties":{"id":"node/2344167668","category":"rail","name":"东边井","nameEn":"Dongbianjing","place":null,"source":"OpenStreetMap contributors","snapshot":"2026-07-02T16:51:45Z","dataStatus":"documented-current-map"},"geometry":{"type":"Point","coordinates":[127.1057258,47.4084599]}},{"type":"Feature","properties":{"id":"node/2344167669","category":"rail","name":"海北","nameEn":"Haibei","place":null,"source":"OpenStreetMap contributors","snapshot":"2026-07-02T16:51:45Z","dataStatus":"documented-current-map"},"geometry":{"type":"Point","coordinates":[126.8695455,47.6680436]}},{"type":"Feature","properties":{"id":"node/2344167670","category":"rail","name":"海伦","nameEn":"Hailun","place":null,"source":"OpenStreetMap contributors","snapshot":"2026-07-02T16:51:45Z","dataStatus":"documented-current-map"},"geometry":{"type":"Point","coordinates":[126.9882197,47.4652575]}},{"type":"Feature","properties":{"id":"node/2344167685","category":"rail","name":"扎音河","nameEn":"Zhayinhe","place":null,"source":"OpenStreetMap contributors","snapshot":"2026-07-02T16:51:45Z","dataStatus":"documented-current-map"},"geometry":{"type":"Point","coordinates":[126.9351897,47.5910062]}},{"type":"Feature","properties":{"id":"way/1465603515","category":"school","name":"海南乡中学","nameEn":"Hainan Township Middle School","place":null,"source":"OpenStreetMap contributors","snapshot":"2026-07-02T16:51:45Z","dataStatus":"documented-current-map"},"geometry":{"type":"Point","coordinates":[126.9753678,47.2339939]}},{"type":"Feature","properties":{"id":"way/1525543026","category":"school","name":"东方红小学","nameEn":"Dongfanghong Primary School","place":null,"source":"OpenStreetMap contributors","snapshot":"2026-07-02T16:51:45Z","dataStatus":"documented-current-map"},"geometry":{"type":"Point","coordinates":[126.9759272,47.465377]}}]}
