{
"type": "FeatureCollection",
"name": "personal_places_enriched",
"crs": { "type": "name", "properties": { "name": "urn:ogc:def:crs:OGC:1.3:CRS84" } },
"features": [
{ "type": "Feature", "properties": { "place_id": "bryant_park", "label": "Bryant Park", "category": "open_space", "period": "2026 coursework", "narrative_note": "A public-space reference used to compare an open block with the surrounding Midtown office fabric.", "privacy_level": "public_site", "nta_name": "Midtown-Times Square", "nta2020": "MN0502", "rent_area_id": "midtown", "rent_area_name": "Midtown", "baseline_rent_usd": 4200, "latest_rent_usd": 5765, "rent_change_usd": 1565, "growth_pct": 37.3, "rent_area_point_distance_m": 179.84051312351545, "nearest_subway_station": "5 Av", "stop_id": "724", "subway_routes": "7 7X", "subway_distance_m": 109.77301962262365, "analysis_crs": "EPSG:2263", "rent_relation": "nearest StreetEasy reporting-area representative point", "subway_relation": "nearest station point by projected straight-line distance" }, "geometry": { "type": "Point", "coordinates": [ -73.98323, 40.7536 ] } },
{ "type": "Feature", "properties": { "place_id": "columbia_gsapp", "label": "Columbia GSAPP", "category": "school", "period": "Summer 2026", "narrative_note": "A public study anchor repeatedly used as the origin of the author's Columbia mapping work.", "privacy_level": "public_site", "nta_name": "Morningside Heights", "nta2020": "MN0901", "rent_area_id": "morningside_heights", "rent_area_name": "Morningside Heights", "baseline_rent_usd": 3400, "latest_rent_usd": 4800, "rent_change_usd": 1400, "growth_pct": 41.2, "rent_area_point_distance_m": 11.104943188288976, "nearest_subway_station": "116 St-Columbia University", "stop_id": "117", "subway_routes": "1", "subway_distance_m": 128.13012994944384, "analysis_crs": "EPSG:2263", "rent_relation": "nearest StreetEasy reporting-area representative point", "subway_relation": "nearest station point by projected straight-line distance" }, "geometry": { "type": "Point", "coordinates": [ -73.9626, 40.8076 ] } },
{ "type": "Feature", "properties": { "place_id": "grand_central_terminal", "label": "Grand Central Terminal", "category": "transit", "period": "2026 coursework", "narrative_note": "A recurring transit reference in the author's street-view and commute-network analyses.", "privacy_level": "public_site", "nta_name": "East Midtown-Turtle Bay", "nta2020": "MN0604", "rent_area_id": "midtown_east", "rent_area_name": "Midtown East", "baseline_rent_usd": 3400, "latest_rent_usd": 5095, "rent_change_usd": 1695, "growth_pct": 49.9, "rent_area_point_distance_m": 528.38773178390932, "nearest_subway_station": "Grand Central-42 St", "stop_id": "631", "subway_routes": "4 5 6 6X", "subway_distance_m": 110.74301316291837, "analysis_crs": "EPSG:2263", "rent_relation": "nearest StreetEasy reporting-area representative point", "subway_relation": "nearest station point by projected straight-line distance" }, "geometry": { "type": "Point", "coordinates": [ -73.97723, 40.75273 ] } },
{ "type": "Feature", "properties": { "place_id": "koreatown_32nd_st", "label": "Koreatown 32nd Street", "category": "fieldwork", "period": "2026 coursework", "narrative_note": "A course observation point selected to study restaurant frontage and a fine-grained commercial corridor.", "privacy_level": "intersection", "nta_name": "Midtown South-Flatiron-Union Square", "nta2020": "MN0501", "rent_area_id": "midtown_south", "rent_area_name": "Midtown South", "baseline_rent_usd": 3930, "latest_rent_usd": 5450, "rent_change_usd": 1520, "growth_pct": 38.7, "rent_area_point_distance_m": 186.36354008260514, "nearest_subway_station": "34 St-Herald Sq", "stop_id": "R17", "subway_routes": "N Q R W", "subway_distance_m": 210.21559161923273, "analysis_crs": "EPSG:2263", "rent_relation": "nearest StreetEasy reporting-area representative point", "subway_relation": "nearest station point by projected straight-line distance" }, "geometry": { "type": "Point", "coordinates": [ -73.9867, 40.74793 ] } },
{ "type": "Feature", "properties": { "place_id": "union_square", "label": "Union Square", "category": "public_space", "period": "2026 coursework", "narrative_note": "A transit-rich public square selected for observing mixed civic, commercial, and neighborhood activity.", "privacy_level": "public_site", "nta_name": "Midtown South-Flatiron-Union Square", "nta2020": "MN0501", "rent_area_id": "gramercy_park", "rent_area_name": "Gramercy Park", "baseline_rent_usd": 3600, "latest_rent_usd": 5350, "rent_change_usd": 1750, "growth_pct": 48.6, "rent_area_point_distance_m": 553.59477997689248, "nearest_subway_station": "14 St-Union Sq", "stop_id": "R20", "subway_routes": "N Q R W", "subway_distance_m": 45.38776316616061, "analysis_crs": "EPSG:2263", "rent_relation": "nearest StreetEasy reporting-area representative point", "subway_relation": "nearest station point by projected straight-line distance" }, "geometry": { "type": "Point", "coordinates": [ -73.99108, 40.73586 ] } },
{ "type": "Feature", "properties": { "place_id": "washington_square_park", "label": "Washington Square Park", "category": "public_space", "period": "2026 coursework", "narrative_note": "A downtown public-space anchor used to extend the coursework mental map beyond Midtown and Morningside Heights.", "privacy_level": "public_site", "nta_name": "Greenwich Village", "nta2020": "MN0202", "rent_area_id": "greenwich_village", "rent_area_name": "Greenwich Village", "baseline_rent_usd": 3900, "latest_rent_usd": 5850, "rent_change_usd": 1950, "growth_pct": 50.0, "rent_area_point_distance_m": 308.72434446880737, "nearest_subway_station": "W 4 St-Wash Sq", "stop_id": "A32", "subway_routes": "A C E", "subway_distance_m": 316.06909761642254, "analysis_crs": "EPSG:2263", "rent_relation": "nearest StreetEasy reporting-area representative point", "subway_relation": "nearest station point by projected straight-line distance" }, "geometry": { "type": "Point", "coordinates": [ -73.99733, 40.73082 ] } }
]
}
