{"type": "FeatureCollection", "features": [{"type": "Feature", "properties": {"ip": "23.48.224.204", "url": "https://www.mcdonalds.com/2dNwfi/VHAIW/Km-aj/xQ/rap7zJhcYSwpNw3DpE/IDZSAQ/BUx7/XXFNUBsB"}, "geometry": {"type": "Point", "coordinates": [-74.0565, 40.7895]}}, {"type": "Feature", "properties": {"ip": "23.44.201.167", "url": "https://s7d1.scene7.com/is/image/mcdonalds/DC_202008_9840_EVM_HB_BaconEggCheeseMcGriddle_Coffee_Glass_1564x1564-1:nutrition-calculator-tile?fmt=png-alpha"}, "geometry": {"type": "Point", "coordinates": [-74.0565, 40.7895]}}, {"type": "Feature", "properties": {"ip": "23.50.76.140", "url": "https://assets.adobedtm.com/da51ad226ecd/a66f000a15e9/291fdf02c2d3/RCfc2d7b2dba484e76bb1c05a176f8e65e-source.min.js"}, "geometry": {"type": "Point", "coordinates": [-74.006, 40.7143]}}, {"type": "Feature", "properties": {"ip": "104.18.86.42", "url": "https://cdn.cookielaw.org/logos/static/powered_by_logo.svg"}, "geometry": {"type": "Point", "coordinates": [-122.3971, 37.7621]}}, {"type": "Feature", "properties": {"ip": "50.116.49.173", "url": "https://www.google.com/rmkt/collect/933833389/?random=1785290723289&cv=11&fst=1785290723289&fmt=8&bg=ffffff&guid=ON&async=1&en=gtag.config&gtm=45be67r2v899214424za200zd899214424xec&gcd=13n3n3n3n5l1&dma=0&tag_exp=115938465~115938469~118395335~118897920~118897930~119527020~119896802&u_w=1512&u_h=982&url=https%3A%2F%2Fwww.mcdonalds.com%2Fus%2Fen-us%2Ffull-menu.html&ref=https%3A%2F%2Fwww.mcdonalds.com%2Fus%2Fen-us.html&rcb=0&frm=0&tiba=McDonald%E2%80%99s%20Menu%3A%20Our%20Full%20McDonald%E2%80%99s%20Food%20Menu%20%7C%20McDonald%E2%80%99s&did=dYWJhMj&gdid=dYWJhMj&hn=www.googleadservices.com&npa=0&pscdl=noapi&auid=1303048442.1785290628&data=event%3Dgtag.config&ept=68&gcp=5"}, "geometry": {"type": "Point", "coordinates": [-74.4488, 40.822]}}, {"type": "Feature", "properties": {"ip": "23.195.100.143", "url": "https://c.go-mpulse.net/api/config.json?key=FYHYC-U4X46-PMZ7K-XB8KU-R9ZBH&d=www.mcdonalds.com&t=5950969&v=1.632.0&sl=0&si=fs5ta7c3v94-tiwz2c&plugins=AK,ConfigOverride,Continuity,PageParams,IFrameDelay,AutoXHR,SPA,Angular,Backbone,Ember,History,RT,CrossDomain,BW,PaintTiming,NavigationTiming,ResourceTiming,Memory,CACHE_RELOAD,Errors,TPAnalytics,UserTiming,Akamai,LOGN&acao=&ak.ai=248813"}, "geometry": {"type": "Point", "coordinates": [-74.4121, 40.5187]}}, {"type": "Feature", "properties": {"ip": "151.101.130.133", "url": "https://mp-us1.mcdonalds.com/webevents/v3/JS/us1-f5d40ef4a8698a4bb307833a57349d29/events"}, "geometry": {"type": "Point", "coordinates": [-122.3971, 37.7621]}}, {"type": "Feature", "properties": {"ip": "142.251.211.200", "url": "https://www.googletagmanager.com/gtag/js?id=AW-933833389"}, "geometry": {"type": "Point", "coordinates": [-74.006, 40.7143]}}, {"type": "Feature", "properties": {"ip": "23.222.124.185", "url": "https://s.go-mpulse.net/boomerang/FYHYC-U4X46-PMZ7K-XB8KU-R9ZBH"}, "geometry": {"type": "Point", "coordinates": [-74.0565, 40.7895]}}, {"type": "Feature", "properties": {"ip": "172.64.155.119", "url": "https://privacyportal-mcdonalds.my.onetrust.com/request/v1/consentreceipts"}, "geometry": {"type": "Point", "coordinates": [-122.3971, 37.7621]}}, {"type": "Feature", "properties": {"ip": "151.101.193.91", "url": "https://rum.hlx.page/.rum/@adobe/helix-rum-js@%5E2/dist/micro.js"}, "geometry": {"type": "Point", "coordinates": [-122.3971, 37.7621]}}, {"type": "Feature", "properties": {"ip": "142.251.211.98", "url": "https://googleads.g.doubleclick.net/pagead/viewthroughconversion/933833389/?random=1785290765672&cv=11&fst=1785290765672&bg=ffffff&guid=ON&async=1&en=gtag.config&gtm=45be67s0h2v899214424za200zd899214424xec&gcd=13n3n3n3n5l1&dma=0&tag_exp=115938465~115938468~118395333~118897920~118897930~119527019~119896802&u_w=1512&u_h=982&url=https%3A%2F%2Fwww.mcdonalds.com%2Fus%2Fen-us%2Fproduct%2Fstrawberry-banana-smoothie-medium.html&ref=https%3A%2F%2Fwww.mcdonalds.com%2Fus%2Fen-us%2Fproduct%2Fstrawberry-banana-smoothie-small.html&rcb=6&frm=0&tiba=Strawberry%20Banana%20Smoothie%3A%20Yogurt%20Smoothie%20%7C%20McDonald%27s&did=dYWJhMj&gdid=dYWJhMj&hn=www.googleadservices.com&npa=0&pscdl=noapi&auid=1303048442.1785290628&data=event%3Dgtag.config&ept=9&rfmt=3&fmt=4"}, "geometry": {"type": "Point", "coordinates": [-74.006, 40.7143]}}, {"type": "Feature", "properties": {"ip": "104.18.32.137", "url": "https://geolocation.onetrust.com/cookieconsentpub/v1/geo/location"}, "geometry": {"type": "Point", "coordinates": [-122.3971, 37.7621]}}, {"type": "Feature", "properties": {"ip": "142.250.217.6", "url": "https://ad.doubleclick.net/ccm/s/collect?auid=1303048442.1785290628&gtm=45be67r2v899214424za200zd899214424xec"}, "geometry": {"type": "Point", "coordinates": [-74.006, 40.7143]}}, {"type": "Feature", "properties": {"ip": "151.101.1.91", "url": "https://rum.hlx.page/.rum/@adobe/helix-rum-js@%5E2/dist/micro.js"}, "geometry": {"type": "Point", "coordinates": [-122.3971, 37.7621]}}]}