{
"type": "FeatureCollection",
"name": "bryant_park_pause_candidates",
"crs": { "type": "name", "properties": { "name": "urn:ogc:def:crs:OGC:1.3:CRS84" } },
"features": [
{ "type": "Feature", "properties": { "candidate_id": "DOT_SEAT.2024.0287", "candidate_type": "DOT Bench", "candidate_name": "1010 6 Avenue", "access_note": "Public NYC DOT seating", "seating_type": "BACKLESS 2.0", "sample_id": "SEG_0020_P006", "segment_id": "SEG_0020", "street_name": "AVE OF THE AMERICAS", "sample_link_distance_m": 11.92110636750507, "tree_distance_m": 69.941506448670253, "building_distance_m": 15.21278716207453, "tree_class": "Tree Far", "building_class": "Building Far", "visual_condition": "Open Field", "orientation_group": "North–South / Avenue-like", "screening_potential": false }, "geometry": { "type": "Point", "coordinates": [ -73.985952, 40.752101 ] } },
{ "type": "Feature", "properties": { "candidate_id": "DOT_SEAT.2024.0471", "candidate_type": "DOT Bench", "candidate_name": "966 6 Avenue", "access_note": "Public NYC DOT seating", "seating_type": "BACKLESS 2.0", "sample_id": "SEG_0022_P004", "segment_id": "SEG_0022", "street_name": "AVE OF THE AMERICAS", "sample_link_distance_m": 11.650034593269517, "tree_distance_m": 54.066287182593761, "building_distance_m": 15.206593453222311, "tree_class": "Tree Far", "building_class": "Building Far", "visual_condition": "Open Field", "orientation_group": "North–South / Avenue-like", "screening_potential": false }, "geometry": { "type": "Point", "coordinates": [ -73.986985, 40.750679 ] } },
{ "type": "Feature", "properties": { "candidate_id": "DOT_SEAT.2024.0483", "candidate_type": "DOT Bench", "candidate_name": "1060 6 Avenue", "access_note": "Public NYC DOT seating", "seating_type": "BACKLESS 2.0", "sample_id": "SEG_0038_P026", "segment_id": "SEG_0038", "street_name": "W 42 ST", "sample_link_distance_m": 11.133595488076676, "tree_distance_m": 14.837277002018745, "building_distance_m": 15.277248157736754, "tree_class": "Tree Near", "building_class": "Building Far", "visual_condition": "Vegetated Buffer", "orientation_group": "East–West / Cross-street-like", "screening_potential": true }, "geometry": { "type": "Point", "coordinates": [ -73.983614, 40.754525 ] } },
{ "type": "Feature", "properties": { "candidate_id": "DOT_SEAT.2024.0493", "candidate_type": "DOT Bench", "candidate_name": "562 5 Avenue", "access_note": "Public NYC DOT seating", "seating_type": "BACKLESS 2.0", "sample_id": "SEG_0104_P002", "segment_id": "SEG_0104", "street_name": "5 AVE", "sample_link_distance_m": 10.226655208070593, "tree_distance_m": 9.9906718520610269, "building_distance_m": 15.286358707695216, "tree_class": "Tree Near", "building_class": "Building Far", "visual_condition": "Vegetated Buffer", "orientation_group": "North–South / Avenue-like", "screening_potential": true }, "geometry": { "type": "Point", "coordinates": [ -73.979041, 40.756207 ] } },
{ "type": "Feature", "properties": { "candidate_id": "DOT_SEAT.2024.0497", "candidate_type": "DOT Bench", "candidate_name": "386 5 Avenue", "access_note": "Public NYC DOT seating", "seating_type": "BACKLESS 2.0", "sample_id": "SEG_0013_P006", "segment_id": "SEG_0013", "street_name": "5 AVE", "sample_link_distance_m": 11.159011107546432, "tree_distance_m": 11.235112218299149, "building_distance_m": 15.276908084270946, "tree_class": "Tree Near", "building_class": "Building Far", "visual_condition": "Vegetated Buffer", "orientation_group": "North–South / Avenue-like", "screening_potential": true }, "geometry": { "type": "Point", "coordinates": [ -73.983888, 40.749571 ] } },
{ "type": "Feature", "properties": { "candidate_id": "DOT_SEAT.2024.0591", "candidate_type": "DOT Bench", "candidate_name": "12 E 42 Street", "access_note": "Public NYC DOT seating", "seating_type": "BACKLESS 2.0", "sample_id": "SEG_0096_P006", "segment_id": "SEG_0096", "street_name": "E 42 ST", "sample_link_distance_m": 11.28641336537078, "tree_distance_m": 28.286331091599163, "building_distance_m": 15.603056135598754, "tree_class": "Tree Near", "building_class": "Building Far", "visual_condition": "Vegetated Buffer", "orientation_group": "East–West / Cross-street-like", "screening_potential": true }, "geometry": { "type": "Point", "coordinates": [ -73.980421, 40.753181 ] } },
{ "type": "Feature", "properties": { "candidate_id": "DOT_SEAT.2025.0014", "candidate_type": "DOT Bench", "candidate_name": "52 Park Avenue", "access_note": "Public NYC DOT seating", "seating_type": "BACKED 2.0", "sample_id": "SEG_0057_P003", "segment_id": "SEG_0057", "street_name": "PARK AVE", "sample_link_distance_m": 6.5910457751791212, "tree_distance_m": 6.84519423812693, "building_distance_m": 12.593574524979164, "tree_class": "Tree Near", "building_class": "Building Far", "visual_condition": "Vegetated Buffer", "orientation_group": "North–South / Avenue-like", "screening_potential": true }, "geometry": { "type": "Point", "coordinates": [ -73.979974, 40.749256 ] } },
{ "type": "Feature", "properties": { "candidate_id": "DOT_SEAT.2026.0710", "candidate_type": "DOT Bench", "candidate_name": "950 6 Avenue", "access_note": "Public NYC DOT seating", "seating_type": "BACKLESS 2.0", "sample_id": "SEG_0008_P007", "segment_id": "SEG_0008", "street_name": "AVE OF THE AMERICAS", "sample_link_distance_m": 10.504331270012372, "tree_distance_m": 70.019846137361199, "building_distance_m": 13.946018148201137, "tree_class": "Tree Far", "building_class": "Building Far", "visual_condition": "Open Field", "orientation_group": "North–South / Avenue-like", "screening_potential": false }, "geometry": { "type": "Point", "coordinates": [ -73.987279, 40.750299 ] } },
{ "type": "Feature", "properties": { "candidate_id": "DOT_SEAT.2026.0742", "candidate_type": "DOT Bench", "candidate_name": "22 Madison Avenue", "access_note": "Public NYC DOT seating", "seating_type": "BACKLESS 2.0", "sample_id": "SEG_0101_P003", "segment_id": "SEG_0101", "street_name": "MADISON AVE", "sample_link_distance_m": 10.148733686058177, "tree_distance_m": 8.2548614272822682, "building_distance_m": 12.304600621766008, "tree_class": "Tree Near", "building_class": "Building Far", "visual_condition": "Vegetated Buffer", "orientation_group": "North–South / Avenue-like", "screening_potential": true }, "geometry": { "type": "Point", "coordinates": [ -73.978521, 40.753684 ] } },
{ "type": "Feature", "properties": { "candidate_id": "POPS_M050049", "candidate_type": "POPS with seating", "candidate_name": "575 FIFTH AVENUE, New York, NY 10017", "access_note": "Restricted Hours", "seating_type": "Covered Pedestrian Space", "sample_id": "SEG_0104_P006", "segment_id": "SEG_0104", "street_name": "5 AVE", "sample_link_distance_m": 45.351823486925682, "tree_distance_m": 10.401741453663856, "building_distance_m": 21.368194561179386, "tree_class": "Tree Near", "building_class": "Building Far", "visual_condition": "Vegetated Buffer", "orientation_group": "North–South / Avenue-like", "screening_potential": true }, "geometry": { "type": "Point", "coordinates": [ -73.978242, 40.756268 ] } },
{ "type": "Feature", "properties": { "candidate_id": "POPS_M050054", "candidate_type": "POPS with seating", "candidate_name": "1155 SIXTH AVENUE, New York, NY 10036", "access_note": "24 Hours", "seating_type": "Arcade; Sidewalk Widening; Urban Plaza", "sample_id": "SEG_0055_P005", "segment_id": "SEG_0055", "street_name": "AVE OF THE AMERICAS", "sample_link_distance_m": 42.149593434464464, "tree_distance_m": 47.938776640018894, "building_distance_m": 16.248543868534284, "tree_class": "Tree Far", "building_class": "Building Far", "visual_condition": "Open Field", "orientation_group": "North–South / Avenue-like", "screening_potential": false }, "geometry": { "type": "Point", "coordinates": [ -73.98336, 40.756672 ] } },
{ "type": "Feature", "properties": { "candidate_id": "POPS_M050055", "candidate_type": "POPS with seating", "candidate_name": "1133 SIXTH AVENUE, New York, NY 10036", "access_note": "24 Hours", "seating_type": "Plaza", "sample_id": "SEG_0053_P005", "segment_id": "SEG_0053", "street_name": "W 43 ST", "sample_link_distance_m": 41.928264722602748, "tree_distance_m": 5.5309711971255746, "building_distance_m": 9.4141306993660603, "tree_class": "Tree Near", "building_class": "Building Near", "visual_condition": "Screened Edge", "orientation_group": "East–West / Cross-street-like", "screening_potential": true }, "geometry": { "type": "Point", "coordinates": [ -73.983866, 40.756057 ] } },
{ "type": "Feature", "properties": { "candidate_id": "POPS_M050057", "candidate_type": "POPS with seating", "candidate_name": "Grace", "access_note": "24 Hours", "seating_type": "Arcade; Plaza", "sample_id": "SEG_0109_P022", "segment_id": "SEG_0109", "street_name": "W 43 ST", "sample_link_distance_m": 36.135237605492108, "tree_distance_m": 72.33249044594973, "building_distance_m": 9.1239375658714579, "tree_class": "Tree Far", "building_class": "Building Near", "visual_condition": "Exposed Edge", "orientation_group": "East–West / Cross-street-like", "screening_potential": false }, "geometry": { "type": "Point", "coordinates": [ -73.982848, 40.754825 ] } },
{ "type": "Feature", "properties": { "candidate_id": "POPS_M050059", "candidate_type": "POPS with seating", "candidate_name": "Philip Morris", "access_note": "24 Hours; Restricted Hours", "seating_type": "Arcade; Covered Pedestrian Space", "sample_id": "SEG_0097_P012", "segment_id": "SEG_0097", "street_name": "E 41 ST", "sample_link_distance_m": 39.402040843494717, "tree_distance_m": 7.2008827418672023, "building_distance_m": 8.9846277392205423, "tree_class": "Tree Near", "building_class": "Building Near", "visual_condition": "Screened Edge", "orientation_group": "East–West / Cross-street-like", "screening_potential": true }, "geometry": { "type": "Point", "coordinates": [ -73.978305, 40.751928 ] } },
{ "type": "Feature", "properties": { "candidate_id": "POPS_M050060", "candidate_type": "POPS with seating", "candidate_name": "Bell Atlantic", "access_note": "24 Hours", "seating_type": "Special Permit Plaza; Subway Concourse", "sample_id": "SEG_0040_P007", "segment_id": "SEG_0040", "street_name": "W 41 ST", "sample_link_distance_m": 38.850367980818213, "tree_distance_m": 134.62487111780086, "building_distance_m": 9.3321894596330157, "tree_class": "Tree Far", "building_class": "Building Near", "visual_condition": "Exposed Edge", "orientation_group": "East–West / Cross-street-like", "screening_potential": false }, "geometry": { "type": "Point", "coordinates": [ -73.985006, 40.754754 ] } },
{ "type": "Feature", "properties": { "candidate_id": "POPS_M050062", "candidate_type": "POPS with seating", "candidate_name": "Fifth Avenue Tower", "access_note": "24 Hours", "seating_type": "Urban Plaza", "sample_id": "SEG_0089_P004", "segment_id": "SEG_0089", "street_name": "E 39 ST", "sample_link_distance_m": 21.931727060815263, "tree_distance_m": 5.4921239355937779, "building_distance_m": 9.5441178265501012, "tree_class": "Tree Near", "building_class": "Building Near", "visual_condition": "Screened Edge", "orientation_group": "East–West / Cross-street-like", "screening_potential": true }, "geometry": { "type": "Point", "coordinates": [ -73.981752, 40.751588 ] } },
{ "type": "Feature", "properties": { "candidate_id": "POPS_M050063", "candidate_type": "POPS with seating", "candidate_name": "World Apparel Center", "access_note": "24 Hours", "seating_type": "Arcade; Plaza", "sample_id": "SEG_0042_P005", "segment_id": "SEG_0042", "street_name": "W 40 ST", "sample_link_distance_m": 41.411372386375675, "tree_distance_m": 45.822869956702959, "building_distance_m": 9.2592540748941783, "tree_class": "Tree Far", "building_class": "Building Near", "visual_condition": "Exposed Edge", "orientation_group": "East–West / Cross-street-like", "screening_potential": false }, "geometry": { "type": "Point", "coordinates": [ -73.987566, 40.754194 ] } },
{ "type": "Feature", "properties": { "candidate_id": "POPS_M050082", "candidate_type": "POPS with seating", "candidate_name": "420 FIFTH AVENUE, New York, NY 10018", "access_note": "24 Hours", "seating_type": "Urban Plaza", "sample_id": "SEG_0017_P004", "segment_id": "SEG_0017", "street_name": "5 AVE", "sample_link_distance_m": 36.875137390652064, "tree_distance_m": 7.9906426566831588, "building_distance_m": 14.944013340722817, "tree_class": "Tree Near", "building_class": "Building Far", "visual_condition": "Vegetated Buffer", "orientation_group": "North–South / Avenue-like", "screening_potential": true }, "geometry": { "type": "Point", "coordinates": [ -73.983336, 40.750812 ] } },
{ "type": "Feature", "properties": { "candidate_id": "POPS_M050103", "candidate_type": "POPS with seating", "candidate_name": "425 FIFTH AVENUE, New York, NY 10016", "access_note": "24 Hours", "seating_type": "Pedestrian Circulation Space; Urban Plaza", "sample_id": "SEG_0087_P004", "segment_id": "SEG_0087", "street_name": "E 38 ST", "sample_link_distance_m": 21.735761153613971, "tree_distance_m": 9.0565351575171853, "building_distance_m": 9.5221307641367439, "tree_class": "Tree Near", "building_class": "Building Near", "visual_condition": "Screened Edge", "orientation_group": "East–West / Cross-street-like", "screening_potential": true }, "geometry": { "type": "Point", "coordinates": [ -73.982199, 40.750965 ] } }
]
}
