{"type": "FeatureCollection", "features": [{"type": "Feature", "properties": {"ip": "151.101.46.217", "url": "https://vjs.zencdn.net/5.8/video.min.js"}, "geometry": {"type": "Point", "coordinates": [-74.006, 40.7143]}}, {"type": "Feature", "properties": {"ip": "162.247.243.39", "url": "https://js-agent.newrelic.com/nr-rum-1.319.0.min.js"}, "geometry": {"type": "Point", "coordinates": [-122.3892, 37.7864]}}, {"type": "Feature", "properties": {"ip": "108.138.125.147", "url": "https://d37vpt3xizf75m.cloudfront.net/api/file/3yUtQkiWRMaL2Z8ZrMF3/convert?fit=clip&h=&quality=95&w=816&compress=true&fit=clip"}, "geometry": {"type": "Point", "coordinates": [-74.006, 40.7143]}}, {"type": "Feature", "properties": {"ip": "151.101.46.133", "url": "https://www.filepicker.io/api/file/DvbnuctQ2CgyMCespKXz"}, "geometry": {"type": "Point", "coordinates": [-74.006, 40.7143]}}, {"type": "Feature", "properties": {"ip": "172.217.115.4", "url": "https://maps.googleapis.com/maps/api/mapsjs/gen_204?csp_test=true"}, "geometry": {"type": "Point", "coordinates": [-122.1175, 38.0088]}}, {"type": "Feature", "properties": {"ip": "142.251.40.238", "url": "https://analytics.google.com/g/collect?v=2&tid=G-JYEQBPW4VK&gtm=45je6852h2v9134445253za200&_p=1786043366733&gcd=13l3l3l3l1l1&npa=0&dma=0&_eu=EAAAACQC&are=1&cid=404609000.1781866940&frm=0&ibt=1&ir=1&ngs=1&pscdl=noapi&rcb=18&sr=1920x1080&uaa=x86&uab=64&uafvl=Not%253BA%253DBrand%3B8.0.0.0%7CChromium%3B150.0.7871.189%7CGoogle%2520Chrome%3B150.0.7871.189&uam=&uamb=0&uap=Windows&uapv=15.0.0&uaw=0&ul=en-us&tag_exp=115616986~115938465~115938468~118897920~118897930~119527020~119896803&sid=1786043290&sct=18&seg=1&dl=https%3A%2F%2Fwww.arch.columbia.edu%2F&dt=Home%20-%20Columbia%20GSAPP&_s=1&tfd=5843"}, "geometry": {"type": "Point", "coordinates": [-74.006, 40.7143]}}, {"type": "Feature", "properties": {"ip": "172.217.114.4", "url": "https://maps.googleapis.com/maps-api-v3/api/js/65/12f/util.js"}, "geometry": {"type": "Point", "coordinates": [-122.1175, 38.0088]}}, {"type": "Feature", "properties": {"ip": "2001:4860:4827:7700::", "url": "https://www.youtube.com/s/player/854a788e/www-widgetapi.vflset/www-widgetapi.js"}, "geometry": {"type": "Point", "coordinates": [-122.1175, 38.0088]}}, {"type": "Feature", "properties": {"ip": "35.71.145.101", "url": "https://www.arch.columbia.edu/"}, "geometry": {"type": "Point", "coordinates": [-122.3476, 47.6339]}}, {"type": "Feature", "properties": {"ip": "104.17.25.14", "url": "https://cdnjs.cloudflare.com/ajax/libs/videojs-youtube/2.1.1/Youtube.js"}, "geometry": {"type": "Point", "coordinates": [-122.3971, 37.7621]}}, {"type": "Feature", "properties": {"ip": "151.101.65.155", "url": "https://code.jquery.com/ui/1.12.1/jquery-ui.min.js"}, "geometry": {"type": "Point", "coordinates": [-122.3971, 37.7621]}}, {"type": "Feature", "properties": {"ip": "162.247.243.29", "url": "https://bam.nr-data.net/1/NRJS-b5ac9db1333d8077889?a=568760387&v=1.319.0&to=IFhbTUQOD1lcRRgLWg5SaklXBgYaSl9YFA%3D%3D&rst=4885&ck=0&s=a7cc79331ad035fc&ref=https://www.arch.columbia.edu/&ptid=d1bd89371678be2a&qt=2&ap=259&be=338&fe=4386&dc=375&fsh=0&perf=%7B%22timing%22:%7B%22of%22:1786043366165,%22n%22:0,%22u%22:355,%22ue%22:355,%22f%22:1,%22dn%22:4,%22dne%22:25,%22c%22:25,%22s%22:39,%22ce%22:57,%22rq%22:57,%22rp%22:338,%22rpe%22:441,%22di%22:658,%22ds%22:658,%22de%22:713,%22dc%22:4722,%22l%22:4722,%22le%22:4724%7D,%22navigation%22:%7B%7D%7D&fp=756&fcp=756&timestamp=1786043371249"}, "geometry": {"type": "Point", "coordinates": [-122.3892, 37.7864]}}, {"type": "Feature", "properties": {"ip": "142.250.191.8", "url": "https://www.googletagmanager.com/gtag/js?id=G-JYEQBPW4VK&cx=c&gtm=4e6850h1"}, "geometry": {"type": "Point", "coordinates": [-74.006, 40.7143]}}, {"type": "Feature", "properties": {"ip": "31.13.71.7", "url": "https://connect.facebook.net/en_US/fbevents.js"}, "geometry": {"type": "Point", "coordinates": [-74.006, 40.7143]}}, {"type": "Feature", "properties": {"ip": "31.13.71.36", "url": "https://www.facebook.com/tr/?id=2359763880923005&ev=PageView&dl=https%3A%2F%2Fwww.arch.columbia.edu%2F&rl=&if=false&ts=1786043366922&iw=false&sw=1920&sh=1080&v=2.9.370&r=stable&ec=0&o=12318&aems=0%3B0&fbp=fb.1.1781867107631.63046196921901668&ler=empty&cdl=API_unavailable&pmd[title]=Home%20-%20Columbia%20GSAPP&pmd[locale]=en&pmd[description]=Columbia%20University%20Graduate%20School%20of%20Architecture%2C%20Planning%20and%20Preservation&pmd[keywords]=&plt=712.8999999985099&iss=1&imft=1&tz=-240&it=1786043366632&coo=false&expv2[0]=pl0&expv2[1]=el2&expv2[2]=bc1&expv2[3]=ra2&expv2[4]=rp2&expv2[5]=ct3&expv2[6]=hf1&expv2[7]=sd1&expv2[8]=sp1&expv2[9]=ek1&expv2[10]=pc1&expv2[11]=gs1&expv2[12]=zs1&expv2[13]=cp1&expv2[14]=es1&expv2[15]=ac1&expv2[16]=so1&expv2[17]=wc1&expv2[18]=la1&expv2[19]=sf1&expv2[20]=da1&expv2[21]=io1&expv2[22]=ae1&expv2[23]=sx1&expv2[24]=if1&expv2[25]=fd1&expv2[26]=bg1&expv2[27]=mg1&expv2[28]=kl1&expv2[29]=sg1&expv2[30]=mk1&expv2[31]=sn1&expv2[32]=ec1&expv2[33]=mp1&expv2[34]=ps1&expv2[35]=fx1&expv2[36]=vt1&rqm=GET"}, "geometry": {"type": "Point", "coordinates": [-74.006, 40.7143]}}, {"type": "Feature", "properties": {"ip": "142.251.157.4", "url": "https://www.youtube.com/iframe_api"}, "geometry": {"type": "Point", "coordinates": [-122.1175, 38.0088]}}]}