{
"type": "FeatureCollection",
"name": "rent_gap_hex_grid",
"crs": { "type": "name", "properties": { "name": "urn:ogc:def:crs:OGC:1.3:CRS84" } },
"features": [
{ "type": "Feature", "properties": { "grid_id": 670, "bright_median_rent": 3.948051948051948, "bright_count": 6.0, "dark_median_rent": 6.67, "dark_count": 1.0, "rent_gap": -2.7219480519480519 }, "geometry": { "type": "Polygon", "coordinates": [ [ [ 116.155453476940565, 39.736374999707309 ], [ 116.147368639383501, 39.747142648327106 ], [ 116.131198964269359, 39.747142648327106 ], [ 116.123114126712252, 39.736374999707309 ], [ 116.131198964269359, 39.725605668649742 ], [ 116.147368639383501, 39.725605668649742 ], [ 116.155453476940565, 39.736374999707309 ] ] ] } },
{ "type": "Feature", "properties": { "grid_id": 840, "bright_median_rent": 7.0, "bright_count": 55.0, "dark_median_rent": 3.8, "dark_count": 1.0, "rent_gap": 3.2 }, "geometry": { "type": "Polygon", "coordinates": [ [ [ 116.228217014954254, 39.919196119697098 ], [ 116.220132177397176, 39.929935149122237 ], [ 116.203962502283034, 39.929935149122237 ], [ 116.195877664725955, 39.919196119697098 ], [ 116.203962502283034, 39.908455405873241 ], [ 116.220132177397176, 39.908455405873241 ], [ 116.228217014954254, 39.919196119697098 ] ] ] } },
{ "type": "Feature", "properties": { "grid_id": 894, "bright_median_rent": 11.904761904761903, "bright_count": 21.0, "dark_median_rent": 10.0, "dark_count": 1.0, "rent_gap": 1.9047619047619033 }, "geometry": { "type": "Polygon", "coordinates": [ [ [ 116.252471527625474, 39.908455405873241 ], [ 116.244386690068396, 39.919196119697098 ], [ 116.228217014954254, 39.919196119697098 ], [ 116.220132177397176, 39.908455405873241 ], [ 116.228217014954254, 39.89771300776399 ], [ 116.244386690068396, 39.89771300776399 ], [ 116.252471527625474, 39.908455405873241 ] ] ] } },
{ "type": "Feature", "properties": { "grid_id": 909, "bright_median_rent": 4.43, "bright_count": 16.0, "dark_median_rent": 3.945, "dark_count": 4.0, "rent_gap": 0.485 }, "geometry": { "type": "Polygon", "coordinates": [ [ [ 116.252471527625474, 40.229943655103817 ], [ 116.244386690068396, 40.240633788817611 ], [ 116.228217014954254, 40.240633788817611 ], [ 116.220132177397176, 40.229943655103817 ], [ 116.228217014954254, 40.219251833815655 ], [ 116.244386690068396, 40.219251833815655 ], [ 116.252471527625474, 40.229943655103817 ] ] ] } },
{ "type": "Feature", "properties": { "grid_id": 947, "bright_median_rent": 5.3840579710144922, "bright_count": 24.0, "dark_median_rent": 12.0, "dark_count": 1.0, "rent_gap": -6.6159420289855078 }, "geometry": { "type": "Polygon", "coordinates": [ [ [ 116.276726040296708, 39.89771300776399 ], [ 116.268641202739644, 39.908455405873248 ], [ 116.252471527625474, 39.908455405873248 ], [ 116.244386690068396, 39.89771300776399 ], [ 116.252471527625474, 39.886968925482904 ], [ 116.268641202739644, 39.886968925482904 ], [ 116.276726040296708, 39.89771300776399 ] ] ] } },
{ "type": "Feature", "properties": { "grid_id": 948, "bright_median_rent": 8.251101321585903, "bright_count": 4.0, "dark_median_rent": 0.5, "dark_count": 1.0, "rent_gap": 7.751101321585903 }, "geometry": { "type": "Polygon", "coordinates": [ [ [ 116.276726040296708, 39.919196119697098 ], [ 116.268641202739644, 39.929935149122237 ], [ 116.252471527625474, 39.929935149122237 ], [ 116.244386690068396, 39.919196119697098 ], [ 116.252471527625474, 39.908455405873241 ], [ 116.268641202739644, 39.908455405873241 ], [ 116.276726040296708, 39.919196119697098 ] ] ] } },
{ "type": "Feature", "properties": { "grid_id": 998, "bright_median_rent": 5.6, "bright_count": 8.0, "dark_median_rent": 4.5, "dark_count": 1.0, "rent_gap": 1.1 }, "geometry": { "type": "Polygon", "coordinates": [ [ [ 116.300980552967928, 39.822469070579473 ], [ 116.29289571541085, 39.833223255492477 ], [ 116.276726040296708, 39.833223255492477 ], [ 116.268641202739644, 39.822469070579473 ], [ 116.276726040296708, 39.811713202296716 ], [ 116.29289571541085, 39.811713202296716 ], [ 116.300980552967928, 39.822469070579473 ] ] ] } },
{ "type": "Feature", "properties": { "grid_id": 1004, "bright_median_rent": 7.0, "bright_count": 7.0, "dark_median_rent": 3.33, "dark_count": 1.0, "rent_gap": 3.67 }, "geometry": { "type": "Polygon", "coordinates": [ [ [ 116.300980552967928, 39.951408154324398 ], [ 116.29289571541085, 39.962142129876092 ], [ 116.276726040296708, 39.962142129876092 ], [ 116.268641202739644, 39.951408154324398 ], [ 116.276726040296708, 39.940672494035589 ], [ 116.29289571541085, 39.940672494035589 ], [ 116.300980552967928, 39.951408154324398 ] ] ] } },
{ "type": "Feature", "properties": { "grid_id": 1005, "bright_median_rent": 6.15, "bright_count": 6.0, "dark_median_rent": 10.0, "dark_count": 1.0, "rent_gap": -3.85 }, "geometry": { "type": "Polygon", "coordinates": [ [ [ 116.300980552967928, 39.972874420578371 ], [ 116.29289571541085, 39.983605026319218 ], [ 116.276726040296708, 39.983605026319218 ], [ 116.268641202739644, 39.972874420578371 ], [ 116.276726040296708, 39.962142129876085 ], [ 116.29289571541085, 39.962142129876085 ], [ 116.300980552967928, 39.972874420578371 ] ] ] } },
{ "type": "Feature", "properties": { "grid_id": 1051, "bright_median_rent": 3.3, "bright_count": 3.0, "dark_median_rent": 7.5, "dark_count": 1.0, "rent_gap": -4.2 }, "geometry": { "type": "Polygon", "coordinates": [ [ [ 116.325235065639149, 39.811713202296723 ], [ 116.31715022808207, 39.82246907057948 ], [ 116.300980552967928, 39.82246907057948 ], [ 116.29289571541085, 39.811713202296723 ], [ 116.300980552967928, 39.800955650759825 ], [ 116.31715022808207, 39.800955650759825 ], [ 116.325235065639149, 39.811713202296723 ] ] ] } },
{ "type": "Feature", "properties": { "grid_id": 1052, "bright_median_rent": 5.9961361498767127, "bright_count": 12.0, "dark_median_rent": 7.6666666666666661, "dark_count": 6.0, "rent_gap": -1.6705305167899533 }, "geometry": { "type": "Polygon", "coordinates": [ [ [ 116.325235065639149, 39.833223255492477 ], [ 116.31715022808207, 39.843975756920379 ], [ 116.300980552967928, 39.843975756920379 ], [ 116.29289571541085, 39.833223255492477 ], [ 116.300980552967928, 39.822469070579473 ], [ 116.31715022808207, 39.822469070579473 ], [ 116.325235065639149, 39.833223255492477 ] ] ] } },
{ "type": "Feature", "properties": { "grid_id": 1054, "bright_median_rent": 8.0, "bright_count": 9.0, "dark_median_rent": 8.89, "dark_count": 1.0, "rent_gap": -0.89 }, "geometry": { "type": "Polygon", "coordinates": [ [ [ 116.325235065639149, 39.876223159143798 ], [ 116.31715022808207, 39.886968925482911 ], [ 116.300980552967928, 39.886968925482911 ], [ 116.29289571541085, 39.876223159143798 ], [ 116.300980552967928, 39.865475708860743 ], [ 116.31715022808207, 39.865475708860743 ], [ 116.325235065639149, 39.876223159143798 ] ] ] } },
{ "type": "Feature", "properties": { "grid_id": 1057, "bright_median_rent": 14.05, "bright_count": 6.0, "dark_median_rent": 16.67, "dark_count": 3.0, "rent_gap": -2.62 }, "geometry": { "type": "Polygon", "coordinates": [ [ [ 116.325235065639149, 39.940672494035596 ], [ 116.31715022808207, 39.951408154324405 ], [ 116.300980552967928, 39.951408154324405 ], [ 116.29289571541085, 39.940672494035596 ], [ 116.300980552967928, 39.92993514912223 ], [ 116.31715022808207, 39.92993514912223 ], [ 116.325235065639149, 39.940672494035596 ] ] ] } },
{ "type": "Feature", "properties": { "grid_id": 1059, "bright_median_rent": 9.5, "bright_count": 45.0, "dark_median_rent": 11.435185185185185, "dark_count": 2.0, "rent_gap": -1.9351851851851851 }, "geometry": { "type": "Polygon", "coordinates": [ [ [ 116.325235065639149, 39.983605026319218 ], [ 116.31715022808207, 39.994333946986835 ], [ 116.300980552967928, 39.994333946986835 ], [ 116.29289571541085, 39.983605026319218 ], [ 116.300980552967928, 39.972874420578371 ], [ 116.31715022808207, 39.972874420578371 ], [ 116.325235065639149, 39.983605026319218 ] ] ] } },
{ "type": "Feature", "properties": { "grid_id": 1062, "bright_median_rent": 8.0, "bright_count": 52.0, "dark_median_rent": 13.33, "dark_count": 1.0, "rent_gap": -5.33 }, "geometry": { "type": "Polygon", "coordinates": [ [ [ 116.325235065639149, 40.047953270331803 ], [ 116.31715022808207, 40.058672078226806 ], [ 116.300980552967928, 40.058672078226806 ], [ 116.29289571541085, 40.047953270331803 ], [ 116.300980552967928, 40.037232776698204 ], [ 116.31715022808207, 40.037232776698204 ], [ 116.325235065639149, 40.047953270331803 ] ] ] } },
{ "type": "Feature", "properties": { "grid_id": 1063, "bright_median_rent": 3.3012820512820511, "bright_count": 5.0, "dark_median_rent": 11.111111111111111, "dark_count": 3.0, "rent_gap": -7.8098290598290596 }, "geometry": { "type": "Polygon", "coordinates": [ [ [ 116.325235065639149, 40.069389200273179 ], [ 116.31715022808207, 40.080104636361199 ], [ 116.300980552967928, 40.080104636361199 ], [ 116.29289571541085, 40.069389200273179 ], [ 116.300980552967928, 40.058672078226792 ], [ 116.31715022808207, 40.058672078226792 ], [ 116.325235065639149, 40.069389200273179 ] ] ] } },
{ "type": "Feature", "properties": { "grid_id": 1100, "bright_median_rent": 3.62, "bright_count": 5.0, "dark_median_rent": 8.33, "dark_count": 1.0, "rent_gap": -4.71 }, "geometry": { "type": "Polygon", "coordinates": [ [ [ 116.349489578310383, 39.693287582028255 ], [ 116.341404740753319, 39.704061959692183 ], [ 116.325235065639149, 39.704061959692183 ], [ 116.31715022808207, 39.693287582028255 ], [ 116.325235065639149, 39.682511522398705 ], [ 116.341404740753319, 39.682511522398705 ], [ 116.349489578310383, 39.693287582028255 ] ] ] } },
{ "type": "Feature", "properties": { "grid_id": 1107, "bright_median_rent": 5.2500504133897969, "bright_count": 8.0, "dark_median_rent": 5.0, "dark_count": 3.0, "rent_gap": 0.25005041338979694 }, "geometry": { "type": "Polygon", "coordinates": [ [ [ 116.349489578310383, 39.843975756920372 ], [ 116.341404740753319, 39.854726574748078 ], [ 116.325235065639149, 39.854726574748078 ], [ 116.31715022808207, 39.843975756920372 ], [ 116.325235065639149, 39.833223255492477 ], [ 116.341404740753319, 39.833223255492477 ], [ 116.349489578310383, 39.843975756920372 ] ] ] } },
{ "type": "Feature", "properties": { "grid_id": 1109, "bright_median_rent": 8.5015015015015027, "bright_count": 10.0, "dark_median_rent": 11.11, "dark_count": 1.0, "rent_gap": -2.6084984984984967 }, "geometry": { "type": "Polygon", "coordinates": [ [ [ 116.349489578310383, 39.886968925482904 ], [ 116.341404740753319, 39.89771300776399 ], [ 116.325235065639149, 39.89771300776399 ], [ 116.31715022808207, 39.886968925482904 ], [ 116.325235065639149, 39.876223159143791 ], [ 116.341404740753319, 39.876223159143791 ], [ 116.349489578310383, 39.886968925482904 ] ] ] } },
{ "type": "Feature", "properties": { "grid_id": 1110, "bright_median_rent": 8.2, "bright_count": 5.0, "dark_median_rent": 9.6296296296296298, "dark_count": 2.0, "rent_gap": -1.4296296296296305 }, "geometry": { "type": "Polygon", "coordinates": [ [ [ 116.349489578310383, 39.908455405873241 ], [ 116.341404740753319, 39.919196119697098 ], [ 116.325235065639149, 39.919196119697098 ], [ 116.31715022808207, 39.908455405873241 ], [ 116.325235065639149, 39.89771300776399 ], [ 116.341404740753319, 39.89771300776399 ], [ 116.349489578310383, 39.908455405873241 ] ] ] } },
{ "type": "Feature", "properties": { "grid_id": 1112, "bright_median_rent": 9.0, "bright_count": 15.0, "dark_median_rent": 0.01, "dark_count": 3.0, "rent_gap": 8.99 }, "geometry": { "type": "Polygon", "coordinates": [ [ [ 116.349489578310383, 39.951408154324398 ], [ 116.341404740753319, 39.962142129876092 ], [ 116.325235065639149, 39.962142129876092 ], [ 116.31715022808207, 39.951408154324398 ], [ 116.325235065639149, 39.940672494035589 ], [ 116.341404740753319, 39.940672494035589 ], [ 116.349489578310383, 39.951408154324398 ] ] ] } },
{ "type": "Feature", "properties": { "grid_id": 1113, "bright_median_rent": 6.9375, "bright_count": 41.0, "dark_median_rent": 11.111111111111111, "dark_count": 3.0, "rent_gap": -4.1736111111111107 }, "geometry": { "type": "Polygon", "coordinates": [ [ [ 116.349489578310383, 39.972874420578371 ], [ 116.341404740753319, 39.983605026319218 ], [ 116.325235065639149, 39.983605026319218 ], [ 116.31715022808207, 39.972874420578371 ], [ 116.325235065639149, 39.962142129876085 ], [ 116.341404740753319, 39.962142129876085 ], [ 116.349489578310383, 39.972874420578371 ] ] ] } },
{ "type": "Feature", "properties": { "grid_id": 1114, "bright_median_rent": 9.2946296296296289, "bright_count": 28.0, "dark_median_rent": 6.3888888888888893, "dark_count": 8.0, "rent_gap": 2.9057407407407396 }, "geometry": { "type": "Polygon", "coordinates": [ [ [ 116.349489578310383, 39.994333946986828 ], [ 116.341404740753319, 40.005061182469689 ], [ 116.325235065639149, 40.005061182469689 ], [ 116.31715022808207, 39.994333946986828 ], [ 116.325235065639149, 39.983605026319211 ], [ 116.341404740753319, 39.983605026319211 ], [ 116.349489578310383, 39.994333946986828 ] ] ] } },
{ "type": "Feature", "properties": { "grid_id": 1117, "bright_median_rent": 4.0, "bright_count": 7.0, "dark_median_rent": 4.0, "dark_count": 1.0, "rent_gap": 0.0 }, "geometry": { "type": "Polygon", "coordinates": [ [ [ 116.349489578310383, 40.058672078226792 ], [ 116.341404740753319, 40.069389200273179 ], [ 116.325235065639149, 40.069389200273179 ], [ 116.31715022808207, 40.058672078226792 ], [ 116.325235065639149, 40.047953270331789 ], [ 116.341404740753319, 40.047953270331789 ], [ 116.349489578310383, 40.058672078226792 ] ] ] } },
{ "type": "Feature", "properties": { "grid_id": 1118, "bright_median_rent": 3.49, "bright_count": 60.0, "dark_median_rent": 7.9646296296296297, "dark_count": 2.0, "rent_gap": -4.4746296296296295 }, "geometry": { "type": "Polygon", "coordinates": [ [ [ 116.349489578310383, 40.080104636361185 ], [ 116.341404740753319, 40.090818386381336 ], [ 116.325235065639149, 40.090818386381336 ], [ 116.31715022808207, 40.080104636361185 ], [ 116.325235065639149, 40.069389200273179 ], [ 116.341404740753319, 40.069389200273179 ], [ 116.349489578310383, 40.080104636361185 ] ] ] } },
{ "type": "Feature", "properties": { "grid_id": 1158, "bright_median_rent": 8.5, "bright_count": 8.0, "dark_median_rent": 40.0, "dark_count": 1.0, "rent_gap": -31.5 }, "geometry": { "type": "Polygon", "coordinates": [ [ [ 116.373744090981603, 39.790196416084633 ], [ 116.365659253424539, 39.800955650759825 ], [ 116.349489578310383, 39.800955650759825 ], [ 116.341404740753319, 39.790196416084633 ], [ 116.349489578310383, 39.779435498387265 ], [ 116.365659253424539, 39.779435498387265 ], [ 116.373744090981603, 39.790196416084633 ] ] ] } },
{ "type": "Feature", "properties": { "grid_id": 1165, "bright_median_rent": 8.1735042735042729, "bright_count": 6.0, "dark_median_rent": 11.666666666666666, "dark_count": 4.0, "rent_gap": -3.4931623931623932 }, "geometry": { "type": "Polygon", "coordinates": [ [ [ 116.373744090981603, 39.940672494035596 ], [ 116.365659253424539, 39.951408154324405 ], [ 116.349489578310383, 39.951408154324405 ], [ 116.341404740753319, 39.940672494035596 ], [ 116.349489578310383, 39.92993514912223 ], [ 116.365659253424539, 39.92993514912223 ], [ 116.373744090981603, 39.940672494035596 ] ] ] } },
{ "type": "Feature", "properties": { "grid_id": 1166, "bright_median_rent": 12.015503875968992, "bright_count": 23.0, "dark_median_rent": 10.42, "dark_count": 1.0, "rent_gap": 1.5955038759689923 }, "geometry": { "type": "Polygon", "coordinates": [ [ [ 116.373744090981603, 39.962142129876092 ], [ 116.365659253424539, 39.972874420578378 ], [ 116.349489578310383, 39.972874420578378 ], [ 116.341404740753319, 39.962142129876092 ], [ 116.349489578310383, 39.951408154324398 ], [ 116.365659253424539, 39.951408154324398 ], [ 116.373744090981603, 39.962142129876092 ] ] ] } },
{ "type": "Feature", "properties": { "grid_id": 1168, "bright_median_rent": 8.18, "bright_count": 72.0, "dark_median_rent": 10.833333333333334, "dark_count": 5.0, "rent_gap": -2.6533333333333342 }, "geometry": { "type": "Polygon", "coordinates": [ [ [ 116.373744090981603, 40.005061182469689 ], [ 116.365659253424539, 40.015786732656501 ], [ 116.349489578310383, 40.015786732656501 ], [ 116.341404740753319, 40.005061182469689 ], [ 116.349489578310383, 39.994333946986828 ], [ 116.365659253424539, 39.994333946986828 ], [ 116.373744090981603, 40.005061182469689 ] ] ] } },
{ "type": "Feature", "properties": { "grid_id": 1171, "bright_median_rent": 6.67, "bright_count": 5.0, "dark_median_rent": 6.48, "dark_count": 1.0, "rent_gap": 0.19 }, "geometry": { "type": "Polygon", "coordinates": [ [ [ 116.373744090981603, 40.069389200273179 ], [ 116.365659253424539, 40.080104636361199 ], [ 116.349489578310383, 40.080104636361199 ], [ 116.341404740753319, 40.069389200273179 ], [ 116.349489578310383, 40.058672078226792 ], [ 116.365659253424539, 40.058672078226792 ], [ 116.373744090981603, 40.069389200273179 ] ] ] } },
{ "type": "Feature", "properties": { "grid_id": 1215, "bright_median_rent": 5.0, "bright_count": 4.0, "dark_median_rent": 2.0, "dark_count": 1.0, "rent_gap": 3.0 }, "geometry": { "type": "Polygon", "coordinates": [ [ [ 116.397998603652852, 39.843975756920372 ], [ 116.389913766095759, 39.854726574748078 ], [ 116.373744090981603, 39.854726574748078 ], [ 116.365659253424539, 39.843975756920372 ], [ 116.373744090981603, 39.833223255492477 ], [ 116.389913766095759, 39.833223255492477 ], [ 116.397998603652852, 39.843975756920372 ] ] ] } },
{ "type": "Feature", "properties": { "grid_id": 1216, "bright_median_rent": 10.0, "bright_count": 4.0, "dark_median_rent": 7.5, "dark_count": 1.0, "rent_gap": 2.5 }, "geometry": { "type": "Polygon", "coordinates": [ [ [ 116.397998603652852, 39.865475708860743 ], [ 116.389913766095759, 39.876223159143798 ], [ 116.373744090981603, 39.876223159143798 ], [ 116.365659253424539, 39.865475708860743 ], [ 116.373744090981603, 39.854726574748071 ], [ 116.389913766095759, 39.854726574748071 ], [ 116.397998603652852, 39.865475708860743 ] ] ] } },
{ "type": "Feature", "properties": { "grid_id": 1218, "bright_median_rent": 6.666666666666667, "bright_count": 3.0, "dark_median_rent": 5.0, "dark_count": 1.0, "rent_gap": 1.666666666666667 }, "geometry": { "type": "Polygon", "coordinates": [ [ [ 116.397998603652852, 39.908455405873241 ], [ 116.389913766095759, 39.919196119697098 ], [ 116.373744090981603, 39.919196119697098 ], [ 116.365659253424539, 39.908455405873241 ], [ 116.373744090981603, 39.89771300776399 ], [ 116.389913766095759, 39.89771300776399 ], [ 116.397998603652852, 39.908455405873241 ] ] ] } },
{ "type": "Feature", "properties": { "grid_id": 1220, "bright_median_rent": 15.0, "bright_count": 115.0, "dark_median_rent": 4.0, "dark_count": 1.0, "rent_gap": 11.0 }, "geometry": { "type": "Polygon", "coordinates": [ [ [ 116.397998603652852, 39.951408154324398 ], [ 116.389913766095759, 39.962142129876092 ], [ 116.373744090981603, 39.962142129876092 ], [ 116.365659253424539, 39.951408154324398 ], [ 116.373744090981603, 39.940672494035589 ], [ 116.389913766095759, 39.940672494035589 ], [ 116.397998603652852, 39.951408154324398 ] ] ] } },
{ "type": "Feature", "properties": { "grid_id": 1222, "bright_median_rent": 11.214285714285715, "bright_count": 24.0, "dark_median_rent": 7.5, "dark_count": 1.0, "rent_gap": 3.7142857142857153 }, "geometry": { "type": "Polygon", "coordinates": [ [ [ 116.397998603652852, 39.994333946986828 ], [ 116.389913766095759, 40.005061182469689 ], [ 116.373744090981603, 40.005061182469689 ], [ 116.365659253424539, 39.994333946986828 ], [ 116.373744090981603, 39.983605026319211 ], [ 116.389913766095759, 39.983605026319211 ], [ 116.397998603652852, 39.994333946986828 ] ] ] } },
{ "type": "Feature", "properties": { "grid_id": 1227, "bright_median_rent": 1.4988814317673378, "bright_count": 1.0, "dark_median_rent": 3.4444444444444446, "dark_count": 5.0, "rent_gap": -1.9455630126771069 }, "geometry": { "type": "Polygon", "coordinates": [ [ [ 116.397998603652852, 40.101530450224367 ], [ 116.389913766095759, 40.112240827781285 ], [ 116.373744090981603, 40.112240827781285 ], [ 116.365659253424539, 40.101530450224367 ], [ 116.373744090981603, 40.090818386381336 ], [ 116.389913766095759, 40.090818386381336 ], [ 116.397998603652852, 40.101530450224367 ] ] ] } },
{ "type": "Feature", "properties": { "grid_id": 1275, "bright_median_rent": 6.0011111111111113, "bright_count": 12.0, "dark_median_rent": 12.22, "dark_count": 2.0, "rent_gap": -6.2188888888888876 }, "geometry": { "type": "Polygon", "coordinates": [ [ [ 116.422253116324072, 39.983605026319218 ], [ 116.414168278766994, 39.994333946986835 ], [ 116.397998603652852, 39.994333946986835 ], [ 116.389913766095759, 39.983605026319218 ], [ 116.397998603652852, 39.972874420578371 ], [ 116.414168278766994, 39.972874420578371 ], [ 116.422253116324072, 39.983605026319218 ] ] ] } },
{ "type": "Feature", "properties": { "grid_id": 1276, "bright_median_rent": 11.08, "bright_count": 120.0, "dark_median_rent": 11.11, "dark_count": 1.0, "rent_gap": -0.029999999999999361 }, "geometry": { "type": "Polygon", "coordinates": [ [ [ 116.422253116324072, 40.005061182469689 ], [ 116.414168278766994, 40.015786732656501 ], [ 116.397998603652852, 40.015786732656501 ], [ 116.389913766095759, 40.005061182469689 ], [ 116.397998603652852, 39.994333946986828 ], [ 116.414168278766994, 39.994333946986828 ], [ 116.422253116324072, 40.005061182469689 ] ] ] } },
{ "type": "Feature", "properties": { "grid_id": 1278, "bright_median_rent": 4.555, "bright_count": 4.0, "dark_median_rent": 4.17, "dark_count": 1.0, "rent_gap": 0.385 }, "geometry": { "type": "Polygon", "coordinates": [ [ [ 116.422253116324072, 40.047953270331803 ], [ 116.414168278766994, 40.058672078226806 ], [ 116.397998603652852, 40.058672078226806 ], [ 116.389913766095759, 40.047953270331803 ], [ 116.397998603652852, 40.037232776698204 ], [ 116.414168278766994, 40.037232776698204 ], [ 116.422253116324072, 40.047953270331803 ] ] ] } },
{ "type": "Feature", "properties": { "grid_id": 1279, "bright_median_rent": 4.4, "bright_count": 2.0, "dark_median_rent": 5.56, "dark_count": 1.0, "rent_gap": -1.16 }, "geometry": { "type": "Polygon", "coordinates": [ [ [ 116.422253116324072, 40.069389200273179 ], [ 116.414168278766994, 40.080104636361199 ], [ 116.397998603652852, 40.080104636361199 ], [ 116.389913766095759, 40.069389200273179 ], [ 116.397998603652852, 40.058672078226792 ], [ 116.414168278766994, 40.058672078226792 ], [ 116.422253116324072, 40.069389200273179 ] ] ] } },
{ "type": "Feature", "properties": { "grid_id": 1323, "bright_median_rent": 5.9906759906759905, "bright_count": 7.0, "dark_median_rent": 7.78, "dark_count": 1.0, "rent_gap": -1.7893240093240097 }, "geometry": { "type": "Polygon", "coordinates": [ [ [ 116.446507628995292, 39.843975756920372 ], [ 116.438422791438214, 39.854726574748078 ], [ 116.422253116324072, 39.854726574748078 ], [ 116.414168278766994, 39.843975756920372 ], [ 116.422253116324072, 39.833223255492477 ], [ 116.438422791438214, 39.833223255492477 ], [ 116.446507628995292, 39.843975756920372 ] ] ] } },
{ "type": "Feature", "properties": { "grid_id": 1324, "bright_median_rent": 5.5555555555555554, "bright_count": 17.0, "dark_median_rent": 10.166666666666666, "dark_count": 4.0, "rent_gap": -4.6111111111111107 }, "geometry": { "type": "Polygon", "coordinates": [ [ [ 116.446507628995292, 39.865475708860743 ], [ 116.438422791438214, 39.876223159143798 ], [ 116.422253116324072, 39.876223159143798 ], [ 116.414168278766994, 39.865475708860743 ], [ 116.422253116324072, 39.854726574748071 ], [ 116.438422791438214, 39.854726574748071 ], [ 116.446507628995292, 39.865475708860743 ] ] ] } },
{ "type": "Feature", "properties": { "grid_id": 1328, "bright_median_rent": 9.1666666666666661, "bright_count": 9.0, "dark_median_rent": 9.12, "dark_count": 2.0, "rent_gap": 0.04666666666666508 }, "geometry": { "type": "Polygon", "coordinates": [ [ [ 116.446507628995292, 39.951408154324398 ], [ 116.438422791438214, 39.962142129876092 ], [ 116.422253116324072, 39.962142129876092 ], [ 116.414168278766994, 39.951408154324398 ], [ 116.422253116324072, 39.940672494035589 ], [ 116.438422791438214, 39.940672494035589 ], [ 116.446507628995292, 39.951408154324398 ] ] ] } },
{ "type": "Feature", "properties": { "grid_id": 1330, "bright_median_rent": 9.72, "bright_count": 29.0, "dark_median_rent": 0.01, "dark_count": 1.0, "rent_gap": 9.71 }, "geometry": { "type": "Polygon", "coordinates": [ [ [ 116.446507628995292, 39.994333946986828 ], [ 116.438422791438214, 40.005061182469689 ], [ 116.422253116324072, 40.005061182469689 ], [ 116.414168278766994, 39.994333946986828 ], [ 116.422253116324072, 39.983605026319211 ], [ 116.438422791438214, 39.983605026319211 ], [ 116.446507628995292, 39.994333946986828 ] ] ] } },
{ "type": "Feature", "properties": { "grid_id": 1331, "bright_median_rent": 9.6944444444444446, "bright_count": 5.0, "dark_median_rent": 9.2592592592592595, "dark_count": 1.0, "rent_gap": 0.43518518518518512 }, "geometry": { "type": "Polygon", "coordinates": [ [ [ 116.446507628995292, 40.015786732656494 ], [ 116.438422791438214, 40.026510597436264 ], [ 116.422253116324072, 40.026510597436264 ], [ 116.414168278766994, 40.015786732656494 ], [ 116.422253116324072, 40.005061182469674 ], [ 116.438422791438214, 40.005061182469674 ], [ 116.446507628995292, 40.015786732656494 ] ] ] } },
{ "type": "Feature", "properties": { "grid_id": 1333, "bright_median_rent": 6.67, "bright_count": 23.0, "dark_median_rent": 5.8, "dark_count": 8.0, "rent_gap": 0.87 }, "geometry": { "type": "Polygon", "coordinates": [ [ [ 116.446507628995292, 40.058672078226792 ], [ 116.438422791438214, 40.069389200273179 ], [ 116.422253116324072, 40.069389200273179 ], [ 116.414168278766994, 40.058672078226792 ], [ 116.422253116324072, 40.047953270331789 ], [ 116.438422791438214, 40.047953270331789 ], [ 116.446507628995292, 40.058672078226792 ] ] ] } },
{ "type": "Feature", "properties": { "grid_id": 1334, "bright_median_rent": 2.2, "bright_count": 1.0, "dark_median_rent": 4.44, "dark_count": 1.0, "rent_gap": -2.24 }, "geometry": { "type": "Polygon", "coordinates": [ [ [ 116.446507628995292, 40.080104636361185 ], [ 116.438422791438214, 40.090818386381336 ], [ 116.422253116324072, 40.090818386381336 ], [ 116.414168278766994, 40.080104636361185 ], [ 116.422253116324072, 40.069389200273179 ], [ 116.438422791438214, 40.069389200273179 ], [ 116.446507628995292, 40.080104636361185 ] ] ] } },
{ "type": "Feature", "properties": { "grid_id": 1375, "bright_median_rent": 4.1527777777777777, "bright_count": 12.0, "dark_median_rent": 11.111111111111111, "dark_count": 1.0, "rent_gap": -6.958333333333333 }, "geometry": { "type": "Polygon", "coordinates": [ [ [ 116.470762141666526, 39.811713202296723 ], [ 116.462677304109462, 39.82246907057948 ], [ 116.446507628995292, 39.82246907057948 ], [ 116.438422791438214, 39.811713202296723 ], [ 116.446507628995292, 39.800955650759825 ], [ 116.462677304109462, 39.800955650759825 ], [ 116.470762141666526, 39.811713202296723 ] ] ] } },
{ "type": "Feature", "properties": { "grid_id": 1378, "bright_median_rent": 8.0, "bright_count": 13.0, "dark_median_rent": 6.25, "dark_count": 2.0, "rent_gap": 1.75 }, "geometry": { "type": "Polygon", "coordinates": [ [ [ 116.470762141666526, 39.876223159143798 ], [ 116.462677304109462, 39.886968925482911 ], [ 116.446507628995292, 39.886968925482911 ], [ 116.438422791438214, 39.876223159143798 ], [ 116.446507628995292, 39.865475708860743 ], [ 116.462677304109462, 39.865475708860743 ], [ 116.470762141666526, 39.876223159143798 ] ] ] } },
{ "type": "Feature", "properties": { "grid_id": 1380, "bright_median_rent": 7.49, "bright_count": 253.0, "dark_median_rent": 3.37, "dark_count": 13.0, "rent_gap": 4.12 }, "geometry": { "type": "Polygon", "coordinates": [ [ [ 116.470762141666526, 39.919196119697098 ], [ 116.462677304109462, 39.929935149122237 ], [ 116.446507628995292, 39.929935149122237 ], [ 116.438422791438214, 39.919196119697098 ], [ 116.446507628995292, 39.908455405873241 ], [ 116.462677304109462, 39.908455405873241 ], [ 116.470762141666526, 39.919196119697098 ] ] ] } },
{ "type": "Feature", "properties": { "grid_id": 1381, "bright_median_rent": 7.04, "bright_count": 84.0, "dark_median_rent": 10.0, "dark_count": 3.0, "rent_gap": -2.96 }, "geometry": { "type": "Polygon", "coordinates": [ [ [ 116.470762141666526, 39.940672494035596 ], [ 116.462677304109462, 39.951408154324405 ], [ 116.446507628995292, 39.951408154324405 ], [ 116.438422791438214, 39.940672494035596 ], [ 116.446507628995292, 39.92993514912223 ], [ 116.462677304109462, 39.92993514912223 ], [ 116.470762141666526, 39.940672494035596 ] ] ] } },
{ "type": "Feature", "properties": { "grid_id": 1382, "bright_median_rent": 7.8011204481792724, "bright_count": 15.0, "dark_median_rent": 8.7, "dark_count": 1.0, "rent_gap": -0.89887955182072687 }, "geometry": { "type": "Polygon", "coordinates": [ [ [ 116.470762141666526, 39.962142129876092 ], [ 116.462677304109462, 39.972874420578378 ], [ 116.446507628995292, 39.972874420578378 ], [ 116.438422791438214, 39.962142129876092 ], [ 116.446507628995292, 39.951408154324398 ], [ 116.462677304109462, 39.951408154324398 ], [ 116.470762141666526, 39.962142129876092 ] ] ] } },
{ "type": "Feature", "properties": { "grid_id": 1383, "bright_median_rent": 21.0, "bright_count": 2.0, "dark_median_rent": 0.5, "dark_count": 1.0, "rent_gap": 20.5 }, "geometry": { "type": "Polygon", "coordinates": [ [ [ 116.470762141666526, 39.983605026319218 ], [ 116.462677304109462, 39.994333946986835 ], [ 116.446507628995292, 39.994333946986835 ], [ 116.438422791438214, 39.983605026319218 ], [ 116.446507628995292, 39.972874420578371 ], [ 116.462677304109462, 39.972874420578371 ], [ 116.470762141666526, 39.983605026319218 ] ] ] } },
{ "type": "Feature", "properties": { "grid_id": 1384, "bright_median_rent": 3.07, "bright_count": 7.0, "dark_median_rent": 6.11, "dark_count": 1.0, "rent_gap": -3.04 }, "geometry": { "type": "Polygon", "coordinates": [ [ [ 116.470762141666526, 40.005061182469689 ], [ 116.462677304109462, 40.015786732656501 ], [ 116.446507628995292, 40.015786732656501 ], [ 116.438422791438214, 40.005061182469689 ], [ 116.446507628995292, 39.994333946986828 ], [ 116.462677304109462, 39.994333946986828 ], [ 116.470762141666526, 40.005061182469689 ] ] ] } },
{ "type": "Feature", "properties": { "grid_id": 1432, "bright_median_rent": 15.0, "bright_count": 60.0, "dark_median_rent": 16.666666666666668, "dark_count": 3.0, "rent_gap": -1.6666666666666679 }, "geometry": { "type": "Polygon", "coordinates": [ [ [ 116.495016654337746, 39.865475708860743 ], [ 116.486931816780668, 39.876223159143798 ], [ 116.470762141666526, 39.876223159143798 ], [ 116.462677304109462, 39.865475708860743 ], [ 116.470762141666526, 39.854726574748071 ], [ 116.486931816780668, 39.854726574748071 ], [ 116.495016654337746, 39.865475708860743 ] ] ] } },
{ "type": "Feature", "properties": { "grid_id": 1433, "bright_median_rent": 8.0, "bright_count": 25.0, "dark_median_rent": 10.185185185185183, "dark_count": 13.0, "rent_gap": -2.1851851851851833 }, "geometry": { "type": "Polygon", "coordinates": [ [ [ 116.495016654337746, 39.886968925482904 ], [ 116.486931816780668, 39.89771300776399 ], [ 116.470762141666526, 39.89771300776399 ], [ 116.462677304109462, 39.886968925482904 ], [ 116.470762141666526, 39.876223159143791 ], [ 116.486931816780668, 39.876223159143791 ], [ 116.495016654337746, 39.886968925482904 ] ] ] } },
{ "type": "Feature", "properties": { "grid_id": 1434, "bright_median_rent": 6.3888888888888893, "bright_count": 214.0, "dark_median_rent": 5.11, "dark_count": 11.0, "rent_gap": 1.278888888888889 }, "geometry": { "type": "Polygon", "coordinates": [ [ [ 116.495016654337746, 39.908455405873241 ], [ 116.486931816780668, 39.919196119697098 ], [ 116.470762141666526, 39.919196119697098 ], [ 116.462677304109462, 39.908455405873241 ], [ 116.470762141666526, 39.89771300776399 ], [ 116.486931816780668, 39.89771300776399 ], [ 116.495016654337746, 39.908455405873241 ] ] ] } },
{ "type": "Feature", "properties": { "grid_id": 1435, "bright_median_rent": 8.8888888888888893, "bright_count": 38.0, "dark_median_rent": 10.415, "dark_count": 4.0, "rent_gap": -1.5261111111111099 }, "geometry": { "type": "Polygon", "coordinates": [ [ [ 116.495016654337746, 39.92993514912223 ], [ 116.486931816780668, 39.940672494035596 ], [ 116.470762141666526, 39.940672494035596 ], [ 116.462677304109462, 39.92993514912223 ], [ 116.470762141666526, 39.919196119697084 ], [ 116.486931816780668, 39.919196119697084 ], [ 116.495016654337746, 39.92993514912223 ] ] ] } },
{ "type": "Feature", "properties": { "grid_id": 1437, "bright_median_rent": 11.091269841269842, "bright_count": 4.0, "dark_median_rent": 12.5, "dark_count": 1.0, "rent_gap": -1.4087301587301582 }, "geometry": { "type": "Polygon", "coordinates": [ [ [ 116.495016654337746, 39.972874420578371 ], [ 116.486931816780668, 39.983605026319218 ], [ 116.470762141666526, 39.983605026319218 ], [ 116.462677304109462, 39.972874420578371 ], [ 116.470762141666526, 39.962142129876085 ], [ 116.486931816780668, 39.962142129876085 ], [ 116.495016654337746, 39.972874420578371 ] ] ] } },
{ "type": "Feature", "properties": { "grid_id": 1438, "bright_median_rent": 6.0, "bright_count": 34.0, "dark_median_rent": 13.086296296296297, "dark_count": 10.0, "rent_gap": -7.0862962962962968 }, "geometry": { "type": "Polygon", "coordinates": [ [ [ 116.495016654337746, 39.994333946986828 ], [ 116.486931816780668, 40.005061182469689 ], [ 116.470762141666526, 40.005061182469689 ], [ 116.462677304109462, 39.994333946986828 ], [ 116.470762141666526, 39.983605026319211 ], [ 116.486931816780668, 39.983605026319211 ], [ 116.495016654337746, 39.994333946986828 ] ] ] } },
{ "type": "Feature", "properties": { "grid_id": 1439, "bright_median_rent": 8.2622222222222224, "bright_count": 22.0, "dark_median_rent": 14.165, "dark_count": 14.0, "rent_gap": -5.9027777777777768 }, "geometry": { "type": "Polygon", "coordinates": [ [ [ 116.495016654337746, 40.015786732656494 ], [ 116.486931816780668, 40.026510597436264 ], [ 116.470762141666526, 40.026510597436264 ], [ 116.462677304109462, 40.015786732656494 ], [ 116.470762141666526, 40.005061182469674 ], [ 116.486931816780668, 40.005061182469674 ], [ 116.495016654337746, 40.015786732656494 ] ] ] } },
{ "type": "Feature", "properties": { "grid_id": 1482, "bright_median_rent": 7.2333333333333334, "bright_count": 2.0, "dark_median_rent": 3.78, "dark_count": 2.0, "rent_gap": 3.4533333333333336 }, "geometry": { "type": "Polygon", "coordinates": [ [ [ 116.519271167008966, 39.790196416084633 ], [ 116.511186329451888, 39.800955650759825 ], [ 116.495016654337746, 39.800955650759825 ], [ 116.486931816780668, 39.790196416084633 ], [ 116.495016654337746, 39.779435498387265 ], [ 116.511186329451888, 39.779435498387265 ], [ 116.519271167008966, 39.790196416084633 ] ] ] } },
{ "type": "Feature", "properties": { "grid_id": 1487, "bright_median_rent": 6.0, "bright_count": 55.0, "dark_median_rent": 11.11, "dark_count": 1.0, "rent_gap": -5.11 }, "geometry": { "type": "Polygon", "coordinates": [ [ [ 116.519271167008966, 39.89771300776399 ], [ 116.511186329451888, 39.908455405873248 ], [ 116.495016654337746, 39.908455405873248 ], [ 116.486931816780668, 39.89771300776399 ], [ 116.495016654337746, 39.886968925482904 ], [ 116.511186329451888, 39.886968925482904 ], [ 116.519271167008966, 39.89771300776399 ] ] ] } },
{ "type": "Feature", "properties": { "grid_id": 1488, "bright_median_rent": 7.3611111111111116, "bright_count": 12.0, "dark_median_rent": 11.11, "dark_count": 26.0, "rent_gap": -3.7488888888888878 }, "geometry": { "type": "Polygon", "coordinates": [ [ [ 116.519271167008966, 39.919196119697098 ], [ 116.511186329451888, 39.929935149122237 ], [ 116.495016654337746, 39.929935149122237 ], [ 116.486931816780668, 39.919196119697098 ], [ 116.495016654337746, 39.908455405873241 ], [ 116.511186329451888, 39.908455405873241 ], [ 116.519271167008966, 39.919196119697098 ] ] ] } },
{ "type": "Feature", "properties": { "grid_id": 1491, "bright_median_rent": 10.0, "bright_count": 9.0, "dark_median_rent": 8.8894444444444449, "dark_count": 2.0, "rent_gap": 1.1105555555555551 }, "geometry": { "type": "Polygon", "coordinates": [ [ [ 116.519271167008966, 39.983605026319218 ], [ 116.511186329451888, 39.994333946986835 ], [ 116.495016654337746, 39.994333946986835 ], [ 116.486931816780668, 39.983605026319218 ], [ 116.495016654337746, 39.972874420578371 ], [ 116.511186329451888, 39.972874420578371 ], [ 116.519271167008966, 39.983605026319218 ] ] ] } },
{ "type": "Feature", "properties": { "grid_id": 1492, "bright_median_rent": 6.51, "bright_count": 4.0, "dark_median_rent": 8.8888888888888893, "dark_count": 1.0, "rent_gap": -2.3788888888888895 }, "geometry": { "type": "Polygon", "coordinates": [ [ [ 116.519271167008966, 40.005061182469689 ], [ 116.511186329451888, 40.015786732656501 ], [ 116.495016654337746, 40.015786732656501 ], [ 116.486931816780668, 40.005061182469689 ], [ 116.495016654337746, 39.994333946986828 ], [ 116.511186329451888, 39.994333946986828 ], [ 116.519271167008966, 40.005061182469689 ] ] ] } },
{ "type": "Feature", "properties": { "grid_id": 1537, "bright_median_rent": 8.0, "bright_count": 5.0, "dark_median_rent": 9.8, "dark_count": 2.0, "rent_gap": -1.8 }, "geometry": { "type": "Polygon", "coordinates": [ [ [ 116.543525679680201, 39.800955650759825 ], [ 116.535440842123137, 39.811713202296723 ], [ 116.519271167008966, 39.811713202296723 ], [ 116.511186329451888, 39.800955650759825 ], [ 116.519271167008966, 39.790196416084619 ], [ 116.535440842123137, 39.790196416084619 ], [ 116.543525679680201, 39.800955650759825 ] ] ] } },
{ "type": "Feature", "properties": { "grid_id": 1541, "bright_median_rent": 2.3333333333333339, "bright_count": 1.0, "dark_median_rent": 4.0, "dark_count": 1.0, "rent_gap": -1.6666666666666661 }, "geometry": { "type": "Polygon", "coordinates": [ [ [ 116.543525679680201, 39.886968925482904 ], [ 116.535440842123137, 39.89771300776399 ], [ 116.519271167008966, 39.89771300776399 ], [ 116.511186329451888, 39.886968925482904 ], [ 116.519271167008966, 39.876223159143791 ], [ 116.535440842123137, 39.876223159143791 ], [ 116.543525679680201, 39.886968925482904 ] ] ] } },
{ "type": "Feature", "properties": { "grid_id": 1543, "bright_median_rent": 7.833333333333333, "bright_count": 35.0, "dark_median_rent": 8.89, "dark_count": 3.0, "rent_gap": -1.0566666666666675 }, "geometry": { "type": "Polygon", "coordinates": [ [ [ 116.543525679680201, 39.92993514912223 ], [ 116.535440842123137, 39.940672494035596 ], [ 116.519271167008966, 39.940672494035596 ], [ 116.511186329451888, 39.92993514912223 ], [ 116.519271167008966, 39.919196119697084 ], [ 116.535440842123137, 39.919196119697084 ], [ 116.543525679680201, 39.92993514912223 ] ] ] } },
{ "type": "Feature", "properties": { "grid_id": 1590, "bright_median_rent": 10.56, "bright_count": 9.0, "dark_median_rent": 3.0, "dark_count": 1.0, "rent_gap": 7.56 }, "geometry": { "type": "Polygon", "coordinates": [ [ [ 116.567780192351421, 39.790196416084633 ], [ 116.559695354794357, 39.800955650759825 ], [ 116.543525679680201, 39.800955650759825 ], [ 116.535440842123137, 39.790196416084633 ], [ 116.543525679680201, 39.779435498387265 ], [ 116.559695354794357, 39.779435498387265 ], [ 116.567780192351421, 39.790196416084633 ] ] ] } },
{ "type": "Feature", "properties": { "grid_id": 1596, "bright_median_rent": 18.0, "bright_count": 80.0, "dark_median_rent": 5.56, "dark_count": 2.0, "rent_gap": 12.44 }, "geometry": { "type": "Polygon", "coordinates": [ [ [ 116.567780192351421, 39.919196119697098 ], [ 116.559695354794357, 39.929935149122237 ], [ 116.543525679680201, 39.929935149122237 ], [ 116.535440842123137, 39.919196119697098 ], [ 116.543525679680201, 39.908455405873241 ], [ 116.559695354794357, 39.908455405873241 ], [ 116.567780192351421, 39.919196119697098 ] ] ] } },
{ "type": "Feature", "properties": { "grid_id": 1598, "bright_median_rent": 5.0200014011489431, "bright_count": 10.0, "dark_median_rent": 10.0, "dark_count": 1.0, "rent_gap": -4.9799985988510569 }, "geometry": { "type": "Polygon", "coordinates": [ [ [ 116.567780192351421, 39.962142129876092 ], [ 116.559695354794357, 39.972874420578378 ], [ 116.543525679680201, 39.972874420578378 ], [ 116.535440842123137, 39.962142129876092 ], [ 116.543525679680201, 39.951408154324398 ], [ 116.559695354794357, 39.951408154324398 ], [ 116.567780192351421, 39.962142129876092 ] ] ] } },
{ "type": "Feature", "properties": { "grid_id": 1650, "bright_median_rent": 3.9955869636520855, "bright_count": 9.0, "dark_median_rent": 6.885, "dark_count": 4.0, "rent_gap": -2.8894130363479142 }, "geometry": { "type": "Polygon", "coordinates": [ [ [ 116.59203470502267, 39.908455405873241 ], [ 116.583949867465563, 39.919196119697098 ], [ 116.567780192351421, 39.919196119697098 ], [ 116.559695354794357, 39.908455405873241 ], [ 116.567780192351421, 39.89771300776399 ], [ 116.583949867465563, 39.89771300776399 ], [ 116.59203470502267, 39.908455405873241 ] ] ] } },
{ "type": "Feature", "properties": { "grid_id": 1651, "bright_median_rent": 3.8941405558505933, "bright_count": 20.0, "dark_median_rent": 3.0, "dark_count": 1.0, "rent_gap": 0.89414055585059327 }, "geometry": { "type": "Polygon", "coordinates": [ [ [ 116.59203470502267, 39.92993514912223 ], [ 116.583949867465563, 39.940672494035596 ], [ 116.567780192351421, 39.940672494035596 ], [ 116.559695354794357, 39.92993514912223 ], [ 116.567780192351421, 39.919196119697084 ], [ 116.583949867465563, 39.919196119697084 ], [ 116.59203470502267, 39.92993514912223 ] ] ] } },
{ "type": "Feature", "properties": { "grid_id": 1704, "bright_median_rent": 4.7404844290657442, "bright_count": 45.0, "dark_median_rent": 5.666666666666667, "dark_count": 3.0, "rent_gap": -0.92618223760092278 }, "geometry": { "type": "Polygon", "coordinates": [ [ [ 116.61628921769389, 39.919196119697098 ], [ 116.608204380136812, 39.929935149122237 ], [ 116.59203470502267, 39.929935149122237 ], [ 116.583949867465563, 39.919196119697098 ], [ 116.59203470502267, 39.908455405873241 ], [ 116.608204380136812, 39.908455405873241 ], [ 116.61628921769389, 39.919196119697098 ] ] ] } },
{ "type": "Feature", "properties": { "grid_id": 1811, "bright_median_rent": 4.5050505050505052, "bright_count": 8.0, "dark_median_rent": 12.75, "dark_count": 1.0, "rent_gap": -8.2449494949494948 }, "geometry": { "type": "Polygon", "coordinates": [ [ [ 116.664798243036344, 39.89771300776399 ], [ 116.65671340547928, 39.908455405873248 ], [ 116.64054373036511, 39.908455405873248 ], [ 116.632458892808032, 39.89771300776399 ], [ 116.64054373036511, 39.886968925482904 ], [ 116.65671340547928, 39.886968925482904 ], [ 116.664798243036344, 39.89771300776399 ] ] ] } },
{ "type": "Feature", "properties": { "grid_id": 1812, "bright_median_rent": 5.9411764705882355, "bright_count": 44.0, "dark_median_rent": 8.8888888888888893, "dark_count": 4.0, "rent_gap": -2.9477124183006538 }, "geometry": { "type": "Polygon", "coordinates": [ [ [ 116.664798243036344, 39.919196119697098 ], [ 116.65671340547928, 39.929935149122237 ], [ 116.64054373036511, 39.929935149122237 ], [ 116.632458892808032, 39.919196119697098 ], [ 116.64054373036511, 39.908455405873241 ], [ 116.65671340547928, 39.908455405873241 ], [ 116.664798243036344, 39.919196119697098 ] ] ] } },
{ "type": "Feature", "properties": { "grid_id": 1822, "bright_median_rent": 4.865, "bright_count": 10.0, "dark_median_rent": 6.1133333333333333, "dark_count": 6.0, "rent_gap": -1.2483333333333331 }, "geometry": { "type": "Polygon", "coordinates": [ [ [ 116.664798243036344, 40.133656523602049 ], [ 116.65671340547928, 40.144361841649172 ], [ 116.64054373036511, 40.144361841649172 ], [ 116.632458892808032, 40.133656523602049 ], [ 116.64054373036511, 40.122949518943336 ], [ 116.65671340547928, 40.122949518943336 ], [ 116.664798243036344, 40.133656523602049 ] ] ] } },
{ "type": "Feature", "properties": { "grid_id": 1865, "bright_median_rent": 5.5555555555555554, "bright_count": 13.0, "dark_median_rent": 15.0, "dark_count": 1.0, "rent_gap": -9.4444444444444446 }, "geometry": { "type": "Polygon", "coordinates": [ [ [ 116.689052755707564, 39.886968925482904 ], [ 116.680967918150486, 39.89771300776399 ], [ 116.664798243036344, 39.89771300776399 ], [ 116.65671340547928, 39.886968925482904 ], [ 116.664798243036344, 39.876223159143791 ], [ 116.680967918150486, 39.876223159143791 ], [ 116.689052755707564, 39.886968925482904 ] ] ] } },
{ "type": "Feature", "properties": { "grid_id": 1866, "bright_median_rent": 3.3, "bright_count": 3.0, "dark_median_rent": 7.5, "dark_count": 31.0, "rent_gap": -4.2 }, "geometry": { "type": "Polygon", "coordinates": [ [ [ 116.689052755707564, 39.908455405873241 ], [ 116.680967918150486, 39.919196119697098 ], [ 116.664798243036344, 39.919196119697098 ], [ 116.65671340547928, 39.908455405873241 ], [ 116.664798243036344, 39.89771300776399 ], [ 116.680967918150486, 39.89771300776399 ], [ 116.689052755707564, 39.908455405873241 ] ] ] } }
]
}
