{
"type": "FeatureCollection",
"name": "rent_gap_2km_grid",
"crs": { "type": "name", "properties": { "name": "urn:ogc:def:crs:OGC:1.3:CRS84" } },
"features": [
{ "type": "Feature", "properties": { "grid_id": 1167, "bright_median_rent": 6.666666666666667, "bright_count": 1.0, "dark_median_rent": 6.67, "dark_count": 1.0, "rent_gap": -0.0033333333333329662 }, "geometry": { "type": "Polygon", "coordinates": [ [ [ 116.150063585235841, 39.740025633659727 ], [ 116.150063585235841, 39.753839495986995 ], [ 116.132097279553449, 39.753839495986995 ], [ 116.132097279553449, 39.740025633659727 ], [ 116.150063585235841, 39.740025633659727 ] ] ] } },
{ "type": "Feature", "properties": { "grid_id": 1503, "bright_median_rent": 7.69, "bright_count": 1.0, "dark_median_rent": 3.8, "dark_count": 1.0, "rent_gap": 3.89 }, "geometry": { "type": "Polygon", "coordinates": [ [ [ 116.221928807965398, 39.905609123561611 ], [ 116.221928807965398, 39.919389732643822 ], [ 116.203962502283034, 39.919389732643822 ], [ 116.203962502283034, 39.905609123561611 ], [ 116.221928807965398, 39.905609123561611 ] ] ] } },
{ "type": "Feature", "properties": { "grid_id": 1665, "bright_median_rent": 11.904761904761903, "bright_count": 20.0, "dark_median_rent": 10.0, "dark_count": 1.0, "rent_gap": 1.9047619047619033 }, "geometry": { "type": "Polygon", "coordinates": [ [ [ 116.257861419330197, 39.905609123561611 ], [ 116.257861419330197, 39.919389732643822 ], [ 116.23989511364779, 39.919389732643822 ], [ 116.23989511364779, 39.905609123561611 ], [ 116.257861419330197, 39.905609123561611 ] ] ] } },
{ "type": "Feature", "properties": { "grid_id": 1745, "bright_median_rent": 5.3840579710144922, "bright_count": 24.0, "dark_median_rent": 12.0, "dark_count": 1.0, "rent_gap": -6.6159420289855078 }, "geometry": { "type": "Polygon", "coordinates": [ [ [ 116.27582772501259, 39.891825742042649 ], [ 116.27582772501259, 39.905609123561611 ], [ 116.257861419330197, 39.905609123561611 ], [ 116.257861419330197, 39.891825742042649 ], [ 116.27582772501259, 39.891825742042649 ] ] ] } },
{ "type": "Feature", "properties": { "grid_id": 1746, "bright_median_rent": 9.4611013215859039, "bright_count": 4.0, "dark_median_rent": 0.5, "dark_count": 1.0, "rent_gap": 8.9611013215859039 }, "geometry": { "type": "Polygon", "coordinates": [ [ [ 116.27582772501259, 39.905609123561611 ], [ 116.27582772501259, 39.919389732643822 ], [ 116.257861419330197, 39.919389732643822 ], [ 116.257861419330197, 39.905609123561611 ], [ 116.27582772501259, 39.905609123561611 ] ] ] } },
{ "type": "Feature", "properties": { "grid_id": 1830, "bright_median_rent": 5.0, "bright_count": 4.0, "dark_median_rent": 3.33, "dark_count": 1.0, "rent_gap": 1.67 }, "geometry": { "type": "Polygon", "coordinates": [ [ [ 116.293794030694983, 39.946942632541244 ], [ 116.293794030694983, 39.960714922879774 ], [ 116.27582772501259, 39.960714922879774 ], [ 116.27582772501259, 39.946942632541244 ], [ 116.293794030694983, 39.946942632541244 ] ] ] } },
{ "type": "Feature", "properties": { "grid_id": 1901, "bright_median_rent": 5.6, "bright_count": 9.0, "dark_median_rent": 7.5, "dark_count": 1.0, "rent_gap": -1.9 }, "geometry": { "type": "Polygon", "coordinates": [ [ [ 116.311760336377375, 39.809067245248904 ], [ 116.311760336377375, 39.822867256322922 ], [ 116.293794030694983, 39.822867256322922 ], [ 116.293794030694983, 39.809067245248904 ], [ 116.311760336377375, 39.809067245248904 ] ] ] } },
{ "type": "Feature", "properties": { "grid_id": 1902, "bright_median_rent": 5.5026455026455023, "bright_count": 13.0, "dark_median_rent": 7.333333333333333, "dark_count": 6.0, "rent_gap": -1.8306878306878307 }, "geometry": { "type": "Polygon", "coordinates": [ [ [ 116.311760336377375, 39.822867256322922 ], [ 116.311760336377375, 39.836664496410918 ], [ 116.293794030694983, 39.836664496410918 ], [ 116.293794030694983, 39.822867256322922 ], [ 116.311760336377375, 39.822867256322922 ] ] ] } },
{ "type": "Feature", "properties": { "grid_id": 1912, "bright_median_rent": 5.5, "bright_count": 7.0, "dark_median_rent": 10.416666666666668, "dark_count": 2.0, "rent_gap": -4.9166666666666679 }, "geometry": { "type": "Polygon", "coordinates": [ [ [ 116.311760336377375, 39.960714922879774 ], [ 116.311760336377375, 39.974484439828224 ], [ 116.293794030694983, 39.974484439828224 ], [ 116.293794030694983, 39.960714922879774 ], [ 116.311760336377375, 39.960714922879774 ] ] ] } },
{ "type": "Feature", "properties": { "grid_id": 1913, "bright_median_rent": 8.5111111111111111, "bright_count": 11.0, "dark_median_rent": 12.037037037037036, "dark_count": 1.0, "rent_gap": -3.5259259259259252 }, "geometry": { "type": "Polygon", "coordinates": [ [ [ 116.311760336377375, 39.974484439828224 ], [ 116.311760336377375, 39.988251183149977 ], [ 116.293794030694983, 39.988251183149977 ], [ 116.293794030694983, 39.974484439828224 ], [ 116.311760336377375, 39.974484439828224 ] ] ] } },
{ "type": "Feature", "properties": { "grid_id": 1919, "bright_median_rent": 6.945555555555555, "bright_count": 2.0, "dark_median_rent": 11.111111111111111, "dark_count": 3.0, "rent_gap": -4.1655555555555557 }, "geometry": { "type": "Polygon", "coordinates": [ [ [ 116.311760336377375, 40.05704328712504 ], [ 116.311760336377375, 40.070793383756275 ], [ 116.293794030694983, 40.070793383756275 ], [ 116.293794030694983, 40.05704328712504 ], [ 116.311760336377375, 40.05704328712504 ] ] ] } },
{ "type": "Feature", "properties": { "grid_id": 1973, "bright_median_rent": 3.9235265700483093, "bright_count": 4.0, "dark_median_rent": 8.33, "dark_count": 1.0, "rent_gap": -4.4064734299516903 }, "geometry": { "type": "Polygon", "coordinates": [ [ [ 116.32972664205974, 39.684742491733644 ], [ 116.32972664205974, 39.698567430609607 ], [ 116.311760336377375, 39.698567430609607 ], [ 116.311760336377375, 39.684742491733644 ], [ 116.32972664205974, 39.684742491733644 ] ] ] } },
{ "type": "Feature", "properties": { "grid_id": 1983, "bright_median_rent": 5.0085470085470085, "bright_count": 5.0, "dark_median_rent": 8.0, "dark_count": 1.0, "rent_gap": -2.9914529914529915 }, "geometry": { "type": "Polygon", "coordinates": [ [ [ 116.32972664205974, 39.822867256322922 ], [ 116.32972664205974, 39.836664496410918 ], [ 116.311760336377375, 39.836664496410918 ], [ 116.311760336377375, 39.822867256322922 ], [ 116.32972664205974, 39.822867256322922 ] ] ] } },
{ "type": "Feature", "properties": { "grid_id": 1987, "bright_median_rent": 3.5, "bright_count": 11.0, "dark_median_rent": 11.11, "dark_count": 1.0, "rent_gap": -7.61 }, "geometry": { "type": "Polygon", "coordinates": [ [ [ 116.32972664205974, 39.878039588327013 ], [ 116.32972664205974, 39.891825742042649 ], [ 116.311760336377375, 39.891825742042649 ], [ 116.311760336377375, 39.878039588327013 ], [ 116.32972664205974, 39.878039588327013 ] ] ] } },
{ "type": "Feature", "properties": { "grid_id": 1988, "bright_median_rent": 11.665, "bright_count": 4.0, "dark_median_rent": 9.2592592592592595, "dark_count": 1.0, "rent_gap": 2.4057407407407396 }, "geometry": { "type": "Polygon", "coordinates": [ [ [ 116.32972664205974, 39.891825742042649 ], [ 116.32972664205974, 39.905609123561611 ], [ 116.311760336377375, 39.905609123561611 ], [ 116.311760336377375, 39.891825742042649 ], [ 116.32972664205974, 39.891825742042649 ] ] ] } },
{ "type": "Feature", "properties": { "grid_id": 1991, "bright_median_rent": 13.33, "bright_count": 5.0, "dark_median_rent": 13.333333333333334, "dark_count": 1.0, "rent_gap": -0.0033333333333338544 }, "geometry": { "type": "Polygon", "coordinates": [ [ [ 116.32972664205974, 39.933167569049935 ], [ 116.32972664205974, 39.946942632541244 ], [ 116.311760336377375, 39.946942632541244 ], [ 116.311760336377375, 39.933167569049935 ], [ 116.32972664205974, 39.933167569049935 ] ] ] } },
{ "type": "Feature", "properties": { "grid_id": 1992, "bright_median_rent": 8.6904761904761898, "bright_count": 8.0, "dark_median_rent": 17.22388888888889, "dark_count": 2.0, "rent_gap": -8.5334126984127003 }, "geometry": { "type": "Polygon", "coordinates": [ [ [ 116.32972664205974, 39.946942632541244 ], [ 116.32972664205974, 39.960714922879774 ], [ 116.311760336377375, 39.960714922879774 ], [ 116.311760336377375, 39.946942632541244 ], [ 116.32972664205974, 39.946942632541244 ] ] ] } },
{ "type": "Feature", "properties": { "grid_id": 1993, "bright_median_rent": 10.926785032455136, "bright_count": 12.0, "dark_median_rent": 17.78, "dark_count": 1.0, "rent_gap": -6.853214967544865 }, "geometry": { "type": "Polygon", "coordinates": [ [ [ 116.32972664205974, 39.960714922879774 ], [ 116.32972664205974, 39.974484439828224 ], [ 116.311760336377375, 39.974484439828224 ], [ 116.311760336377375, 39.960714922879774 ], [ 116.32972664205974, 39.960714922879774 ] ] ] } },
{ "type": "Feature", "properties": { "grid_id": 1995, "bright_median_rent": 5.5555555555555554, "bright_count": 3.0, "dark_median_rent": 5.5555555555555554, "dark_count": 4.0, "rent_gap": 0.0 }, "geometry": { "type": "Polygon", "coordinates": [ [ [ 116.32972664205974, 39.988251183149977 ], [ 116.32972664205974, 40.002015152609111 ], [ 116.311760336377375, 40.002015152609111 ], [ 116.311760336377375, 39.988251183149977 ], [ 116.32972664205974, 39.988251183149977 ] ] ] } },
{ "type": "Feature", "properties": { "grid_id": 2001, "bright_median_rent": 6.666666666666667, "bright_count": 5.0, "dark_median_rent": 6.67, "dark_count": 1.0, "rent_gap": -0.0033333333333329662 }, "geometry": { "type": "Polygon", "coordinates": [ [ [ 116.32972664205974, 40.070793383756275 ], [ 116.32972664205974, 40.084540705123793 ], [ 116.311760336377375, 40.084540705123793 ], [ 116.311760336377375, 40.070793383756275 ], [ 116.32972664205974, 40.070793383756275 ] ] ] } },
{ "type": "Feature", "properties": { "grid_id": 2065, "bright_median_rent": 6.3128787878787875, "bright_count": 3.0, "dark_median_rent": 5.83, "dark_count": 1.0, "rent_gap": 0.48287878787878746 }, "geometry": { "type": "Polygon", "coordinates": [ [ [ 116.347692947742146, 39.836664496410918 ], [ 116.347692947742146, 39.850458965269354 ], [ 116.32972664205974, 39.850458965269354 ], [ 116.32972664205974, 39.836664496410918 ], [ 116.347692947742146, 39.836664496410918 ] ] ] } },
{ "type": "Feature", "properties": { "grid_id": 2069, "bright_median_rent": 8.1, "bright_count": 4.0, "dark_median_rent": 10.0, "dark_count": 1.0, "rent_gap": -1.9 }, "geometry": { "type": "Polygon", "coordinates": [ [ [ 116.347692947742146, 39.891825742042649 ], [ 116.347692947742146, 39.905609123561611 ], [ 116.32972664205974, 39.905609123561611 ], [ 116.32972664205974, 39.891825742042649 ], [ 116.347692947742146, 39.891825742042649 ] ] ] } },
{ "type": "Feature", "properties": { "grid_id": 2073, "bright_median_rent": 12.5, "bright_count": 7.0, "dark_median_rent": 0.01, "dark_count": 3.0, "rent_gap": 12.49 }, "geometry": { "type": "Polygon", "coordinates": [ [ [ 116.347692947742146, 39.946942632541244 ], [ 116.347692947742146, 39.960714922879774 ], [ 116.32972664205974, 39.960714922879774 ], [ 116.32972664205974, 39.946942632541244 ], [ 116.347692947742146, 39.946942632541244 ] ] ] } },
{ "type": "Feature", "properties": { "grid_id": 2076, "bright_median_rent": 8.6296296296296298, "bright_count": 22.0, "dark_median_rent": 7.2222222222222223, "dark_count": 4.0, "rent_gap": 1.4074074074074074 }, "geometry": { "type": "Polygon", "coordinates": [ [ [ 116.347692947742146, 39.988251183149977 ], [ 116.347692947742146, 40.002015152609111 ], [ 116.32972664205974, 40.002015152609111 ], [ 116.32972664205974, 39.988251183149977 ], [ 116.347692947742146, 39.988251183149977 ] ] ] } },
{ "type": "Feature", "properties": { "grid_id": 2080, "bright_median_rent": 6.0, "bright_count": 6.0, "dark_median_rent": 4.0, "dark_count": 1.0, "rent_gap": 2.0 }, "geometry": { "type": "Polygon", "coordinates": [ [ [ 116.347692947742146, 40.043290415461868 ], [ 116.347692947742146, 40.05704328712504 ], [ 116.32972664205974, 40.05704328712504 ], [ 116.32972664205974, 40.043290415461868 ], [ 116.347692947742146, 40.043290415461868 ] ] ] } },
{ "type": "Feature", "properties": { "grid_id": 2083, "bright_median_rent": 9.2592592592592595, "bright_count": 1.0, "dark_median_rent": 9.2592592592592595, "dark_count": 1.0, "rent_gap": 0.0 }, "geometry": { "type": "Polygon", "coordinates": [ [ [ 116.347692947742146, 40.084540705123793 ], [ 116.347692947742146, 40.098285250996447 ], [ 116.32972664205974, 40.098285250996447 ], [ 116.32972664205974, 40.084540705123793 ], [ 116.347692947742146, 40.084540705123793 ] ] ] } },
{ "type": "Feature", "properties": { "grid_id": 2143, "bright_median_rent": 8.5, "bright_count": 8.0, "dark_median_rent": 40.0, "dark_count": 1.0, "rent_gap": -31.5 }, "geometry": { "type": "Polygon", "coordinates": [ [ [ 116.365659253424539, 39.795264463433064 ], [ 116.365659253424539, 39.809067245248904 ], [ 116.347692947742146, 39.809067245248904 ], [ 116.347692947742146, 39.795264463433064 ], [ 116.365659253424539, 39.795264463433064 ] ] ] } },
{ "type": "Feature", "properties": { "grid_id": 2153, "bright_median_rent": 8.5470085470085468, "bright_count": 3.0, "dark_median_rent": 11.666666666666666, "dark_count": 3.0, "rent_gap": -3.1196581196581192 }, "geometry": { "type": "Polygon", "coordinates": [ [ [ 116.365659253424539, 39.933167569049935 ], [ 116.365659253424539, 39.946942632541244 ], [ 116.347692947742146, 39.946942632541244 ], [ 116.347692947742146, 39.933167569049935 ], [ 116.365659253424539, 39.933167569049935 ] ] ] } },
{ "type": "Feature", "properties": { "grid_id": 2154, "bright_median_rent": 11.229508196721312, "bright_count": 11.0, "dark_median_rent": 12.0, "dark_count": 1.0, "rent_gap": -0.77049180327868783 }, "geometry": { "type": "Polygon", "coordinates": [ [ [ 116.365659253424539, 39.946942632541244 ], [ 116.365659253424539, 39.960714922879774 ], [ 116.347692947742146, 39.960714922879774 ], [ 116.347692947742146, 39.946942632541244 ], [ 116.365659253424539, 39.946942632541244 ] ] ] } },
{ "type": "Feature", "properties": { "grid_id": 2155, "bright_median_rent": 10.506666666666666, "bright_count": 17.0, "dark_median_rent": 11.111111111111111, "dark_count": 3.0, "rent_gap": -0.60444444444444478 }, "geometry": { "type": "Polygon", "coordinates": [ [ [ 116.365659253424539, 39.960714922879774 ], [ 116.365659253424539, 39.974484439828224 ], [ 116.347692947742146, 39.974484439828224 ], [ 116.347692947742146, 39.960714922879774 ], [ 116.365659253424539, 39.960714922879774 ] ] ] } },
{ "type": "Feature", "properties": { "grid_id": 2158, "bright_median_rent": 9.4954954954954935, "bright_count": 15.0, "dark_median_rent": 10.833333333333334, "dark_count": 4.0, "rent_gap": -1.3378378378378404 }, "geometry": { "type": "Polygon", "coordinates": [ [ [ 116.365659253424539, 40.002015152609111 ], [ 116.365659253424539, 40.015776347970395 ], [ 116.347692947742146, 40.015776347970395 ], [ 116.347692947742146, 40.002015152609111 ], [ 116.365659253424539, 40.002015152609111 ] ] ] } },
{ "type": "Feature", "properties": { "grid_id": 2162, "bright_median_rent": 4.0, "bright_count": 3.0, "dark_median_rent": 6.48, "dark_count": 1.0, "rent_gap": -2.48 }, "geometry": { "type": "Polygon", "coordinates": [ [ [ 116.365659253424539, 40.05704328712504 ], [ 116.365659253424539, 40.070793383756275 ], [ 116.347692947742146, 40.070793383756275 ], [ 116.347692947742146, 40.05704328712504 ], [ 116.365659253424539, 40.05704328712504 ] ] ] } },
{ "type": "Feature", "properties": { "grid_id": 2227, "bright_median_rent": 5.0, "bright_count": 2.0, "dark_median_rent": 2.0, "dark_count": 1.0, "rent_gap": 3.0 }, "geometry": { "type": "Polygon", "coordinates": [ [ [ 116.383625559106932, 39.836664496410918 ], [ 116.383625559106932, 39.850458965269354 ], [ 116.365659253424539, 39.850458965269354 ], [ 116.365659253424539, 39.836664496410918 ], [ 116.383625559106932, 39.836664496410918 ] ] ] } },
{ "type": "Feature", "properties": { "grid_id": 2228, "bright_median_rent": 12.5, "bright_count": 3.0, "dark_median_rent": 7.5, "dark_count": 1.0, "rent_gap": 5.0 }, "geometry": { "type": "Polygon", "coordinates": [ [ [ 116.383625559106932, 39.850458965269354 ], [ 116.383625559106932, 39.864250662655429 ], [ 116.365659253424539, 39.864250662655429 ], [ 116.365659253424539, 39.850458965269354 ], [ 116.383625559106932, 39.850458965269354 ] ] ] } },
{ "type": "Feature", "properties": { "grid_id": 2232, "bright_median_rent": 18.333333333333332, "bright_count": 2.0, "dark_median_rent": 5.0, "dark_count": 1.0, "rent_gap": 13.333333333333332 }, "geometry": { "type": "Polygon", "coordinates": [ [ [ 116.383625559106932, 39.905609123561611 ], [ 116.383625559106932, 39.919389732643822 ], [ 116.365659253424539, 39.919389732643822 ], [ 116.365659253424539, 39.905609123561611 ], [ 116.383625559106932, 39.905609123561611 ] ] ] } },
{ "type": "Feature", "properties": { "grid_id": 2234, "bright_median_rent": 8.29, "bright_count": 10.0, "dark_median_rent": 4.0, "dark_count": 1.0, "rent_gap": 4.29 }, "geometry": { "type": "Polygon", "coordinates": [ [ [ 116.383625559106932, 39.933167569049935 ], [ 116.383625559106932, 39.946942632541244 ], [ 116.365659253424539, 39.946942632541244 ], [ 116.365659253424539, 39.933167569049935 ], [ 116.383625559106932, 39.933167569049935 ] ] ] } },
{ "type": "Feature", "properties": { "grid_id": 2238, "bright_median_rent": 9.8439393939393938, "bright_count": 2.0, "dark_median_rent": 7.5, "dark_count": 1.0, "rent_gap": 2.3439393939393938 }, "geometry": { "type": "Polygon", "coordinates": [ [ [ 116.383625559106932, 39.988251183149977 ], [ 116.383625559106932, 40.002015152609111 ], [ 116.365659253424539, 40.002015152609111 ], [ 116.365659253424539, 39.988251183149977 ], [ 116.383625559106932, 39.988251183149977 ] ] ] } },
{ "type": "Feature", "properties": { "grid_id": 2239, "bright_median_rent": 8.18, "bright_count": 53.0, "dark_median_rent": 66.67, "dark_count": 1.0, "rent_gap": -58.49 }, "geometry": { "type": "Polygon", "coordinates": [ [ [ 116.383625559106932, 40.002015152609111 ], [ 116.383625559106932, 40.015776347970395 ], [ 116.365659253424539, 40.015776347970395 ], [ 116.365659253424539, 40.002015152609111 ], [ 116.383625559106932, 40.002015152609111 ] ] ] } },
{ "type": "Feature", "properties": { "grid_id": 2246, "bright_median_rent": 1.4988814317673378, "bright_count": 1.0, "dark_median_rent": 3.4444444444444446, "dark_count": 5.0, "rent_gap": -1.9455630126771069 }, "geometry": { "type": "Polygon", "coordinates": [ [ [ 116.383625559106932, 40.098285250996447 ], [ 116.383625559106932, 40.112027021143838 ], [ 116.365659253424539, 40.112027021143838 ], [ 116.365659253424539, 40.098285250996447 ], [ 116.383625559106932, 40.098285250996447 ] ] ] } },
{ "type": "Feature", "properties": { "grid_id": 2399, "bright_median_rent": 5.5, "bright_count": 9.0, "dark_median_rent": 12.22, "dark_count": 2.0, "rent_gap": -6.72 }, "geometry": { "type": "Polygon", "coordinates": [ [ [ 116.419558170471717, 39.974484439828224 ], [ 116.419558170471717, 39.988251183149977 ], [ 116.401591864789324, 39.988251183149977 ], [ 116.401591864789324, 39.974484439828224 ], [ 116.419558170471717, 39.974484439828224 ] ] ] } },
{ "type": "Feature", "properties": { "grid_id": 2401, "bright_median_rent": 5.2, "bright_count": 3.0, "dark_median_rent": 11.11, "dark_count": 1.0, "rent_gap": -5.91 }, "geometry": { "type": "Polygon", "coordinates": [ [ [ 116.419558170471717, 40.002015152609111 ], [ 116.419558170471717, 40.015776347970395 ], [ 116.401591864789324, 40.015776347970395 ], [ 116.401591864789324, 40.002015152609111 ], [ 116.419558170471717, 40.002015152609111 ] ] ] } },
{ "type": "Feature", "properties": { "grid_id": 2404, "bright_median_rent": 4.555, "bright_count": 4.0, "dark_median_rent": 4.17, "dark_count": 1.0, "rent_gap": 0.385 }, "geometry": { "type": "Polygon", "coordinates": [ [ [ 116.419558170471717, 40.043290415461868 ], [ 116.419558170471717, 40.05704328712504 ], [ 116.401591864789324, 40.05704328712504 ], [ 116.401591864789324, 40.043290415461868 ], [ 116.419558170471717, 40.043290415461868 ] ] ] } },
{ "type": "Feature", "properties": { "grid_id": 2405, "bright_median_rent": 6.67, "bright_count": 16.0, "dark_median_rent": 5.56, "dark_count": 3.0, "rent_gap": 1.11 }, "geometry": { "type": "Polygon", "coordinates": [ [ [ 116.419558170471717, 40.05704328712504 ], [ 116.419558170471717, 40.070793383756275 ], [ 116.401591864789324, 40.070793383756275 ], [ 116.401591864789324, 40.05704328712504 ], [ 116.419558170471717, 40.05704328712504 ] ] ] } },
{ "type": "Feature", "properties": { "grid_id": 2471, "bright_median_rent": 5.5555555555555554, "bright_count": 6.0, "dark_median_rent": 7.78, "dark_count": 1.0, "rent_gap": -2.2244444444444449 }, "geometry": { "type": "Polygon", "coordinates": [ [ [ 116.437524476154081, 39.850458965269354 ], [ 116.437524476154081, 39.864250662655429 ], [ 116.419558170471717, 39.864250662655429 ], [ 116.419558170471717, 39.850458965269354 ], [ 116.437524476154081, 39.850458965269354 ] ] ] } },
{ "type": "Feature", "properties": { "grid_id": 2472, "bright_median_rent": 5.503703703703704, "bright_count": 7.0, "dark_median_rent": 10.166666666666666, "dark_count": 4.0, "rent_gap": -4.6629629629629621 }, "geometry": { "type": "Polygon", "coordinates": [ [ [ 116.437524476154081, 39.864250662655429 ], [ 116.437524476154081, 39.878039588327013 ], [ 116.419558170471717, 39.878039588327013 ], [ 116.419558170471717, 39.864250662655429 ], [ 116.437524476154081, 39.864250662655429 ] ] ] } },
{ "type": "Feature", "properties": { "grid_id": 2478, "bright_median_rent": 9.1666666666666661, "bright_count": 8.0, "dark_median_rent": 9.12, "dark_count": 2.0, "rent_gap": 0.04666666666666508 }, "geometry": { "type": "Polygon", "coordinates": [ [ [ 116.437524476154081, 39.946942632541244 ], [ 116.437524476154081, 39.960714922879774 ], [ 116.419558170471717, 39.960714922879774 ], [ 116.419558170471717, 39.946942632541244 ], [ 116.437524476154081, 39.946942632541244 ] ] ] } },
{ "type": "Feature", "properties": { "grid_id": 2481, "bright_median_rent": 8.0, "bright_count": 10.0, "dark_median_rent": 0.01, "dark_count": 1.0, "rent_gap": 7.99 }, "geometry": { "type": "Polygon", "coordinates": [ [ [ 116.437524476154081, 39.988251183149977 ], [ 116.437524476154081, 40.002015152609111 ], [ 116.419558170471717, 40.002015152609111 ], [ 116.419558170471717, 39.988251183149977 ], [ 116.437524476154081, 39.988251183149977 ] ] ] } },
{ "type": "Feature", "properties": { "grid_id": 2482, "bright_median_rent": 11.08, "bright_count": 56.0, "dark_median_rent": 9.2592592592592595, "dark_count": 1.0, "rent_gap": 1.8207407407407405 }, "geometry": { "type": "Polygon", "coordinates": [ [ [ 116.437524476154081, 40.002015152609111 ], [ 116.437524476154081, 40.015776347970395 ], [ 116.419558170471717, 40.015776347970395 ], [ 116.419558170471717, 40.002015152609111 ], [ 116.437524476154081, 40.002015152609111 ] ] ] } },
{ "type": "Feature", "properties": { "grid_id": 2485, "bright_median_rent": 5.585, "bright_count": 6.0, "dark_median_rent": 5.8, "dark_count": 3.0, "rent_gap": -0.215 }, "geometry": { "type": "Polygon", "coordinates": [ [ [ 116.437524476154081, 40.043290415461868 ], [ 116.437524476154081, 40.05704328712504 ], [ 116.419558170471717, 40.05704328712504 ], [ 116.419558170471717, 40.043290415461868 ], [ 116.437524476154081, 40.043290415461868 ] ] ] } },
{ "type": "Feature", "properties": { "grid_id": 2486, "bright_median_rent": 6.1133333333333333, "bright_count": 6.0, "dark_median_rent": 11.111111111111111, "dark_count": 3.0, "rent_gap": -4.9977777777777774 }, "geometry": { "type": "Polygon", "coordinates": [ [ [ 116.437524476154081, 40.05704328712504 ], [ 116.437524476154081, 40.070793383756275 ], [ 116.419558170471717, 40.070793383756275 ], [ 116.419558170471717, 40.05704328712504 ], [ 116.437524476154081, 40.05704328712504 ] ] ] } },
{ "type": "Feature", "properties": { "grid_id": 2553, "bright_median_rent": 5.205, "bright_count": 8.0, "dark_median_rent": 5.83, "dark_count": 1.0, "rent_gap": -0.625 }, "geometry": { "type": "Polygon", "coordinates": [ [ [ 116.455490781836488, 39.864250662655429 ], [ 116.455490781836488, 39.878039588327013 ], [ 116.437524476154081, 39.878039588327013 ], [ 116.437524476154081, 39.864250662655429 ], [ 116.455490781836488, 39.864250662655429 ] ] ] } },
{ "type": "Feature", "properties": { "grid_id": 2554, "bright_median_rent": 11.805555555555555, "bright_count": 2.0, "dark_median_rent": 6.67, "dark_count": 1.0, "rent_gap": 5.1355555555555554 }, "geometry": { "type": "Polygon", "coordinates": [ [ [ 116.455490781836488, 39.878039588327013 ], [ 116.455490781836488, 39.891825742042649 ], [ 116.437524476154081, 39.891825742042649 ], [ 116.437524476154081, 39.878039588327013 ], [ 116.455490781836488, 39.878039588327013 ] ] ] } },
{ "type": "Feature", "properties": { "grid_id": 2556, "bright_median_rent": 7.0, "bright_count": 3.0, "dark_median_rent": 1.0, "dark_count": 1.0, "rent_gap": 6.0 }, "geometry": { "type": "Polygon", "coordinates": [ [ [ 116.455490781836488, 39.905609123561611 ], [ 116.455490781836488, 39.919389732643822 ], [ 116.437524476154081, 39.919389732643822 ], [ 116.437524476154081, 39.905609123561611 ], [ 116.455490781836488, 39.905609123561611 ] ] ] } },
{ "type": "Feature", "properties": { "grid_id": 2557, "bright_median_rent": 7.49, "bright_count": 71.0, "dark_median_rent": 11.46, "dark_count": 1.0, "rent_gap": -3.97 }, "geometry": { "type": "Polygon", "coordinates": [ [ [ 116.455490781836488, 39.919389732643822 ], [ 116.455490781836488, 39.933167569049935 ], [ 116.437524476154081, 39.933167569049935 ], [ 116.437524476154081, 39.919389732643822 ], [ 116.455490781836488, 39.919389732643822 ] ] ] } },
{ "type": "Feature", "properties": { "grid_id": 2558, "bright_median_rent": 9.1666666666666679, "bright_count": 20.0, "dark_median_rent": 10.0, "dark_count": 1.0, "rent_gap": -0.83333333333333215 }, "geometry": { "type": "Polygon", "coordinates": [ [ [ 116.455490781836488, 39.933167569049935 ], [ 116.455490781836488, 39.946942632541244 ], [ 116.437524476154081, 39.946942632541244 ], [ 116.437524476154081, 39.933167569049935 ], [ 116.455490781836488, 39.933167569049935 ] ] ] } },
{ "type": "Feature", "properties": { "grid_id": 2560, "bright_median_rent": 4.4444444444444446, "bright_count": 1.0, "dark_median_rent": 8.7, "dark_count": 1.0, "rent_gap": -4.2555555555555546 }, "geometry": { "type": "Polygon", "coordinates": [ [ [ 116.455490781836488, 39.960714922879774 ], [ 116.455490781836488, 39.974484439828224 ], [ 116.437524476154081, 39.974484439828224 ], [ 116.437524476154081, 39.960714922879774 ], [ 116.455490781836488, 39.960714922879774 ] ] ] } },
{ "type": "Feature", "properties": { "grid_id": 2630, "bright_median_rent": 5.0, "bright_count": 6.0, "dark_median_rent": 11.111111111111111, "dark_count": 1.0, "rent_gap": -6.1111111111111107 }, "geometry": { "type": "Polygon", "coordinates": [ [ [ 116.473457087518881, 39.809067245248904 ], [ 116.473457087518881, 39.822867256322922 ], [ 116.455490781836488, 39.822867256322922 ], [ 116.455490781836488, 39.809067245248904 ], [ 116.473457087518881, 39.809067245248904 ] ] ] } },
{ "type": "Feature", "properties": { "grid_id": 2634, "bright_median_rent": 10.9, "bright_count": 9.0, "dark_median_rent": 16.666666666666668, "dark_count": 2.0, "rent_gap": -5.7666666666666675 }, "geometry": { "type": "Polygon", "coordinates": [ [ [ 116.473457087518881, 39.864250662655429 ], [ 116.473457087518881, 39.878039588327013 ], [ 116.455490781836488, 39.878039588327013 ], [ 116.455490781836488, 39.864250662655429 ], [ 116.473457087518881, 39.864250662655429 ] ] ] } },
{ "type": "Feature", "properties": { "grid_id": 2635, "bright_median_rent": 8.0025940337224384, "bright_count": 13.0, "dark_median_rent": 14.166666666666666, "dark_count": 1.0, "rent_gap": -6.1640726329442277 }, "geometry": { "type": "Polygon", "coordinates": [ [ [ 116.473457087518881, 39.878039588327013 ], [ 116.473457087518881, 39.891825742042649 ], [ 116.455490781836488, 39.891825742042649 ], [ 116.455490781836488, 39.878039588327013 ], [ 116.473457087518881, 39.878039588327013 ] ] ] } },
{ "type": "Feature", "properties": { "grid_id": 2636, "bright_median_rent": 8.43, "bright_count": 97.0, "dark_median_rent": 10.185185185185183, "dark_count": 12.0, "rent_gap": -1.7551851851851836 }, "geometry": { "type": "Polygon", "coordinates": [ [ [ 116.473457087518881, 39.891825742042649 ], [ 116.473457087518881, 39.905609123561611 ], [ 116.455490781836488, 39.905609123561611 ], [ 116.455490781836488, 39.891825742042649 ], [ 116.473457087518881, 39.891825742042649 ] ] ] } },
{ "type": "Feature", "properties": { "grid_id": 2637, "bright_median_rent": 5.6344537815126046, "bright_count": 122.0, "dark_median_rent": 5.11, "dark_count": 14.0, "rent_gap": 0.52445378151260424 }, "geometry": { "type": "Polygon", "coordinates": [ [ [ 116.473457087518881, 39.905609123561611 ], [ 116.473457087518881, 39.919389732643822 ], [ 116.455490781836488, 39.919389732643822 ], [ 116.455490781836488, 39.905609123561611 ], [ 116.473457087518881, 39.905609123561611 ] ] ] } },
{ "type": "Feature", "properties": { "grid_id": 2638, "bright_median_rent": 8.1, "bright_count": 199.0, "dark_median_rent": 3.37, "dark_count": 6.0, "rent_gap": 4.73 }, "geometry": { "type": "Polygon", "coordinates": [ [ [ 116.473457087518881, 39.919389732643822 ], [ 116.473457087518881, 39.933167569049935 ], [ 116.455490781836488, 39.933167569049935 ], [ 116.455490781836488, 39.919389732643822 ], [ 116.473457087518881, 39.919389732643822 ] ] ] } },
{ "type": "Feature", "properties": { "grid_id": 2639, "bright_median_rent": 6.36, "bright_count": 66.0, "dark_median_rent": 16.11, "dark_count": 2.0, "rent_gap": -9.75 }, "geometry": { "type": "Polygon", "coordinates": [ [ [ 116.473457087518881, 39.933167569049935 ], [ 116.473457087518881, 39.946942632541244 ], [ 116.455490781836488, 39.946942632541244 ], [ 116.455490781836488, 39.933167569049935 ], [ 116.473457087518881, 39.933167569049935 ] ] ] } },
{ "type": "Feature", "properties": { "grid_id": 2641, "bright_median_rent": 5.8, "bright_count": 7.0, "dark_median_rent": 12.5, "dark_count": 1.0, "rent_gap": -6.7 }, "geometry": { "type": "Polygon", "coordinates": [ [ [ 116.473457087518881, 39.960714922879774 ], [ 116.473457087518881, 39.974484439828224 ], [ 116.455490781836488, 39.974484439828224 ], [ 116.455490781836488, 39.960714922879774 ], [ 116.473457087518881, 39.960714922879774 ] ] ] } },
{ "type": "Feature", "properties": { "grid_id": 2643, "bright_median_rent": 6.0, "bright_count": 3.0, "dark_median_rent": 6.11, "dark_count": 1.0, "rent_gap": -0.11 }, "geometry": { "type": "Polygon", "coordinates": [ [ [ 116.473457087518881, 39.988251183149977 ], [ 116.473457087518881, 40.002015152609111 ], [ 116.455490781836488, 40.002015152609111 ], [ 116.455490781836488, 39.988251183149977 ], [ 116.473457087518881, 39.988251183149977 ] ] ] } },
{ "type": "Feature", "properties": { "grid_id": 2715, "bright_median_rent": 15.0, "bright_count": 58.0, "dark_median_rent": 11.76, "dark_count": 1.0, "rent_gap": 3.24 }, "geometry": { "type": "Polygon", "coordinates": [ [ [ 116.491423393201273, 39.864250662655429 ], [ 116.491423393201273, 39.878039588327013 ], [ 116.473457087518881, 39.878039588327013 ], [ 116.473457087518881, 39.864250662655429 ], [ 116.491423393201273, 39.864250662655429 ] ] ] } },
{ "type": "Feature", "properties": { "grid_id": 2718, "bright_median_rent": 80.0, "bright_count": 59.0, "dark_median_rent": 6.666666666666667, "dark_count": 2.0, "rent_gap": 73.333333333333329 }, "geometry": { "type": "Polygon", "coordinates": [ [ [ 116.491423393201273, 39.905609123561611 ], [ 116.491423393201273, 39.919389732643822 ], [ 116.473457087518881, 39.919389732643822 ], [ 116.473457087518881, 39.905609123561611 ], [ 116.491423393201273, 39.905609123561611 ] ] ] } },
{ "type": "Feature", "properties": { "grid_id": 2719, "bright_median_rent": 9.5, "bright_count": 13.0, "dark_median_rent": 10.415, "dark_count": 4.0, "rent_gap": -0.915 }, "geometry": { "type": "Polygon", "coordinates": [ [ [ 116.491423393201273, 39.919389732643822 ], [ 116.491423393201273, 39.933167569049935 ], [ 116.473457087518881, 39.933167569049935 ], [ 116.473457087518881, 39.919389732643822 ], [ 116.491423393201273, 39.919389732643822 ] ] ] } },
{ "type": "Feature", "properties": { "grid_id": 2724, "bright_median_rent": 8.9743589743589745, "bright_count": 11.0, "dark_median_rent": 11.506296296296295, "dark_count": 4.0, "rent_gap": -2.5319373219373205 }, "geometry": { "type": "Polygon", "coordinates": [ [ [ 116.491423393201273, 39.988251183149977 ], [ 116.491423393201273, 40.002015152609111 ], [ 116.473457087518881, 40.002015152609111 ], [ 116.473457087518881, 39.988251183149977 ], [ 116.491423393201273, 39.988251183149977 ] ] ] } },
{ "type": "Feature", "properties": { "grid_id": 2725, "bright_median_rent": 7.0, "bright_count": 33.0, "dark_median_rent": 15.0, "dark_count": 19.0, "rent_gap": -8.0 }, "geometry": { "type": "Polygon", "coordinates": [ [ [ 116.491423393201273, 40.002015152609111 ], [ 116.491423393201273, 40.015776347970395 ], [ 116.473457087518881, 40.015776347970395 ], [ 116.473457087518881, 40.002015152609111 ], [ 116.491423393201273, 40.002015152609111 ] ] ] } },
{ "type": "Feature", "properties": { "grid_id": 2726, "bright_median_rent": 8.1944444444444446, "bright_count": 3.0, "dark_median_rent": 15.75, "dark_count": 2.0, "rent_gap": -7.5555555555555554 }, "geometry": { "type": "Polygon", "coordinates": [ [ [ 116.491423393201273, 40.015776347970395 ], [ 116.491423393201273, 40.029534768999262 ], [ 116.473457087518881, 40.029534768999262 ], [ 116.473457087518881, 40.015776347970395 ], [ 116.491423393201273, 40.015776347970395 ] ] ] } },
{ "type": "Feature", "properties": { "grid_id": 2791, "bright_median_rent": 7.2333333333333334, "bright_count": 2.0, "dark_median_rent": 4.89, "dark_count": 1.0, "rent_gap": 2.3433333333333337 }, "geometry": { "type": "Polygon", "coordinates": [ [ [ 116.509389698883666, 39.795264463433064 ], [ 116.509389698883666, 39.809067245248904 ], [ 116.491423393201273, 39.809067245248904 ], [ 116.491423393201273, 39.795264463433064 ], [ 116.509389698883666, 39.795264463433064 ] ] ] } },
{ "type": "Feature", "properties": { "grid_id": 2798, "bright_median_rent": 4.583333333333333, "bright_count": 13.0, "dark_median_rent": 11.11, "dark_count": 1.0, "rent_gap": -6.5266666666666664 }, "geometry": { "type": "Polygon", "coordinates": [ [ [ 116.509389698883666, 39.891825742042649 ], [ 116.509389698883666, 39.905609123561611 ], [ 116.491423393201273, 39.905609123561611 ], [ 116.491423393201273, 39.891825742042649 ], [ 116.509389698883666, 39.891825742042649 ] ] ] } },
{ "type": "Feature", "properties": { "grid_id": 2800, "bright_median_rent": 6.6468621399176957, "bright_count": 2.0, "dark_median_rent": 11.11, "dark_count": 21.0, "rent_gap": -4.4631378600823037 }, "geometry": { "type": "Polygon", "coordinates": [ [ [ 116.509389698883666, 39.919389732643822 ], [ 116.509389698883666, 39.933167569049935 ], [ 116.491423393201273, 39.933167569049935 ], [ 116.491423393201273, 39.919389732643822 ], [ 116.509389698883666, 39.919389732643822 ] ] ] } },
{ "type": "Feature", "properties": { "grid_id": 2804, "bright_median_rent": 9.6527777777777786, "bright_count": 4.0, "dark_median_rent": 8.8894444444444449, "dark_count": 2.0, "rent_gap": 0.76333333333333364 }, "geometry": { "type": "Polygon", "coordinates": [ [ [ 116.509389698883666, 39.974484439828224 ], [ 116.509389698883666, 39.988251183149977 ], [ 116.491423393201273, 39.988251183149977 ], [ 116.491423393201273, 39.974484439828224 ], [ 116.509389698883666, 39.974484439828224 ] ] ] } },
{ "type": "Feature", "properties": { "grid_id": 2872, "bright_median_rent": 10.180035650623886, "bright_count": 2.0, "dark_median_rent": 9.8, "dark_count": 1.0, "rent_gap": 0.38003565062388489 }, "geometry": { "type": "Polygon", "coordinates": [ [ [ 116.527356004566059, 39.795264463433064 ], [ 116.527356004566059, 39.809067245248904 ], [ 116.509389698883666, 39.809067245248904 ], [ 116.509389698883666, 39.795264463433064 ], [ 116.527356004566059, 39.795264463433064 ] ] ] } },
{ "type": "Feature", "properties": { "grid_id": 2881, "bright_median_rent": 8.0, "bright_count": 21.0, "dark_median_rent": 8.89, "dark_count": 7.0, "rent_gap": -0.89 }, "geometry": { "type": "Polygon", "coordinates": [ [ [ 116.527356004566059, 39.919389732643822 ], [ 116.527356004566059, 39.933167569049935 ], [ 116.509389698883666, 39.933167569049935 ], [ 116.509389698883666, 39.919389732643822 ], [ 116.527356004566059, 39.919389732643822 ] ] ] } },
{ "type": "Feature", "properties": { "grid_id": 2953, "bright_median_rent": 8.0, "bright_count": 3.0, "dark_median_rent": 9.8, "dark_count": 1.0, "rent_gap": -1.8 }, "geometry": { "type": "Polygon", "coordinates": [ [ [ 116.545322310248437, 39.795264463433064 ], [ 116.545322310248437, 39.809067245248904 ], [ 116.527356004566059, 39.809067245248904 ], [ 116.527356004566059, 39.795264463433064 ], [ 116.545322310248437, 39.795264463433064 ] ] ] } },
{ "type": "Feature", "properties": { "grid_id": 2958, "bright_median_rent": 5.5, "bright_count": 2.0, "dark_median_rent": 4.0, "dark_count": 1.0, "rent_gap": 1.5 }, "geometry": { "type": "Polygon", "coordinates": [ [ [ 116.545322310248437, 39.864250662655429 ], [ 116.545322310248437, 39.878039588327013 ], [ 116.527356004566059, 39.878039588327013 ], [ 116.527356004566059, 39.864250662655429 ], [ 116.545322310248437, 39.864250662655429 ] ] ] } },
{ "type": "Feature", "properties": { "grid_id": 2962, "bright_median_rent": 6.25, "bright_count": 7.0, "dark_median_rent": 13.055, "dark_count": 2.0, "rent_gap": -6.805 }, "geometry": { "type": "Polygon", "coordinates": [ [ [ 116.545322310248437, 39.919389732643822 ], [ 116.545322310248437, 39.933167569049935 ], [ 116.527356004566059, 39.933167569049935 ], [ 116.527356004566059, 39.919389732643822 ], [ 116.545322310248437, 39.919389732643822 ] ] ] } },
{ "type": "Feature", "properties": { "grid_id": 3042, "bright_median_rent": 7.0, "bright_count": 10.0, "dark_median_rent": 0.01, "dark_count": 1.0, "rent_gap": 6.99 }, "geometry": { "type": "Polygon", "coordinates": [ [ [ 116.56328861593083, 39.905609123561611 ], [ 116.56328861593083, 39.919389732643822 ], [ 116.545322310248437, 39.919389732643822 ], [ 116.545322310248437, 39.905609123561611 ], [ 116.56328861593083, 39.905609123561611 ] ] ] } },
{ "type": "Feature", "properties": { "grid_id": 3046, "bright_median_rent": 5.0200014011489431, "bright_count": 7.0, "dark_median_rent": 10.0, "dark_count": 1.0, "rent_gap": -4.9799985988510569 }, "geometry": { "type": "Polygon", "coordinates": [ [ [ 116.56328861593083, 39.960714922879774 ], [ 116.56328861593083, 39.974484439828224 ], [ 116.545322310248437, 39.974484439828224 ], [ 116.545322310248437, 39.960714922879774 ], [ 116.56328861593083, 39.960714922879774 ] ] ] } },
{ "type": "Feature", "properties": { "grid_id": 3123, "bright_median_rent": 18.0, "bright_count": 57.0, "dark_median_rent": 7.4983333333333331, "dark_count": 2.0, "rent_gap": 10.501666666666667 }, "geometry": { "type": "Polygon", "coordinates": [ [ [ 116.581254921613223, 39.905609123561611 ], [ 116.581254921613223, 39.919389732643822 ], [ 116.56328861593083, 39.919389732643822 ], [ 116.56328861593083, 39.905609123561611 ], [ 116.581254921613223, 39.905609123561611 ] ] ] } },
{ "type": "Feature", "properties": { "grid_id": 3124, "bright_median_rent": 3.7882811117011861, "bright_count": 19.0, "dark_median_rent": 3.0, "dark_count": 1.0, "rent_gap": 0.78828111170118609 }, "geometry": { "type": "Polygon", "coordinates": [ [ [ 116.581254921613223, 39.919389732643822 ], [ 116.581254921613223, 39.933167569049935 ], [ 116.56328861593083, 39.933167569049935 ], [ 116.56328861593083, 39.919389732643822 ], [ 116.581254921613223, 39.919389732643822 ] ] ] } },
{ "type": "Feature", "properties": { "grid_id": 3204, "bright_median_rent": 3.0883333333333329, "bright_count": 6.0, "dark_median_rent": 6.885, "dark_count": 2.0, "rent_gap": -3.7966666666666669 }, "geometry": { "type": "Polygon", "coordinates": [ [ [ 116.599221227295615, 39.905609123561611 ], [ 116.599221227295615, 39.919389732643822 ], [ 116.581254921613223, 39.919389732643822 ], [ 116.581254921613223, 39.905609123561611 ], [ 116.599221227295615, 39.905609123561611 ] ] ] } },
{ "type": "Feature", "properties": { "grid_id": 3205, "bright_median_rent": 4.0011841326228534, "bright_count": 12.0, "dark_median_rent": 12.22, "dark_count": 1.0, "rent_gap": -8.2188158673771472 }, "geometry": { "type": "Polygon", "coordinates": [ [ [ 116.599221227295615, 39.919389732643822 ], [ 116.599221227295615, 39.933167569049935 ], [ 116.581254921613223, 39.933167569049935 ], [ 116.581254921613223, 39.919389732643822 ], [ 116.599221227295615, 39.919389732643822 ] ] ] } },
{ "type": "Feature", "properties": { "grid_id": 3286, "bright_median_rent": 3.5976505139500734, "bright_count": 23.0, "dark_median_rent": 5.1483333333333334, "dark_count": 2.0, "rent_gap": -1.55068281938326 }, "geometry": { "type": "Polygon", "coordinates": [ [ [ 116.617187532978008, 39.919389732643822 ], [ 116.617187532978008, 39.933167569049935 ], [ 116.599221227295615, 39.933167569049935 ], [ 116.599221227295615, 39.919389732643822 ], [ 116.617187532978008, 39.919389732643822 ] ] ] } },
{ "type": "Feature", "properties": { "grid_id": 3447, "bright_median_rent": 5.9411764705882355, "bright_count": 46.0, "dark_median_rent": 8.8888888888888893, "dark_count": 4.0, "rent_gap": -2.9477124183006538 }, "geometry": { "type": "Polygon", "coordinates": [ [ [ 116.653120144342779, 39.905609123561611 ], [ 116.653120144342779, 39.919389732643822 ], [ 116.635153838660401, 39.919389732643822 ], [ 116.635153838660401, 39.905609123561611 ], [ 116.653120144342779, 39.905609123561611 ] ] ] } },
{ "type": "Feature", "properties": { "grid_id": 3464, "bright_median_rent": 5.56, "bright_count": 1.0, "dark_median_rent": 4.28, "dark_count": 2.0, "rent_gap": 1.28 }, "geometry": { "type": "Polygon", "coordinates": [ [ [ 116.653120144342779, 40.139502233344487 ], [ 116.653120144342779, 40.153235674940305 ], [ 116.635153838660401, 40.153235674940305 ], [ 116.635153838660401, 40.139502233344487 ], [ 116.653120144342779, 40.139502233344487 ] ] ] } },
{ "type": "Feature", "properties": { "grid_id": 3527, "bright_median_rent": 4.3, "bright_count": 1.0, "dark_median_rent": 12.75, "dark_count": 1.0, "rent_gap": -8.45 }, "geometry": { "type": "Polygon", "coordinates": [ [ [ 116.671086450025172, 39.891825742042649 ], [ 116.671086450025172, 39.905609123561611 ], [ 116.653120144342779, 39.905609123561611 ], [ 116.653120144342779, 39.891825742042649 ], [ 116.671086450025172, 39.891825742042649 ] ] ] } },
{ "type": "Feature", "properties": { "grid_id": 3528, "bright_median_rent": 3.3, "bright_count": 3.0, "dark_median_rent": 7.5, "dark_count": 31.0, "rent_gap": -4.2 }, "geometry": { "type": "Polygon", "coordinates": [ [ [ 116.671086450025172, 39.905609123561611 ], [ 116.671086450025172, 39.919389732643822 ], [ 116.653120144342779, 39.919389732643822 ], [ 116.653120144342779, 39.905609123561611 ], [ 116.671086450025172, 39.905609123561611 ] ] ] } },
{ "type": "Feature", "properties": { "grid_id": 3544, "bright_median_rent": 6.7516666666666669, "bright_count": 2.0, "dark_median_rent": 7.9166666666666661, "dark_count": 4.0, "rent_gap": -1.165 }, "geometry": { "type": "Polygon", "coordinates": [ [ [ 116.671086450025172, 40.125766015336204 ], [ 116.671086450025172, 40.139502233344487 ], [ 116.653120144342779, 40.139502233344487 ], [ 116.653120144342779, 40.125766015336204 ], [ 116.671086450025172, 40.125766015336204 ] ] ] } },
{ "type": "Feature", "properties": { "grid_id": 3607, "bright_median_rent": 5.56, "bright_count": 11.0, "dark_median_rent": 15.0, "dark_count": 1.0, "rent_gap": -9.44 }, "geometry": { "type": "Polygon", "coordinates": [ [ [ 116.689052755707564, 39.878039588327013 ], [ 116.689052755707564, 39.891825742042649 ], [ 116.671086450025172, 39.891825742042649 ], [ 116.671086450025172, 39.878039588327013 ], [ 116.689052755707564, 39.878039588327013 ] ] ] } }
]
}
