{
"type": "FeatureCollection",
"name": "rent_gap_h3",
"crs": { "type": "name", "properties": { "name": "urn:ogc:def:crs:OGC:1.3:CRS84" } },
"features": [
{ "type": "Feature", "properties": { "h3_id": "8831aa55b1fffff", "bright_median_rent": 7.3737373737373737, "bright_listings": 157.0, "dark_median_rent": 3.37, "dark_listings": 6.0, "rent_gap": 4.0037373737373736 }, "geometry": { "type": "Polygon", "coordinates": [ [ [ 116.454905703723639, 39.927753002846508 ], [ 116.452575041764874, 39.923717439508877 ], [ 116.45525764431477, 39.920441220913709 ], [ 116.460270381971597, 39.921200329346576 ], [ 116.462601255220292, 39.925235441564766 ], [ 116.459919179591182, 39.928511896447922 ], [ 116.454905703723639, 39.927753002846508 ] ] ] } },
{ "type": "Feature", "properties": { "h3_id": "8831aa436dfffff", "bright_median_rent": 6.5, "bright_listings": 13.0, "dark_median_rent": 12.0, "dark_listings": 1.0, "rent_gap": -5.5 }, "geometry": { "type": "Polygon", "coordinates": [ [ [ 116.259189989500044, 39.897945390257199 ], [ 116.256869004340032, 39.893900388756556 ], [ 116.259570771680245, 39.890625278739911 ], [ 116.264592999902504, 39.891394931192998 ], [ 116.266914201487793, 39.895439481299377 ], [ 116.264212958494966, 39.898714830325538 ], [ 116.259189989500044, 39.897945390257199 ] ] ] } },
{ "type": "Feature", "properties": { "h3_id": "8831aa4719fffff", "bright_median_rent": 5.3950617283950617, "bright_listings": 11.0, "dark_median_rent": 10.185185185185183, "dark_listings": 12.0, "rent_gap": -4.7901234567901216 }, "geometry": { "type": "Polygon", "coordinates": [ [ [ 116.471343691638452, 39.900787719620759 ], [ 116.469013561065793, 39.896753585060019 ], [ 116.471693010963335, 39.893478845729227 ], [ 116.476702064973693, 39.894238004767679 ], [ 116.479032406162759, 39.898271688349993 ], [ 116.476353482793783, 39.901546663850603 ], [ 116.471343691638452, 39.900787719620759 ] ] ] } },
{ "type": "Feature", "properties": { "h3_id": "8831aa4759fffff", "bright_median_rent": 5.56, "bright_listings": 97.0, "dark_median_rent": 5.11, "dark_listings": 9.0, "rent_gap": 0.45 }, "geometry": { "type": "Polygon", "coordinates": [ [ [ 116.462952037464547, 39.917924264710294 ], [ 116.460621482143409, 39.913889327930335 ], [ 116.463302717630924, 39.910613653601395 ], [ 116.468313981710338, 39.911372679813354 ], [ 116.470644748019325, 39.915407165529501 ], [ 116.467964039329942, 39.918683076075915 ], [ 116.462952037464547, 39.917924264710294 ] ] ] } },
{ "type": "Feature", "properties": { "h3_id": "8831aa4317fffff", "bright_median_rent": 3.5, "bright_listings": 8.0, "dark_median_rent": 11.11, "dark_listings": 1.0, "rent_gap": -7.61 }, "geometry": { "type": "Polygon", "coordinates": [ [ [ 116.312851386225148, 39.887717364170214 ], [ 116.310528575510034, 39.883675344517371 ], [ 116.31322412208614, 39.880400904226576 ], [ 116.318241954766165, 39.881168245234811 ], [ 116.320564980343647, 39.885209813639086 ], [ 116.317869958447972, 39.888484492262265 ], [ 116.312851386225148, 39.887717364170214 ] ] ] } },
{ "type": "Feature", "properties": { "h3_id": "8831aa4619fffff", "bright_median_rent": 8.0, "bright_listings": 20.0, "dark_median_rent": 8.056111111111111, "dark_listings": 2.0, "rent_gap": -0.056111111111111001 }, "geometry": { "type": "Polygon", "coordinates": [ [ [ 116.522737973717, 39.934320808952734 ], [ 116.52040414369911, 39.930288605077017 ], [ 116.52307990430586, 39.927012214993525 ], [ 116.52808896727403, 39.927767793406602 ], [ 116.530423006772651, 39.93179954627923 ], [ 116.527747773891164, 39.935076171720205 ], [ 116.522737973717, 39.934320808952734 ] ] ] } },
{ "type": "Feature", "properties": { "h3_id": "8831aa558dfffff", "bright_median_rent": 11.111111111111111, "bright_listings": 7.0, "dark_median_rent": 10.0, "dark_listings": 1.0, "rent_gap": 1.1111111111111107 }, "geometry": { "type": "Polygon", "coordinates": [ [ [ 116.438800723361595, 39.947415375028989 ], [ 116.436469848986832, 39.943378558659205 ], [ 116.439155188481735, 39.940101252332809 ], [ 116.444170875254741, 39.940860525925387 ], [ 116.446501961524646, 39.94489689106468 ], [ 116.443817149195482, 39.948174433820277 ], [ 116.438800723361595, 39.947415375028989 ] ] ] } },
{ "type": "Feature", "properties": { "h3_id": "8831aa55bdfffff", "bright_median_rent": 7.49, "bright_listings": 61.0, "dark_median_rent": 11.46, "dark_listings": 1.0, "rent_gap": -3.97 }, "geometry": { "type": "Polygon", "coordinates": [ [ [ 116.447208468871807, 39.93027042075795 ], [ 116.444878018435219, 39.926234406274936 ], [ 116.447561568295384, 39.922958033851842 ], [ 116.452575041764874, 39.923717439508877 ], [ 116.454905703723639, 39.927753002846508 ], [ 116.45222268075976, 39.931029611650906 ], [ 116.447208468871807, 39.93027042075795 ] ] ] } },
{ "type": "Feature", "properties": { "h3_id": "8831aa4135fffff", "bright_median_rent": 5.6, "bright_listings": 6.0, "dark_median_rent": 7.5, "dark_listings": 1.0, "rent_gap": -1.9 }, "geometry": { "type": "Polygon", "coordinates": [ [ [ 116.293457871635866, 39.822082005393568 ], [ 116.291138855785647, 39.818040411675689 ], [ 116.293833007184574, 39.814769420724126 ], [ 116.298845651358008, 39.815539784634524 ], [ 116.301164882053826, 39.819580927327436 ], [ 116.298471253799619, 39.822852157113424 ], [ 116.293457871635866, 39.822082005393568 ] ] ] } },
{ "type": "Feature", "properties": { "h3_id": "8831aa5765fffff", "bright_median_rent": 8.18, "bright_listings": 53.0, "dark_median_rent": 10.833333333333334, "dark_listings": 4.0, "rent_gap": -2.6533333333333342 }, "geometry": { "type": "Polygon", "coordinates": [ [ [ 116.35986356586541, 40.009201538442397 ], [ 116.357533236068889, 40.005159332069582 ], [ 116.360230192138076, 40.001878549240814 ], [ 116.365256950424609, 40.002639735511863 ], [ 116.367587494805932, 40.006681490250529 ], [ 116.364891066385525, 40.009962510330809 ], [ 116.35986356586541, 40.009201538442397 ] ] ] } },
{ "type": "Feature", "properties": { "h3_id": "8831aa56a7fffff", "bright_median_rent": 4.5509523809523813, "bright_listings": 16.0, "dark_median_rent": 0.01, "dark_listings": 2.0, "rent_gap": 4.5409523809523815 }, "geometry": { "type": "Polygon", "coordinates": [ [ [ 116.481502194042761, 40.005438299152267 ], [ 116.479166863933855, 40.001402444756323 ], [ 116.481850720037698, 39.998122162460341 ], [ 116.486869377532827, 39.998877498898239 ], [ 116.48920491884104, 40.002912901924311 ], [ 116.486521591523996, 40.006193419860672 ], [ 116.481502194042761, 40.005438299152267 ] ] ] } },
{ "type": "Feature", "properties": { "h3_id": "8831aa4465fffff", "bright_median_rent": 6.0, "bright_listings": 3.0, "dark_median_rent": 11.76, "dark_listings": 1.0, "rent_gap": -5.76 }, "geometry": { "type": "Polygon", "coordinates": [ [ [ 116.472740359530889, 39.871555622380242 ], [ 116.470411499397699, 39.867522191482472 ], [ 116.473089272731983, 39.864249014614806 ], [ 116.478095380326465, 39.865009032362543 ], [ 116.480424450797557, 39.869042012401017 ], [ 116.477747203404974, 39.872315425529507 ], [ 116.472740359530889, 39.871555622380242 ] ] ] } },
{ "type": "Feature", "properties": { "h3_id": "8831aa50e3fffff", "bright_median_rent": 5.0011415525114149, "bright_listings": 12.0, "dark_median_rent": 17.78, "dark_listings": 1.0, "rent_gap": -12.778858447488586 }, "geometry": { "type": "Polygon", "coordinates": [ [ [ 116.323451736046451, 39.977851990922467 ], [ 116.321124384916686, 39.973808578766068 ], [ 116.323823551345811, 39.970529373434147 ], [ 116.328849542338176, 39.971293342382204 ], [ 116.331177108794648, 39.975336302954808 ], [ 116.328478469001624, 39.978615746141706 ], [ 116.323451736046451, 39.977851990922467 ] ] ] } },
{ "type": "Feature", "properties": { "h3_id": "8831aa5583fffff", "bright_median_rent": 5.666666666666667, "bright_listings": 49.0, "dark_median_rent": 22.22, "dark_listings": 1.0, "rent_gap": -16.553333333333331 }, "geometry": { "type": "Polygon", "coordinates": [ [ [ 116.454201515085828, 39.942378263231248 ], [ 116.45187021715347, 39.938342349296562 ], [ 116.45455366066227, 39.935065350343514 ], [ 116.459567874957543, 39.935824029061074 ], [ 116.461899384319864, 39.939859491817046 ], [ 116.459216468026014, 39.943136727012586 ], [ 116.454201515085828, 39.942378263231248 ] ] ] } },
{ "type": "Feature", "properties": { "h3_id": "8831aa09a3fffff", "bright_median_rent": 2.2124413145539905, "bright_listings": 9.0, "dark_median_rent": 12.22, "dark_listings": 1.0, "rent_gap": -10.007558685446011 }, "geometry": { "type": "Polygon", "coordinates": [ [ [ 116.598851537205803, 39.923708629220023 ], [ 116.596514983493037, 39.919680585618671 ], [ 116.599182128137798, 39.91640496995069 ], [ 116.604185298313922, 39.917157163481541 ], [ 116.60652205933313, 39.921184756285236 ], [ 116.603855442938269, 39.924460606334023 ], [ 116.598851537205803, 39.923708629220023 ] ] ] } },
{ "type": "Feature", "properties": { "h3_id": "8831aa46d5fffff", "bright_median_rent": 18.0, "bright_listings": 64.0, "dark_median_rent": 11.666666666666666, "dark_listings": 1.0, "rent_gap": 6.3333333333333339 }, "geometry": { "type": "Polygon", "coordinates": [ [ [ 116.561146316317178, 39.921713089320747 ], [ 116.558811441210324, 39.917683140197177 ], [ 116.561482474930656, 39.914407526341961 ], [ 116.56648785598513, 39.915161626696559 ], [ 116.568822939416009, 39.919191124948902 ], [ 116.566152433537013, 39.922466973696203 ], [ 116.561146316317178, 39.921713089320747 ] ] ] } },
{ "type": "Feature", "properties": { "h3_id": "8831aa413dfffff", "bright_median_rent": 5.5026455026455023, "bright_listings": 2.0, "dark_median_rent": 17.78, "dark_listings": 3.0, "rent_gap": -12.277354497354498 }, "geometry": { "type": "Polygon", "coordinates": [ [ [ 116.293082626964235, 39.829395159255192 ], [ 116.290763296607679, 39.825353387047571 ], [ 116.293457871635866, 39.822082005393568 ], [ 116.298471253799619, 39.822852157113424 ], [ 116.300790799073283, 39.826893478266072 ], [ 116.29809674733518, 39.830165098732387 ], [ 116.293082626964235, 39.829395159255192 ] ] ] } },
{ "type": "Feature", "properties": { "h3_id": "8831aa7229fffff", "bright_median_rent": 5.9411764705882355, "bright_listings": 44.0, "dark_median_rent": 8.8888888888888893, "dark_listings": 4.0, "rent_gap": -2.9477124183006538 }, "geometry": { "type": "Polygon", "coordinates": [ [ [ 116.644525679297402, 39.915863903876698 ], [ 116.642187565017139, 39.911838390722693 ], [ 116.64484946434483, 39.908563323488579 ], [ 116.649848949490817, 39.909313535586435 ], [ 116.652187269763019, 39.913338598073828 ], [ 116.649525898965621, 39.916613899108157 ], [ 116.644525679297402, 39.915863903876698 ] ] ] } },
{ "type": "Feature", "properties": { "h3_id": "8831aacd93fffff", "bright_median_rent": 6.67, "bright_listings": 17.0, "dark_median_rent": 5.56, "dark_listings": 5.0, "rent_gap": 1.11 }, "geometry": { "type": "Polygon", "coordinates": [ [ [ 116.418028892969886, 40.062249615874762 ], [ 116.415693666504239, 40.05820928015072 ], [ 116.418387243677557, 40.05492582434767 ], [ 116.423415518057098, 40.055682467972282 ], [ 116.4257509579447, 40.059722351973079 ], [ 116.423057910100411, 40.063006044050937 ], [ 116.418028892969886, 40.062249615874762 ] ] ] } },
{ "type": "Feature", "properties": { "h3_id": "8831aa4107fffff", "bright_median_rent": 6.4964539007092199, "bright_listings": 2.0, "dark_median_rent": 7.333333333333333, "dark_listings": 3.0, "rent_gap": -0.83687943262411313 }, "geometry": { "type": "Polygon", "coordinates": [ [ [ 116.292707273122133, 39.836708882136136 ], [ 116.290387628174528, 39.832666931551238 ], [ 116.293082626964235, 39.829395159255192 ], [ 116.29809674733518, 39.830165098732387 ], [ 116.30041660727143, 39.834206598232321 ], [ 116.297722131917183, 39.837478609318609 ], [ 116.292707273122133, 39.836708882136136 ] ] ] } },
{ "type": "Feature", "properties": { "h3_id": "8831aa55c1fffff", "bright_median_rent": 4.4444444444444446, "bright_listings": 1.0, "dark_median_rent": 16.67, "dark_listings": 1.0, "rent_gap": -12.225555555555557 }, "geometry": { "type": "Polygon", "coordinates": [ [ [ 116.438091483305882, 39.962045315849117 ], [ 116.435759972893692, 39.958008149215878 ], [ 116.438446154984632, 39.954730062925648 ], [ 116.443463320096868, 39.955488906863359 ], [ 116.44579504254483, 39.959525622207011 ], [ 116.44310938791395, 39.962803944880918 ], [ 116.438091483305882, 39.962045315849117 ] ] ] } },
{ "type": "Feature", "properties": { "h3_id": "8831aa7239fffff", "bright_median_rent": 3.3, "bright_listings": 3.0, "dark_median_rent": 7.5, "dark_listings": 31.0, "rent_gap": -4.2 }, "geometry": { "type": "Polygon", "coordinates": [ [ [ 116.667184978623325, 39.915586898606072 ], [ 116.664845926581165, 39.911562563635059 ], [ 116.667505412287525, 39.908287576816832 ], [ 116.67250342136127, 39.909036691449337 ], [ 116.674842678772947, 39.91306057580497 ], [ 116.672183721809603, 39.916335796121643 ], [ 116.667184978623325, 39.915586898606072 ] ] ] } },
{ "type": "Feature", "properties": { "h3_id": "8831aa4537fffff", "bright_median_rent": 3.802777777777778, "bright_listings": 2.0, "dark_median_rent": 11.111111111111111, "dark_listings": 1.0, "rent_gap": -7.3083333333333327 }, "geometry": { "type": "Polygon", "coordinates": [ [ [ 116.460174078198577, 39.818135754980808 ], [ 116.457848175075966, 39.814102835489201 ], [ 116.460524487085664, 39.810832477255069 ], [ 116.465526177563774, 39.811594801862597 ], [ 116.467852290930054, 39.815627270682057 ], [ 116.465176503643008, 39.818897865544542 ], [ 116.460174078198577, 39.818135754980808 ] ] ] } },
{ "type": "Feature", "properties": { "h3_id": "8831aa4635fffff", "bright_median_rent": 4.5, "bright_listings": 4.0, "dark_median_rent": 11.11, "dark_listings": 1.0, "rent_gap": -6.61 }, "geometry": { "type": "Polygon", "coordinates": [ [ [ 116.501398769781545, 39.905337344782893 ], [ 116.499067161840088, 39.901304663061751 ], [ 116.501743667230144, 39.898029760676522 ], [ 116.506751253711982, 39.898787304239171 ], [ 116.509083071482422, 39.902819535026836 ], [ 116.506407093010765, 39.906094673163672 ], [ 116.501398769781545, 39.905337344782893 ] ] ] } },
{ "type": "Feature", "properties": { "h3_id": "8831aa56e7fffff", "bright_median_rent": 7.3055555555555554, "bright_listings": 2.0, "dark_median_rent": 30.0, "dark_listings": 1.0, "rent_gap": -22.694444444444443 }, "geometry": { "type": "Polygon", "coordinates": [ [ [ 116.473098101099168, 40.022598727205903 ], [ 116.470762343953425, 40.018562073709639 ], [ 116.473447992126651, 40.015280858388813 ], [ 116.478468868456673, 40.016036060854645 ], [ 116.480804837175128, 40.020072262896306 ], [ 116.478119718060171, 40.023353713905131 ], [ 116.473098101099168, 40.022598727205903 ] ] ] } },
{ "type": "Feature", "properties": { "h3_id": "8831aa466bfffff", "bright_median_rent": 10.416666666666666, "bright_listings": 5.0, "dark_median_rent": 5.915, "dark_listings": 2.0, "rent_gap": 4.501666666666666 }, "geometry": { "type": "Polygon", "coordinates": [ [ [ 116.48498288880775, 39.932302318971132 ], [ 116.48265074654951, 39.928268209595487 ], [ 116.485330401128749, 39.924991826962184 ], [ 116.49034167072324, 39.925749317813541 ], [ 116.492674023482493, 39.929782976114467 ], [ 116.489994896215123, 39.933059594617099 ], [ 116.48498288880775, 39.932302318971132 ] ] ] } },
{ "type": "Feature", "properties": { "h3_id": "883181948bfffff", "bright_median_rent": 6.666666666666667, "bright_listings": 1.0, "dark_median_rent": 6.67, "dark_listings": 1.0, "rent_gap": -0.0033333333333329662 }, "geometry": { "type": "Polygon", "coordinates": [ [ [ 116.14572291815459, 39.747631206473464 ], [ 116.143413557307127, 39.743583648772905 ], [ 116.146119415449249, 39.740316285480894 ], [ 116.15113411437197, 39.741096238794782 ], [ 116.153443693491838, 39.745143345487172 ], [ 116.150738355485686, 39.748410949852584 ], [ 116.14572291815459, 39.747631206473464 ] ] ] } },
{ "type": "Feature", "properties": { "h3_id": "8831aa50c3fffff", "bright_median_rent": 9.2592592592592595, "bright_listings": 3.0, "dark_median_rent": 5.0, "dark_listings": 1.0, "rent_gap": 4.2592592592592595 }, "geometry": { "type": "Polygon", "coordinates": [ [ [ 116.33779170102828, 39.994788090300361 ], [ 116.335462968322375, 39.99074505456943 ], [ 116.33816150629896, 39.98746498419267 ], [ 116.343188249921724, 39.988227711925084 ], [ 116.345517197700858, 39.992270296034192 ], [ 116.342819186853589, 39.995550604011179 ], [ 116.33779170102828, 39.994788090300361 ] ] ] } },
{ "type": "Feature", "properties": { "h3_id": "8831aa50b9fffff", "bright_median_rent": 12.12, "bright_listings": 11.0, "dark_median_rent": 10.42, "dark_listings": 1.0, "rent_gap": 1.7 }, "geometry": { "type": "Polygon", "coordinates": [ [ [ 116.346622789905382, 39.970304482994706 ], [ 116.344294793498193, 39.966262425513946 ], [ 116.346991105759116, 39.962983675619448 ], [ 116.352014887782033, 39.963746745610273 ], [ 116.354343098813487, 39.967788351583067 ], [ 116.351647313267165, 39.971067339051487 ], [ 116.346622789905382, 39.970304482994706 ] ] ] } },
{ "type": "Feature", "properties": { "h3_id": "8831aa0341fffff", "bright_median_rent": 5.56, "bright_listings": 1.0, "dark_median_rent": 4.28, "dark_listings": 2.0, "rent_gap": 1.28 }, "geometry": { "type": "Polygon", "coordinates": [ [ [ 116.641813165229138, 40.147234863044915 ], [ 116.639464550560163, 40.143204295193044 ], [ 116.642138822971177, 40.139916910746813 ], [ 116.647161176806677, 40.140659861174967 ], [ 116.649509999416836, 40.144689977450263 ], [ 116.646836260319631, 40.147977594852122 ], [ 116.641813165229138, 40.147234863044915 ] ] ] } },
{ "type": "Feature", "properties": { "h3_id": "8831aa5083fffff", "bright_median_rent": 10.5, "bright_listings": 5.0, "dark_median_rent": 11.111111111111111, "dark_listings": 2.0, "rent_gap": -0.61111111111111072 }, "geometry": { "type": "Polygon", "coordinates": [ [ [ 116.346254366642427, 39.977625855638649 ], [ 116.343926053196981, 39.973583622501792 ], [ 116.346622789905382, 39.970304482994706 ], [ 116.351647313267165, 39.971067339051487 ], [ 116.353975841408371, 39.975109120650835 ], [ 116.351279631561482, 39.978388497709403 ], [ 116.346254366642427, 39.977625855638649 ] ] ] } },
{ "type": "Feature", "properties": { "h3_id": "8831aa0909fffff", "bright_median_rent": 5.0200014011489431, "bright_listings": 5.0, "dark_median_rent": 10.0, "dark_listings": 1.0, "rent_gap": -4.9799985988510569 }, "geometry": { "type": "Polygon", "coordinates": [ [ [ 116.551442077205834, 39.968083788589148 ], [ 116.549105494195601, 39.964052343150058 ], [ 116.55177997869977, 39.960774231967108 ], [ 116.556790517578875, 39.961527331354951 ], [ 116.559127309557596, 39.96555832571898 ], [ 116.556453353757576, 39.968836671748555 ], [ 116.551442077205834, 39.968083788589148 ] ] ] } },
{ "type": "Feature", "properties": { "h3_id": "8831aa50edfffff", "bright_median_rent": 10.500515995872032, "bright_listings": 16.0, "dark_median_rent": 12.037037037037036, "dark_listings": 1.0, "rent_gap": -1.5365210411650043 }, "geometry": { "type": "Polygon", "coordinates": [ [ [ 116.307995924801588, 39.982882921380025 ], [ 116.305669005028378, 39.978838605980414 ], [ 116.30837007550312, 39.975559097686883 ], [ 116.313397539237542, 39.976323666729066 ], [ 116.315724674806262, 39.980367530494469 ], [ 116.31302413091467, 39.983647276830432 ], [ 116.307995924801588, 39.982882921380025 ] ] ] } },
{ "type": "Feature", "properties": { "h3_id": "8831aa5a91fffff", "bright_median_rent": 8.5022026431718061, "bright_listings": 1.0, "dark_median_rent": 0.5, "dark_listings": 1.0, "rent_gap": 8.0022026431718061 }, "geometry": { "type": "Polygon", "coordinates": [ [ [ 116.25842809222317, 39.912587315909569 ], [ 116.256106477015919, 39.908541959331465 ], [ 116.258809096363834, 39.905266069371734 ], [ 116.26383280634947, 39.906035297003449 ], [ 116.266154638126494, 39.910080202127716 ], [ 116.263452543417642, 39.913356331052725 ], [ 116.25842809222317, 39.912587315909569 ] ] ] } },
{ "type": "Feature", "properties": { "h3_id": "8831aa41c9fffff", "bright_median_rent": 6.3128787878787875, "bright_listings": 3.0, "dark_median_rent": 5.83, "dark_listings": 1.0, "rent_gap": 0.48287878787878746 }, "geometry": { "type": "Polygon", "coordinates": [ [ [ 116.337463465670993, 39.850939077296381 ], [ 116.335141273353855, 39.846899121177877 ], [ 116.337832283307321, 39.843626698952271 ], [ 116.342844961471442, 39.844393994682399 ], [ 116.34516736766723, 39.848433499747685 ], [ 116.342476881889198, 39.851706160114546 ], [ 116.337463465670993, 39.850939077296381 ] ] ] } },
{ "type": "Feature", "properties": { "h3_id": "8831aa030bfffff", "bright_median_rent": 4.17, "bright_listings": 1.0, "dark_median_rent": 6.083333333333333, "dark_listings": 2.0, "rent_gap": -1.9133333333333331 }, "geometry": { "type": "Polygon", "coordinates": [ [ [ 116.657528478496857, 40.134828214943383 ], [ 116.655179771380205, 40.130798720443288 ], [ 116.657851723914092, 40.127512036871344 ], [ 116.662871850425816, 40.128254614985309 ], [ 116.665220764948842, 40.132283657991373 ], [ 116.662549345622992, 40.135570574355654 ], [ 116.657528478496857, 40.134828214943383 ] ] ] } },
{ "type": "Feature", "properties": { "h3_id": "8831aacd9bfffff", "bright_median_rent": 4.805, "bright_listings": 4.0, "dark_median_rent": 5.56, "dark_listings": 1.0, "rent_gap": -0.755 }, "geometry": { "type": "Polygon", "coordinates": [ [ [ 116.417670437623727, 40.069573969965816 ], [ 116.415334892027843, 40.06553346069542 ], [ 116.418028892969886, 40.062249615874762 ], [ 116.423057910100411, 40.063006044050937 ], [ 116.425393669189219, 40.067046101568856 ], [ 116.422700197724225, 40.070330182641499 ], [ 116.417670437623727, 40.069573969965816 ] ] ] } },
{ "type": "Feature", "properties": { "h3_id": "8831aa5253fffff", "bright_median_rent": 6.945555555555555, "bright_listings": 2.0, "dark_median_rent": 11.111111111111111, "dark_listings": 3.0, "rent_gap": -4.1655555555555557 }, "geometry": { "type": "Polygon", "coordinates": [ [ [ 116.303873051530957, 40.063482248084902 ], [ 116.301542643575686, 40.059436005088934 ], [ 116.304248405702594, 40.05615221659356 ], [ 116.30928404765352, 40.056914433276674 ], [ 116.311614672198587, 40.06096022431516 ], [ 116.308909438272934, 40.064244250606571 ], [ 116.303873051530957, 40.063482248084902 ] ] ] } },
{ "type": "Feature", "properties": { "h3_id": "8831aa4663fffff", "bright_median_rent": 6.3888888888888893, "bright_listings": 4.0, "dark_median_rent": 10.0, "dark_listings": 1.0, "rent_gap": -3.6111111111111107 }, "geometry": { "type": "Polygon", "coordinates": [ [ [ 116.485330401128749, 39.924991826962184 ], [ 116.48299857717997, 39.920957892710099 ], [ 116.485677812325477, 39.917681900376117 ], [ 116.490688344323871, 39.918439606380346 ], [ 116.493020378703974, 39.922473089587342 ], [ 116.49034167072324, 39.925749317813541 ], [ 116.485330401128749, 39.924991826962184 ] ] ] } },
{ "type": "Feature", "properties": { "h3_id": "8831aa46d9fffff", "bright_median_rent": 2.8011204481792715, "bright_listings": 15.0, "dark_median_rent": 3.0, "dark_listings": 1.0, "rent_gap": -0.19887955182072847 }, "geometry": { "type": "Polygon", "coordinates": [ [ [ 116.568152635693437, 39.933802732681031 ], [ 116.565816913515292, 39.929772885623002 ], [ 116.568487836298075, 39.926496646407728 ], [ 116.573493953168295, 39.92725001947592 ], [ 116.575829883576617, 39.931279415629952 ], [ 116.573159488953181, 39.934555889598073 ], [ 116.568152635693437, 39.933802732681031 ] ] ] } },
{ "type": "Feature", "properties": { "h3_id": "8831aa50c5fffff", "bright_median_rent": 5.5555555555555554, "bright_listings": 3.0, "dark_median_rent": 5.5555555555555554, "dark_listings": 4.0, "rent_gap": 0.0 }, "geometry": { "type": "Polygon", "coordinates": [ [ [ 116.322707780010262, 39.992498921445986 ], [ 116.320379795148682, 39.988455157913648 ], [ 116.323079812283794, 39.985175173651356 ], [ 116.328107287420323, 39.985938715089809 ], [ 116.330435487752283, 39.989982026979362 ], [ 116.327735997546952, 39.993262249051774 ], [ 116.322707780010262, 39.992498921445986 ] ] ] } },
{ "type": "Feature", "properties": { "h3_id": "8831aa7a65fffff", "bright_median_rent": 8.0, "bright_listings": 3.0, "dark_median_rent": 9.8, "dark_listings": 1.0, "rent_gap": -1.8 }, "geometry": { "type": "Polygon", "coordinates": [ [ [ 116.52887753962429, 39.802852721202441 ], [ 116.526549435326231, 39.798823680046269 ], [ 116.529217686240031, 39.795554325706924 ], [ 116.534213516437802, 39.796313776732333 ], [ 116.536541828976226, 39.80034236742204 ], [ 116.533874103144754, 39.803611957531189 ], [ 116.52887753962429, 39.802852721202441 ] ] ] } },
{ "type": "Feature", "properties": { "h3_id": "8831aa4707fffff", "bright_median_rent": 4.7222222222222223, "bright_listings": 1.0, "dark_median_rent": 6.67, "dark_listings": 1.0, "rent_gap": -1.9477777777777776 }, "geometry": { "type": "Polygon", "coordinates": [ [ [ 116.44932552470749, 39.886404588727942 ], [ 116.446996979705006, 39.882369628922099 ], [ 116.449678008162195, 39.879095598796233 ], [ 116.454687055675137, 39.879856291937074 ], [ 116.457015811779797, 39.883890800775859 ], [ 116.45433530933812, 39.887165067419261 ], [ 116.44932552470749, 39.886404588727942 ] ] ] } },
{ "type": "Feature", "properties": { "h3_id": "8831aa4665fffff", "bright_median_rent": 9.72, "bright_listings": 1.0, "dark_median_rent": 15.0, "dark_listings": 1.0, "rent_gap": -5.28 }, "geometry": { "type": "Polygon", "coordinates": [ [ [ 116.470295123636305, 39.922717737200585 ], [ 116.467964039329942, 39.918683076075915 ], [ 116.470644748019325, 39.915407165529501 ], [ 116.475656014114463, 39.916165679984665 ], [ 116.47798730924643, 39.920199890041822 ], [ 116.475307127526534, 39.923476036689721 ], [ 116.470295123636305, 39.922717737200585 ] ] ] } },
{ "type": "Feature", "properties": { "h3_id": "8831aa55dbfffff", "bright_median_rent": 5.65, "bright_listings": 4.0, "dark_median_rent": 12.5, "dark_listings": 1.0, "rent_gap": -6.85 }, "geometry": { "type": "Polygon", "coordinates": [ [ [ 116.46819523851228, 39.966593038343667 ], [ 116.465862244409479, 39.962557327138811 ], [ 116.468545474210813, 39.959279075792509 ], [ 116.473561170331266, 39.960036299664914 ], [ 116.475894375679061, 39.964071559624713 ], [ 116.473211673730461, 39.967350046935536 ], [ 116.46819523851228, 39.966593038343667 ] ] ] } },
{ "type": "Feature", "properties": { "h3_id": "8831aa56a5fffff", "bright_median_rent": 9.03, "bright_listings": 15.0, "dark_median_rent": 15.0, "dark_listings": 16.0, "rent_gap": -5.97 }, "geometry": { "type": "Polygon", "coordinates": [ [ [ 116.473797781149358, 40.007963552900065 ], [ 116.47146266247286, 40.003927247108251 ], [ 116.474147468211811, 40.000646810914134 ], [ 116.479166863933855, 40.001402444756323 ], [ 116.481502194042761, 40.005438299152267 ], [ 116.478817917066436, 40.008718971080256 ], [ 116.473797781149358, 40.007963552900065 ] ] ] } },
{ "type": "Feature", "properties": { "h3_id": "8831aa4545fffff", "bright_median_rent": 5.9066666666666663, "bright_listings": 2.0, "dark_median_rent": 7.78, "dark_listings": 1.0, "rent_gap": -1.873333333333334 }, "geometry": { "type": "Polygon", "coordinates": [ [ [ 116.435712868605876, 39.854886406218398 ], [ 116.433386331302415, 39.850851426694646 ], [ 116.436067151461558, 39.847579042048757 ], [ 116.441073983758642, 39.848341400087989 ], [ 116.443400732277922, 39.852375928742042 ], [ 116.440720437352965, 39.85564855020499 ], [ 116.435712868605876, 39.854886406218398 ] ] ] } },
{ "type": "Feature", "properties": { "h3_id": "8831aa54cdfffff", "bright_median_rent": 8.9743589743589745, "bright_listings": 7.0, "dark_median_rent": 10.42, "dark_listings": 1.0, "rent_gap": -1.4456410256410255 }, "geometry": { "type": "Polygon", "coordinates": [ [ [ 116.481850720037698, 39.998122162460341 ], [ 116.479515709103495, 39.994086482057249 ], [ 116.482199144465937, 39.990806589454159 ], [ 116.487217062192656, 39.991562141569233 ], [ 116.489552284256192, 39.995597370631849 ], [ 116.486869377532827, 39.998877498898239 ], [ 116.481850720037698, 39.998122162460341 ] ] ] } },
{ "type": "Feature", "properties": { "h3_id": "8831aa471dfffff", "bright_median_rent": 10.0, "bright_listings": 6.0, "dark_median_rent": 14.166666666666666, "dark_listings": 1.0, "rent_gap": -4.1666666666666661 }, "geometry": { "type": "Polygon", "coordinates": [ [ [ 116.464003771908139, 39.895994129312726 ], [ 116.461674169852799, 39.891959719524088 ], [ 116.464354146107937, 39.888685216479018 ], [ 116.469363198129614, 39.889444886915236 ], [ 116.471693010963335, 39.893478845729227 ], [ 116.469013561065793, 39.896753585060019 ], [ 116.464003771908139, 39.895994129312726 ] ] ] } },
{ "type": "Feature", "properties": { "h3_id": "8831aa474bfffff", "bright_median_rent": 7.0, "bright_listings": 3.0, "dark_median_rent": 1.0, "dark_listings": 1.0, "rent_gap": 6.0 }, "geometry": { "type": "Polygon", "coordinates": [ [ [ 116.447914564945521, 39.91564621267522 ], [ 116.445584749997778, 39.911610549300143 ], [ 116.448267458866994, 39.908334957401351 ], [ 116.453279456150469, 39.90909479242935 ], [ 116.455609482480298, 39.913130004718404 ], [ 116.452927300213503, 39.916405833043932 ], [ 116.447914564945521, 39.91564621267522 ] ] ] } },
{ "type": "Feature", "properties": { "h3_id": "8831aacc29fffff", "bright_median_rent": 1.4988814317673378, "bright_listings": 1.0, "dark_median_rent": 3.4444444444444446, "dark_listings": 5.0, "rent_gap": -1.9455630126771069 }, "geometry": { "type": "Polygon", "coordinates": [ [ [ 116.370198444051724, 40.106725404644607 ], [ 116.36786322772106, 40.102681663841082 ], [ 116.370564229768291, 40.099395739376078 ], [ 116.375599918447932, 40.100153318946099 ], [ 116.377935349896347, 40.104196607756492 ], [ 116.375234877617288, 40.107482768968467 ], [ 116.370198444051724, 40.106725404644607 ] ] ] } },
{ "type": "Feature", "properties": { "h3_id": "8831aa469bfffff", "bright_median_rent": 3.833333333333333, "bright_listings": 2.0, "dark_median_rent": 5.56, "dark_listings": 1.0, "rent_gap": -1.7266666666666666 }, "geometry": { "type": "Polygon", "coordinates": [ [ [ 116.584171142405467, 39.914146778051837 ], [ 116.581835643019645, 39.910118181462423 ], [ 116.584503843653977, 39.906843034904526 ], [ 116.589507015832936, 39.907596250301225 ], [ 116.591842722849989, 39.911624396098986 ], [ 116.589175050125377, 39.914899777269952 ], [ 116.584171142405467, 39.914146778051837 ] ] ] } },
{ "type": "Feature", "properties": { "h3_id": "8831aa41b7fffff", "bright_median_rent": 2.7083333333333335, "bright_listings": 1.0, "dark_median_rent": 40.0, "dark_listings": 1.0, "rent_gap": -37.291666666666664 }, "geometry": { "type": "Polygon", "coordinates": [ [ [ 116.355066974706247, 39.802069278350146 ], [ 116.352746246593455, 39.798031292124946 ], [ 116.35543283304591, 39.794761520097744 ], [ 116.360439624326574, 39.79552949618585 ], [ 116.362760565428644, 39.799567031588609 ], [ 116.360074502329553, 39.802837041704223 ], [ 116.355066974706247, 39.802069278350146 ] ] ] } },
{ "type": "Feature", "properties": { "h3_id": "8831aa4689fffff", "bright_median_rent": 7.0, "bright_listings": 10.0, "dark_median_rent": 0.01, "dark_listings": 1.0, "rent_gap": 6.99 }, "geometry": { "type": "Polygon", "coordinates": [ [ [ 116.55380532381821, 39.916928744543895 ], [ 116.551470976372343, 39.912898519153842 ], [ 116.554142537763681, 39.909623140306827 ], [ 116.559147918998491, 39.910377751819965 ], [ 116.561482474930656, 39.914407526341961 ], [ 116.558811441210324, 39.917683140197177 ], [ 116.55380532381821, 39.916928744543895 ] ] ] } },
{ "type": "Feature", "properties": { "h3_id": "8831aa55cdfffff", "bright_median_rent": 3.8, "bright_listings": 3.0, "dark_median_rent": 1.57, "dark_listings": 1.0, "rent_gap": 2.23 }, "geometry": { "type": "Polygon", "coordinates": [ [ [ 116.430386238217295, 39.964564865122256 ], [ 116.428054940073821, 39.960527247173644 ], [ 116.430742071095111, 39.957249007469805 ], [ 116.435759972893692, 39.958008149215878 ], [ 116.438091483305882, 39.962045315849117 ], [ 116.435404879719925, 39.965323792030077 ], [ 116.430386238217295, 39.964564865122256 ] ] ] } },
{ "type": "Feature", "properties": { "h3_id": "8831aa56e1fffff", "bright_median_rent": 9.0, "bright_listings": 5.0, "dark_median_rent": 1.5, "dark_listings": 1.0, "rent_gap": 7.5 }, "geometry": { "type": "Polygon", "coordinates": [ [ [ 116.472748108022287, 40.029917159176854 ], [ 116.470412031511771, 40.025880331998422 ], [ 116.473098101099168, 40.022598727205903 ], [ 116.478119718060171, 40.023353713905131 ], [ 116.480456006213529, 40.027390089599564 ], [ 116.47777046583235, 40.030671930057139 ], [ 116.472748108022287, 40.029917159176854 ] ] ] } },
{ "type": "Feature", "properties": { "h3_id": "8831aa460bfffff", "bright_median_rent": 12.730833333333333, "bright_listings": 2.0, "dark_median_rent": 9.1666666666666661, "dark_listings": 3.0, "rent_gap": 3.5641666666666669 }, "geometry": { "type": "Polygon", "coordinates": [ [ [ 116.507707101645664, 39.932053104787954 ], [ 116.505374009975554, 39.928020173636327 ], [ 116.508051244251718, 39.92474386426499 ], [ 116.513061042736112, 39.925500250456786 ], [ 116.515394344281091, 39.929532730582494 ], [ 116.512717637535658, 39.93280927552069 ], [ 116.507707101645664, 39.932053104787954 ] ] ] } },
{ "type": "Feature", "properties": { "h3_id": "8831aa4733fffff", "bright_median_rent": 11.005555555555556, "bright_listings": 2.0, "dark_median_rent": 16.666666666666668, "dark_listings": 2.0, "rent_gap": -5.6611111111111114 }, "geometry": { "type": "Polygon", "coordinates": [ [ [ 116.465054588852112, 39.874069090297141 ], [ 116.462725939288092, 39.870035208513968 ], [ 116.46540465748528, 39.86676187729438 ], [ 116.470411499397699, 39.867522191482472 ], [ 116.472740359530889, 39.871555622380242 ], [ 116.470062167251243, 39.874829189953772 ], [ 116.465054588852112, 39.874069090297141 ] ] ] } },
{ "type": "Feature", "properties": { "h3_id": "8831aa09b1fffff", "bright_median_rent": 2.2, "bright_listings": 2.0, "dark_median_rent": 4.63, "dark_listings": 1.0, "rent_gap": -2.43 }, "geometry": { "type": "Polygon", "coordinates": [ [ [ 116.613862516251558, 39.925963754928169 ], [ 116.611525228242044, 39.921936438839424 ], [ 116.61419090071513, 39.918660745094719 ], [ 116.619193332823912, 39.919412133245309 ], [ 116.62153082774681, 39.923438998560215 ], [ 116.618865683715995, 39.92671492647662 ], [ 116.613862516251558, 39.925963754928169 ] ] ] } },
{ "type": "Feature", "properties": { "h3_id": "8831aa4219fffff", "bright_median_rent": 7.8, "bright_listings": 1.0, "dark_median_rent": 11.666666666666666, "dark_listings": 3.0, "rent_gap": -3.8666666666666663 }, "geometry": { "type": "Polygon", "coordinates": [ [ [ 116.363525021850322, 39.935997066011815 ], [ 116.361197864295704, 39.931956615041138 ], [ 116.363890580813248, 39.928679728804447 ], [ 116.368909928775267, 39.929443056040277 ], [ 116.371237300201557, 39.933483055672191 ], [ 116.368545109863447, 39.936760179385509 ], [ 116.363525021850322, 39.935997066011815 ] ] ] } },
{ "type": "Feature", "properties": { "h3_id": "8831aa09abfffff", "bright_median_rent": 4.0023682652457078, "bright_listings": 5.0, "dark_median_rent": 5.666666666666667, "dark_listings": 1.0, "rent_gap": -1.6642984014209592 }, "geometry": { "type": "Polygon", "coordinates": [ [ [ 116.598520850125823, 39.93101285315992 ], [ 116.596183976635032, 39.92698463544329 ], [ 116.598851537205803, 39.923708629220023 ], [ 116.603855442938269, 39.924460606334023 ], [ 116.606192523803827, 39.928488373223395 ], [ 116.603525491630677, 39.931764613804283 ], [ 116.598520850125823, 39.93101285315992 ] ] ] } },
{ "type": "Feature", "properties": { "h3_id": "8831aa4603fffff", "bright_median_rent": 4.0178571428571432, "bright_listings": 2.0, "dark_median_rent": 3.28, "dark_listings": 2.0, "rent_gap": 0.73785714285714343 }, "geometry": { "type": "Polygon", "coordinates": [ [ [ 116.508051244251718, 39.92474386426499 ], [ 116.505718471186199, 39.920711108035157 ], [ 116.508395286730789, 39.917435189015137 ], [ 116.513404348026214, 39.918191790613498 ], [ 116.515737330897224, 39.922224095846992 ], [ 116.513061042736112, 39.925500250456786 ], [ 116.508051244251718, 39.92474386426499 ] ] ] } },
{ "type": "Feature", "properties": { "h3_id": "8831aa4235fffff", "bright_median_rent": 8.0, "bright_listings": 2.0, "dark_median_rent": 10.0, "dark_listings": 1.0, "rent_gap": -2.0 }, "geometry": { "type": "Polygon", "coordinates": [ [ [ 116.342222256226165, 39.906948139458997 ], [ 116.339897323525861, 39.902907216706957 ], [ 116.342590770346376, 39.899631823781213 ], [ 116.34760862456676, 39.900397115716785 ], [ 116.349933771482426, 39.904437587202288 ], [ 116.347240850031554, 39.907713217997269 ], [ 116.342222256226165, 39.906948139458997 ] ] ] } },
{ "type": "Feature", "properties": { "h3_id": "8831aa5445fffff", "bright_median_rent": 5.0, "bright_listings": 1.0, "dark_median_rent": 9.2592592592592595, "dark_listings": 1.0, "rent_gap": -4.2592592592592595 }, "geometry": { "type": "Polygon", "coordinates": [ [ [ 116.428249061746257, 40.00847186667098 ], [ 116.425915853843222, 40.004433200470835 ], [ 116.428605517480634, 40.001152622565868 ], [ 116.433627860770812, 40.001910474498814 ], [ 116.435961281365849, 40.005948689206726 ], [ 116.433272146048097, 40.00922950345236 ], [ 116.428249061746257, 40.00847186667098 ] ] ] } },
{ "type": "Feature", "properties": { "h3_id": "8831aa4601fffff", "bright_median_rent": 4.5020576131687244, "bright_listings": 1.0, "dark_median_rent": 11.11, "dark_listings": 21.0, "rent_gap": -6.607942386831275 }, "geometry": { "type": "Polygon", "coordinates": [ [ [ 116.500363475205347, 39.927263491116577 ], [ 116.498030912177029, 39.923230283864292 ], [ 116.500708673812909, 39.919954210175874 ], [ 116.505718471186199, 39.920711108035157 ], [ 116.508051244251718, 39.92474386426499 ], [ 116.505374009975554, 39.928020173636327 ], [ 116.500363475205347, 39.927263491116577 ] ] ] } },
{ "type": "Feature", "properties": { "h3_id": "8831aa40d3fffff", "bright_median_rent": 10.166666666666666, "bright_listings": 3.0, "dark_median_rent": 10.166666666666666, "dark_listings": 3.0, "rent_gap": 0.0 }, "geometry": { "type": "Polygon", "coordinates": [ [ [ 116.419618600732477, 39.874525780866868 ], [ 116.417291853173467, 39.870489546151482 ], [ 116.419975404474414, 39.867216072629965 ], [ 116.424985177925748, 39.867978596844061 ], [ 116.427312137304085, 39.872014380578399 ], [ 116.42462911148057, 39.875288091058124 ], [ 116.419618600732477, 39.874525780866868 ] ] ] } },
{ "type": "Feature", "properties": { "h3_id": "8831aa50c7fffff", "bright_median_rent": 11.295116772823778, "bright_listings": 4.0, "dark_median_rent": 7.2222222222222223, "dark_listings": 3.0, "rent_gap": 4.0728945506015561 }, "geometry": { "type": "Polygon", "coordinates": [ [ [ 116.330435487752283, 39.989982026979362 ], [ 116.328107287420323, 39.985938715089809 ], [ 116.330806352352965, 39.982658882429412 ], [ 116.3358330907311, 39.983422123920725 ], [ 116.33816150629896, 39.98746498419267 ], [ 116.335462968322375, 39.99074505456943 ], [ 116.330435487752283, 39.989982026979362 ] ] ] } },
{ "type": "Feature", "properties": { "h3_id": "8831aa55ddfffff", "bright_median_rent": 10.42, "bright_listings": 1.0, "dark_median_rent": 8.7, "dark_listings": 1.0, "rent_gap": 1.72 }, "geometry": { "type": "Polygon", "coordinates": [ [ [ 116.45314446281877, 39.964320392503062 ], [ 116.450812210279224, 39.960283953520175 ], [ 116.453496916208891, 39.957005784484728 ], [ 116.458513347090658, 39.957763818236494 ], [ 116.460845811270531, 39.961799805951976 ], [ 116.458161632997474, 39.965078211161533 ], [ 116.45314446281877, 39.964320392503062 ] ] ] } },
{ "type": "Feature", "properties": { "h3_id": "8831aa0355fffff", "bright_median_rent": 9.3333333333333339, "bright_listings": 1.0, "dark_median_rent": 7.9166666666666661, "dark_listings": 2.0, "rent_gap": 1.4166666666666679 }, "geometry": { "type": "Polygon", "coordinates": [ [ [ 116.657205138718325, 40.142144952191664 ], [ 116.654856108400267, 40.138115287466121 ], [ 116.657528478496857, 40.134828214943383 ], [ 116.662549345622992, 40.135570574355654 ], [ 116.664898583415805, 40.139599787558247 ], [ 116.662226746677007, 40.142887092849669 ], [ 116.657205138718325, 40.142144952191664 ] ] ] } },
{ "type": "Feature", "properties": { "h3_id": "8831aacd97fffff", "bright_median_rent": 2.0, "bright_listings": 2.0, "dark_median_rent": 4.17, "dark_listings": 1.0, "rent_gap": -2.17 }, "geometry": { "type": "Polygon", "coordinates": [ [ [ 116.410664652683451, 40.05745233752004 ], [ 116.408329958846821, 40.053411723736453 ], [ 116.411024065175994, 40.050128504324732 ], [ 116.416052336255518, 40.05088566228369 ], [ 116.418387243677557, 40.05492582434767 ], [ 116.415693666504239, 40.05820928015072 ], [ 116.410664652683451, 40.05745233752004 ] ] ] } },
{ "type": "Feature", "properties": { "h3_id": "8831aa4725fffff", "bright_median_rent": 3.5, "bright_listings": 2.0, "dark_median_rent": 8.89, "dark_listings": 1.0, "rent_gap": -5.39 }, "geometry": { "type": "Polygon", "coordinates": [ [ [ 116.427312137304085, 39.872014380578399 ], [ 116.424985177925748, 39.867978596844061 ], [ 116.427667783402853, 39.864705276965815 ], [ 116.432676822824916, 39.865467503935342 ], [ 116.435003993790744, 39.869502836714382 ], [ 116.432321913815827, 39.872776393457642 ], [ 116.427312137304085, 39.872014380578399 ] ] ] } },
{ "type": "Feature", "properties": { "h3_id": "883181b219fffff", "bright_median_rent": 3.9235265700483093, "bright_listings": 4.0, "dark_median_rent": 8.33, "dark_listings": 1.0, "rent_gap": -4.4064734299516903 }, "geometry": { "type": "Polygon", "coordinates": [ [ [ 116.322507378275077, 39.697674344300594 ], [ 116.320192742613401, 39.693636973227207 ], [ 116.322877308409275, 39.69037269959437 ], [ 116.327875989029522, 39.691145558105411 ], [ 116.330190837704947, 39.695182478712894 ], [ 116.32750679281483, 39.698446991253839 ], [ 116.322507378275077, 39.697674344300594 ] ] ] } },
{ "type": "Feature", "properties": { "h3_id": "8831aa4269fffff", "bright_median_rent": 14.77, "bright_listings": 3.0, "dark_median_rent": 13.333333333333334, "dark_listings": 1.0, "rent_gap": 1.4366666666666656 }, "geometry": { "type": "Polygon", "coordinates": [ [ [ 116.317960940781504, 39.936436691204833 ], [ 116.315635703924087, 39.932393884462748 ], [ 116.31833327164486, 39.929116865612393 ], [ 116.323355550562354, 39.929882415399888 ], [ 116.325681002550056, 39.933924770710497 ], [ 116.32298396055937, 39.937202027643636 ], [ 116.317960940781504, 39.936436691204833 ] ] ] } },
{ "type": "Feature", "properties": { "h3_id": "8831aa5647fffff", "bright_median_rent": 6.5111111111111111, "bright_listings": 1.0, "dark_median_rent": 5.8, "dark_listings": 3.0, "rent_gap": 0.71111111111111125 }, "geometry": { "type": "Polygon", "coordinates": [ [ [ 116.433471330447105, 40.057194942030861 ], [ 116.431135677372012, 40.053155509727603 ], [ 116.433827349165696, 40.049872359620359 ], [ 116.438854144724942, 40.050628405707378 ], [ 116.441190010753303, 40.054667386338842 ], [ 116.438498868338698, 40.057950772533438 ], [ 116.433471330447105, 40.057194942030861 ] ] ] } },
{ "type": "Feature", "properties": { "h3_id": "8831aad8d7fffff", "bright_median_rent": 7.666666666666667, "bright_listings": 1.0, "dark_median_rent": 4.055, "dark_listings": 2.0, "rent_gap": 3.6116666666666672 }, "geometry": { "type": "Polygon", "coordinates": [ [ [ 116.234160437958622, 40.230468066883894 ], [ 116.231825414123904, 40.226414733294376 ], [ 116.234547444439684, 40.223121985363875 ], [ 116.239603967719333, 40.223882332899585 ], [ 116.241939211505311, 40.227935213752602 ], [ 116.239217712131264, 40.231228199784965 ], [ 116.234160437958622, 40.230468066883894 ] ] ] } },
{ "type": "Feature", "properties": { "h3_id": "8831aa5551fffff", "bright_median_rent": 4.0, "bright_listings": 1.0, "dark_median_rent": 11.11, "dark_listings": 1.0, "rent_gap": -7.11 }, "geometry": { "type": "Polygon", "coordinates": [ [ [ 116.406900960966553, 39.979440879859958 ], [ 116.404569983162645, 39.975401732730568 ], [ 116.407260385107563, 39.972122643837935 ], [ 116.412281237418227, 39.972882465318222 ], [ 116.414612428261236, 39.976921161025572 ], [ 116.411922553823786, 39.980200486653118 ], [ 116.406900960966553, 39.979440879859958 ] ] ] } },
{ "type": "Feature", "properties": { "h3_id": "8831aa5469fffff", "bright_median_rent": 8.6666666666666661, "bright_listings": 1.0, "dark_median_rent": 0.01, "dark_listings": 1.0, "rent_gap": 8.6566666666666663 }, "geometry": { "type": "Polygon", "coordinates": [ [ [ 116.420892772595408, 40.003675050165604 ], [ 116.418560096056453, 39.999636106902294 ], [ 116.421250287840977, 39.996355765454297 ], [ 116.426272628086679, 39.997114130791083 ], [ 116.428605517480634, 40.001152622565868 ], [ 116.425915853843222, 40.004433200470835 ], [ 116.420892772595408, 40.003675050165604 ] ] ] } },
{ "type": "Feature", "properties": { "h3_id": "8831aa45b7fffff", "bright_median_rent": 9.5757575757575761, "bright_listings": 1.0, "dark_median_rent": 9.8, "dark_listings": 1.0, "rent_gap": -0.22424242424242458 }, "geometry": { "type": "Polygon", "coordinates": [ [ [ 116.513886384675217, 39.800573403053143 ], [ 116.511559014686952, 39.796543637718671 ], [ 116.514228731655209, 39.793274363839011 ], [ 116.519225293790626, 39.794034619293967 ], [ 116.521552872410254, 39.798063934139321 ], [ 116.518883680331399, 39.801333443997159 ], [ 116.513886384675217, 39.800573403053143 ] ] ] } },
{ "type": "Feature", "properties": { "h3_id": "8831aa548bfffff", "bright_median_rent": 2.17, "bright_listings": 1.0, "dark_median_rent": 8.89, "dark_listings": 1.0, "rent_gap": -6.72 }, "geometry": { "type": "Polygon", "coordinates": [ [ [ 116.5052952961735, 39.983233601539631 ], [ 116.502959971847417, 39.979199449097528 ], [ 116.505640140893476, 39.975920408958387 ], [ 116.510655105771434, 39.976675285833579 ], [ 116.512990640458952, 39.980708987042952 ], [ 116.510310999976141, 39.98398826258822 ], [ 116.5052952961735, 39.983233601539631 ] ] ] } },
{ "type": "Feature", "properties": { "h3_id": "8831aa5a81fffff", "bright_median_rent": 2.5, "bright_listings": 1.0, "dark_median_rent": 10.0, "dark_listings": 1.0, "rent_gap": -7.5 }, "geometry": { "type": "Polygon", "coordinates": [ [ [ 116.235622851358272, 39.912784704670734 ], [ 116.233302202114245, 39.908738171153509 ], [ 116.236007247756973, 39.905462218953183 ], [ 116.241032418302026, 39.906232560980257 ], [ 116.243353284745993, 39.910278642998854 ], [ 116.240648763514528, 39.913554834467639 ], [ 116.235622851358272, 39.912784704670734 ] ] ] } },
{ "type": "Feature", "properties": { "h3_id": "8831aa54c9fffff", "bright_median_rent": 6.52, "bright_listings": 3.0, "dark_median_rent": 12.592592592592592, "dark_listings": 1.0, "rent_gap": -6.0725925925925921 }, "geometry": { "type": "Polygon", "coordinates": [ [ [ 116.48920491884104, 40.002912901924311 ], [ 116.486869377532827, 39.998877498898239 ], [ 116.489552284256192, 39.995597370631849 ], [ 116.494570203546019, 39.996352409822919 ], [ 116.49690595582058, 40.000387361505162 ], [ 116.494223577908144, 40.003667725318515 ], [ 116.48920491884104, 40.002912901924311 ] ] ] } },
{ "type": "Feature", "properties": { "h3_id": "8831aacd3bfffff", "bright_median_rent": 4.0, "bright_listings": 2.0, "dark_median_rent": 6.48, "dark_listings": 1.0, "rent_gap": -2.48 }, "geometry": { "type": "Polygon", "coordinates": [ [ [ 116.34919173150513, 40.070330479291989 ], [ 116.346859073119234, 40.066286424869979 ], [ 116.349560384936993, 40.063002377526459 ], [ 116.354593826407907, 40.063762147418721 ], [ 116.356926700187003, 40.067805749946622 ], [ 116.354225917171817, 40.071090034454869 ], [ 116.34919173150513, 40.070330479291989 ] ] ] } },
{ "type": "Feature", "properties": { "h3_id": "8831aa51c3fffff", "bright_median_rent": 27.777777777777779, "bright_listings": 1.0, "dark_median_rent": 3.33, "dark_listings": 1.0, "rent_gap": 24.44777777777778 }, "geometry": { "type": "Polygon", "coordinates": [ [ [ 116.286309508472002, 39.961129063143964 ], [ 116.283984502489218, 39.95708409739364 ], [ 116.286686725520568, 39.953805693470109 ], [ 116.291713428687629, 39.954572016862464 ], [ 116.294038650881035, 39.958616531021541 ], [ 116.291336953766304, 39.961895173358059 ], [ 116.286309508472002, 39.961129063143964 ] ] ] } },
{ "type": "Feature", "properties": { "h3_id": "8831aa55b7fffff", "bright_median_rent": 4.9, "bright_listings": 3.0, "dark_median_rent": 8.8888888888888893, "dark_listings": 5.0, "rent_gap": -3.9888888888888889 }, "geometry": { "type": "Polygon", "coordinates": [ [ [ 116.45525764431477, 39.920441220913709 ], [ 116.452927300213503, 39.916405833043932 ], [ 116.455609482480298, 39.913130004718404 ], [ 116.460621482143409, 39.913889327930335 ], [ 116.462952037464547, 39.917924264710294 ], [ 116.460270381971597, 39.921200329346576 ], [ 116.45525764431477, 39.920441220913709 ] ] ] } },
{ "type": "Feature", "properties": { "h3_id": "8831aacd09fffff", "bright_median_rent": 9.2592592592592595, "bright_listings": 1.0, "dark_median_rent": 9.2592592592592595, "dark_listings": 1.0, "rent_gap": 0.0 }, "geometry": { "type": "Polygon", "coordinates": [ [ [ 116.332974396232501, 40.090039796825565 ], [ 116.330641532913802, 40.085994490462646 ], [ 116.333345607916812, 40.082709362834116 ], [ 116.338382017262916, 40.0834693042395 ], [ 116.340715096589932, 40.087514158599362 ], [ 116.338011550632501, 40.090799523535395 ], [ 116.332974396232501, 40.090039796825565 ] ] ] } },
{ "type": "Feature", "properties": { "h3_id": "8831aa4259fffff", "bright_median_rent": 24.935400516795866, "bright_listings": 2.0, "dark_median_rent": 12.0, "dark_listings": 1.0, "rent_gap": 12.935400516795866 }, "geometry": { "type": "Polygon", "coordinates": [ [ [ 116.355077292495608, 39.953148509455552 ], [ 116.352749715426484, 39.949107255075447 ], [ 116.355444228866133, 39.945829436744468 ], [ 116.36046579299736, 39.946592635246837 ], [ 116.362793584314147, 39.950633438203504 ], [ 116.360099597321451, 39.953911494059724 ], [ 116.355077292495608, 39.953148509455552 ] ] ] } },
{ "type": "Feature", "properties": { "h3_id": "8831aa5199fffff", "bright_median_rent": 16.666666666666668, "bright_listings": 1.0, "dark_median_rent": 17.22388888888889, "dark_listings": 2.0, "rent_gap": -0.55722222222222229 }, "geometry": { "type": "Polygon", "coordinates": [ [ [ 116.309491873081683, 39.953591019683614 ], [ 116.307166219170071, 39.949547408631751 ], [ 116.309865587591446, 39.946269458623249 ], [ 116.314890083997369, 39.94703488151336 ], [ 116.317215953416735, 39.951078041049257 ], [ 116.314517110991957, 39.954356229189592 ], [ 116.309491873081683, 39.953591019683614 ] ] ] } },
{ "type": "Feature", "properties": { "h3_id": "8831aa559dfffff", "bright_median_rent": 8.5, "bright_listings": 2.0, "dark_median_rent": 10.0, "dark_listings": 1.0, "rent_gap": -1.5 }, "geometry": { "type": "Polygon", "coordinates": [ [ [ 116.461548295574559, 39.947172364868074 ], [ 116.459216468026014, 39.943136727012586 ], [ 116.461899384319864, 39.939859491817046 ], [ 116.466913600844833, 39.940617658329039 ], [ 116.46924563966094, 39.944652845002153 ], [ 116.466563250753566, 39.947930316324026 ], [ 116.461548295574559, 39.947172364868074 ] ] ] } },
{ "type": "Feature", "properties": { "h3_id": "8831aa56a3fffff", "bright_median_rent": 8.8888888888888893, "bright_listings": 1.0, "dark_median_rent": 8.8888888888888893, "dark_listings": 1.0, "rent_gap": 0.0 }, "geometry": { "type": "Polygon", "coordinates": [ [ [ 116.488857452163643, 40.010228996736913 ], [ 116.486521591523996, 40.006193419860672 ], [ 116.48920491884104, 40.002912901924311 ], [ 116.494223577908144, 40.003667725318515 ], [ 116.496559649584, 40.007702850821474 ], [ 116.493876851225778, 40.010983604281861 ], [ 116.488857452163643, 40.010228996736913 ] ] ] } },
{ "type": "Feature", "properties": { "h3_id": "8831aacd0dfffff", "bright_median_rent": 20.833333333333332, "bright_listings": 2.0, "dark_median_rent": 6.67, "dark_listings": 1.0, "rent_gap": 14.163333333333332 }, "geometry": { "type": "Polygon", "coordinates": [ [ [ 116.325604383906494, 40.085234248307174 ], [ 116.323272055015565, 40.081188663926746 ], [ 116.3259766588899, 40.077903773722255 ], [ 116.331013062853913, 40.078664230452688 ], [ 116.333345607916812, 40.082709362834116 ], [ 116.330641532913802, 40.085994490462646 ], [ 116.325604383906494, 40.085234248307174 ] ] ] } },
{ "type": "Feature", "properties": { "h3_id": "8831aa548dfffff", "bright_median_rent": 10.416666666666666, "bright_listings": 3.0, "dark_median_rent": 8.8888888888888893, "dark_listings": 1.0, "rent_gap": 1.5277777777777768 }, "geometry": { "type": "Polygon", "coordinates": [ [ [ 116.490246711476729, 39.980967999304013 ], [ 116.487912127642446, 39.976933118507937 ], [ 116.490593773370506, 39.973654159616714 ], [ 116.495609474634165, 39.974409845884132 ], [ 116.497944269225243, 39.9784442754247 ], [ 116.495263151864947, 39.981723469931694 ], [ 116.490246711476729, 39.980967999304013 ] ] ] } },
{ "type": "Feature", "properties": { "h3_id": "8831aa541bfffff", "bright_median_rent": 7.0, "bright_listings": 1.0, "dark_median_rent": 4.0, "dark_listings": 1.0, "rent_gap": 3.0 }, "geometry": { "type": "Polygon", "coordinates": [ [ [ 116.474147468211811, 40.000646810914134 ], [ 116.471812668639913, 39.996610679144567 ], [ 116.47449705335859, 39.993330632605328 ], [ 116.479515709103495, 39.994086482057249 ], [ 116.481850720037698, 39.998122162460341 ], [ 116.479166863933855, 40.001402444756323 ], [ 116.474147468211811, 40.000646810914134 ] ] ] } }
]
}
