{"type": "FeatureCollection", "features": [{"type": "Feature", "properties": {"station_index": 0, "stop_id": "101", "name": "Van Cortlandt Park-242 St", "routes": "1"}, "geometry": {"type": "Point", "coordinates": [-73.898583, 40.889248]}}, {"type": "Feature", "properties": {"station_index": 1, "stop_id": "103", "name": "238 St", "routes": "1"}, "geometry": {"type": "Point", "coordinates": [-73.90087, 40.884667]}}, {"type": "Feature", "properties": {"station_index": 2, "stop_id": "104", "name": "231 St", "routes": "1"}, "geometry": {"type": "Point", "coordinates": [-73.904834, 40.878856]}}, {"type": "Feature", "properties": {"station_index": 3, "stop_id": "106", "name": "Marble Hill-225 St", "routes": "1"}, "geometry": {"type": "Point", "coordinates": [-73.909831, 40.874561]}}, {"type": "Feature", "properties": {"station_index": 4, "stop_id": "107", "name": "215 St", "routes": "1"}, "geometry": {"type": "Point", "coordinates": [-73.915279, 40.869444]}}, {"type": "Feature", "properties": {"station_index": 5, "stop_id": "108", "name": "207 St", "routes": "1"}, "geometry": {"type": "Point", "coordinates": [-73.918822, 40.864621]}}, {"type": "Feature", "properties": {"station_index": 6, "stop_id": "109", "name": "Dyckman St", "routes": "1"}, "geometry": {"type": "Point", "coordinates": [-73.925536, 40.860531]}}, {"type": "Feature", "properties": {"station_index": 7, "stop_id": "110", "name": "191 St", "routes": "1"}, "geometry": {"type": "Point", "coordinates": [-73.929412, 40.855225]}}, {"type": "Feature", "properties": {"station_index": 8, "stop_id": "111", "name": "181 St", "routes": "1"}, "geometry": {"type": "Point", "coordinates": [-73.933596, 40.849505]}}, {"type": "Feature", "properties": {"station_index": 9, "stop_id": "112", "name": "168 St-Washington Hts", "routes": "1"}, "geometry": {"type": "Point", "coordinates": [-73.940133, 40.840556]}}, {"type": "Feature", "properties": {"station_index": 10, "stop_id": "113", "name": "157 St", "routes": "1"}, "geometry": {"type": "Point", "coordinates": [-73.94489, 40.834041]}}, {"type": "Feature", "properties": {"station_index": 11, "stop_id": "114", "name": "145 St", "routes": "1"}, "geometry": {"type": "Point", "coordinates": [-73.95036, 40.826551]}}, {"type": "Feature", "properties": {"station_index": 12, "stop_id": "115", "name": "137 St-City College", "routes": "1"}, "geometry": {"type": "Point", "coordinates": [-73.953676, 40.822008]}}, {"type": "Feature", "properties": {"station_index": 13, "stop_id": "116", "name": "125 St", "routes": "1"}, "geometry": {"type": "Point", "coordinates": [-73.958372, 40.815581]}}, {"type": "Feature", "properties": {"station_index": 14, "stop_id": "117", "name": "116 St-Columbia University", "routes": "1"}, "geometry": {"type": "Point", "coordinates": [-73.96411, 40.807722]}}, {"type": "Feature", "properties": {"station_index": 15, "stop_id": "118", "name": "Cathedral Pkwy (110 St)", "routes": "1"}, "geometry": {"type": "Point", "coordinates": [-73.966847, 40.803967]}}, {"type": "Feature", "properties": {"station_index": 16, "stop_id": "119", "name": "103 St", "routes": "1"}, "geometry": {"type": "Point", "coordinates": [-73.968379, 40.799446]}}, {"type": "Feature", "properties": {"station_index": 17, "stop_id": "120", "name": "96 St", "routes": "1 2 3"}, "geometry": {"type": "Point", "coordinates": [-73.972323, 40.793919]}}, {"type": "Feature", "properties": {"station_index": 18, "stop_id": "121", "name": "86 St", "routes": "1 2"}, "geometry": {"type": "Point", "coordinates": [-73.976218, 40.788644]}}, {"type": "Feature", "properties": {"station_index": 19, "stop_id": "122", "name": "79 St", "routes": "1 2"}, "geometry": {"type": "Point", "coordinates": [-73.979917, 40.783934]}}, {"type": "Feature", "properties": {"station_index": 20, "stop_id": "123", "name": "72 St", "routes": "1 2 3"}, "geometry": {"type": "Point", "coordinates": [-73.98197, 40.778453]}}, {"type": "Feature", "properties": {"station_index": 21, "stop_id": "124", "name": "66 St-Lincoln Center", "routes": "1 2"}, "geometry": {"type": "Point", "coordinates": [-73.982209, 40.77344]}}, {"type": "Feature", "properties": {"station_index": 22, "stop_id": "125", "name": "59 St-Columbus Circle", "routes": "1 2"}, "geometry": {"type": "Point", "coordinates": [-73.981929, 40.768247]}}, {"type": "Feature", "properties": {"station_index": 23, "stop_id": "126", "name": "50 St", "routes": "1 2"}, "geometry": {"type": "Point", "coordinates": [-73.983849, 40.761728]}}, {"type": "Feature", "properties": {"station_index": 24, "stop_id": "127", "name": "Times Sq-42 St", "routes": "1 2 3"}, "geometry": {"type": "Point", "coordinates": [-73.987495, 40.75529]}}, {"type": "Feature", "properties": {"station_index": 25, "stop_id": "128", "name": "34 St-Penn Station", "routes": "1 2 3"}, "geometry": {"type": "Point", "coordinates": [-73.991057, 40.750373]}}, {"type": "Feature", "properties": {"station_index": 26, "stop_id": "129", "name": "28 St", "routes": "1 2"}, "geometry": {"type": "Point", "coordinates": [-73.993365, 40.747215]}}, {"type": "Feature", "properties": {"station_index": 27, "stop_id": "130", "name": "23 St", "routes": "1 2"}, "geometry": {"type": "Point", "coordinates": [-73.995657, 40.744081]}}, {"type": "Feature", "properties": {"station_index": 28, "stop_id": "131", "name": "18 St", "routes": "1 2"}, "geometry": {"type": "Point", "coordinates": [-73.997871, 40.74104]}}, {"type": "Feature", "properties": {"station_index": 29, "stop_id": "132", "name": "14 St", "routes": "1 2 3"}, "geometry": {"type": "Point", "coordinates": [-74.000201, 40.737826]}}, {"type": "Feature", "properties": {"station_index": 30, "stop_id": "133", "name": "Christopher St-Stonewall", "routes": "1 2"}, "geometry": {"type": "Point", "coordinates": [-74.002906, 40.733422]}}, {"type": "Feature", "properties": {"station_index": 31, "stop_id": "134", "name": "Houston St", "routes": "1 2"}, "geometry": {"type": "Point", "coordinates": [-74.005367, 40.728251]}}, {"type": "Feature", "properties": {"station_index": 32, "stop_id": "135", "name": "Canal St", "routes": "1 2"}, "geometry": {"type": "Point", "coordinates": [-74.006277, 40.722854]}}, {"type": "Feature", "properties": {"station_index": 33, "stop_id": "136", "name": "Franklin St", "routes": "1 2"}, "geometry": {"type": "Point", "coordinates": [-74.006886, 40.719318]}}, {"type": "Feature", "properties": {"station_index": 34, "stop_id": "137", "name": "Chambers St", "routes": "1 2 3"}, "geometry": {"type": "Point", "coordinates": [-74.009266, 40.715478]}}, {"type": "Feature", "properties": {"station_index": 35, "stop_id": "138", "name": "WTC Cortlandt", "routes": "1"}, "geometry": {"type": "Point", "coordinates": [-74.012188, 40.711835]}}, {"type": "Feature", "properties": {"station_index": 36, "stop_id": "139", "name": "Rector St", "routes": "1"}, "geometry": {"type": "Point", "coordinates": [-74.013783, 40.707513]}}, {"type": "Feature", "properties": {"station_index": 37, "stop_id": "142", "name": "South Ferry", "routes": "1"}, "geometry": {"type": "Point", "coordinates": [-74.013664, 40.702068]}}, {"type": "Feature", "properties": {"station_index": 38, "stop_id": "201", "name": "Wakefield-241 St", "routes": "2"}, "geometry": {"type": "Point", "coordinates": [-73.85062, 40.903125]}}, {"type": "Feature", "properties": {"station_index": 39, "stop_id": "204", "name": "Nereid Av", "routes": "2 5"}, "geometry": {"type": "Point", "coordinates": [-73.854376, 40.898379]}}, {"type": "Feature", "properties": {"station_index": 40, "stop_id": "205", "name": "233 St", "routes": "2 5"}, "geometry": {"type": "Point", "coordinates": [-73.857473, 40.893193]}}, {"type": "Feature", "properties": {"station_index": 41, "stop_id": "206", "name": "225 St", "routes": "2 5"}, "geometry": {"type": "Point", "coordinates": [-73.860341, 40.888022]}}, {"type": "Feature", "properties": {"station_index": 42, "stop_id": "207", "name": "219 St", "routes": "2 5"}, "geometry": {"type": "Point", "coordinates": [-73.862633, 40.883895]}}, {"type": "Feature", "properties": {"station_index": 43, "stop_id": "208", "name": "Gun Hill Rd", "routes": "2 5"}, "geometry": {"type": "Point", "coordinates": [-73.866256, 40.87785]}}, {"type": "Feature", "properties": {"station_index": 44, "stop_id": "209", "name": "Burke Av", "routes": "2 5"}, "geometry": {"type": "Point", "coordinates": [-73.867164, 40.871356]}}, {"type": "Feature", "properties": {"station_index": 45, "stop_id": "210", "name": "Allerton Av", "routes": "2 5"}, "geometry": {"type": "Point", "coordinates": [-73.867352, 40.865462]}}, {"type": "Feature", "properties": {"station_index": 46, "stop_id": "211", "name": "Pelham Pkwy", "routes": "2 5"}, "geometry": {"type": "Point", "coordinates": [-73.867615, 40.857192]}}, {"type": "Feature", "properties": {"station_index": 47, "stop_id": "212", "name": "Bronx Park East", "routes": "2 5"}, "geometry": {"type": "Point", "coordinates": [-73.868457, 40.848828]}}, {"type": "Feature", "properties": {"station_index": 48, "stop_id": "213", "name": "E 180 St", "routes": "2 5"}, "geometry": {"type": "Point", "coordinates": [-73.873488, 40.841894]}}, {"type": "Feature", "properties": {"station_index": 49, "stop_id": "214", "name": "West Farms Sq-E Tremont Av", "routes": "2 5"}, "geometry": {"type": "Point", "coordinates": [-73.880049, 40.840295]}}, {"type": "Feature", "properties": {"station_index": 50, "stop_id": "215", "name": "174 St", "routes": "2 5"}, "geometry": {"type": "Point", "coordinates": [-73.887734, 40.837288]}}, {"type": "Feature", "properties": {"station_index": 51, "stop_id": "216", "name": "Freeman St", "routes": "2 5"}, "geometry": {"type": "Point", "coordinates": [-73.891865, 40.829993]}}, {"type": "Feature", "properties": {"station_index": 52, "stop_id": "217", "name": "Simpson St", "routes": "2 5"}, "geometry": {"type": "Point", "coordinates": [-73.893064, 40.824073]}}, {"type": "Feature", "properties": {"station_index": 53, "stop_id": "218", "name": "Intervale Av", "routes": "2 5"}, "geometry": {"type": "Point", "coordinates": [-73.896736, 40.822181]}}, {"type": "Feature", "properties": {"station_index": 54, "stop_id": "219", "name": "Prospect Av", "routes": "2 5"}, "geometry": {"type": "Point", "coordinates": [-73.90177, 40.819585]}}, {"type": "Feature", "properties": {"station_index": 55, "stop_id": "220", "name": "Jackson Av", "routes": "2 5"}, "geometry": {"type": "Point", "coordinates": [-73.907807, 40.81649]}}, {"type": "Feature", "properties": {"station_index": 56, "stop_id": "221", "name": "3 Av-149 St", "routes": "2 5"}, "geometry": {"type": "Point", "coordinates": [-73.917757, 40.816109]}}, {"type": "Feature", "properties": {"station_index": 57, "stop_id": "222", "name": "149 St-Grand Concourse", "routes": "2 5"}, "geometry": {"type": "Point", "coordinates": [-73.926718, 40.81841]}}, {"type": "Feature", "properties": {"station_index": 58, "stop_id": "224", "name": "135 St", "routes": "2 3"}, "geometry": {"type": "Point", "coordinates": [-73.94077, 40.814229]}}, {"type": "Feature", "properties": {"station_index": 59, "stop_id": "225", "name": "125 St", "routes": "2 3"}, "geometry": {"type": "Point", "coordinates": [-73.945495, 40.807754]}}, {"type": "Feature", "properties": {"station_index": 60, "stop_id": "226", "name": "116 St", "routes": "2 3"}, "geometry": {"type": "Point", "coordinates": [-73.949625, 40.802098]}}, {"type": "Feature", "properties": {"station_index": 61, "stop_id": "227", "name": "110 St-Malcolm X Plaza", "routes": "2 3"}, "geometry": {"type": "Point", "coordinates": [-73.951822, 40.799075]}}, {"type": "Feature", "properties": {"station_index": 62, "stop_id": "228", "name": "Park Place", "routes": "2 3"}, "geometry": {"type": "Point", "coordinates": [-74.008811, 40.713051]}}, {"type": "Feature", "properties": {"station_index": 63, "stop_id": "229", "name": "Fulton St", "routes": "2 3"}, "geometry": {"type": "Point", "coordinates": [-74.006571, 40.709416]}}, {"type": "Feature", "properties": {"station_index": 64, "stop_id": "230", "name": "Wall St", "routes": "2 3"}, "geometry": {"type": "Point", "coordinates": [-74.0091, 40.706821]}}, {"type": "Feature", "properties": {"station_index": 65, "stop_id": "231", "name": "Clark St", "routes": "2 3"}, "geometry": {"type": "Point", "coordinates": [-73.993086, 40.697466]}}, {"type": "Feature", "properties": {"station_index": 66, "stop_id": "232", "name": "Borough Hall", "routes": "2 3"}, "geometry": {"type": "Point", "coordinates": [-73.989998, 40.693219]}}, {"type": "Feature", "properties": {"station_index": 67, "stop_id": "233", "name": "Hoyt St", "routes": "2 3"}, "geometry": {"type": "Point", "coordinates": [-73.985065, 40.690545]}}, {"type": "Feature", "properties": {"station_index": 68, "stop_id": "234", "name": "Nevins St", "routes": "2 3 4 5"}, "geometry": {"type": "Point", "coordinates": [-73.980492, 40.688246]}}, {"type": "Feature", "properties": {"station_index": 69, "stop_id": "235", "name": "Atlantic Av-Barclays Ctr", "routes": "2 3 4 5"}, "geometry": {"type": "Point", "coordinates": [-73.977666, 40.684359]}}, {"type": "Feature", "properties": {"station_index": 70, "stop_id": "236", "name": "Bergen St", "routes": "2 3 4"}, "geometry": {"type": "Point", "coordinates": [-73.975098, 40.680829]}}, {"type": "Feature", "properties": {"station_index": 71, "stop_id": "237", "name": "Grand Army Plaza", "routes": "2 3 4"}, "geometry": {"type": "Point", "coordinates": [-73.971046, 40.675235]}}, {"type": "Feature", "properties": {"station_index": 72, "stop_id": "238", "name": "Eastern Pkwy-Brooklyn Museum", "routes": "2 3 4"}, "geometry": {"type": "Point", "coordinates": [-73.964375, 40.671987]}}, {"type": "Feature", "properties": {"station_index": 73, "stop_id": "239", "name": "Franklin Av-Medgar Evers College", "routes": "2 3 4 5"}, "geometry": {"type": "Point", "coordinates": [-73.958131, 40.670682]}}, {"type": "Feature", "properties": {"station_index": 74, "stop_id": "241", "name": "President St-Medgar Evers College", "routes": "2 5"}, "geometry": {"type": "Point", "coordinates": [-73.950683, 40.667883]}}, {"type": "Feature", "properties": {"station_index": 75, "stop_id": "242", "name": "Sterling St", "routes": "2 5"}, "geometry": {"type": "Point", "coordinates": [-73.95085, 40.662742]}}, {"type": "Feature", "properties": {"station_index": 76, "stop_id": "243", "name": "Winthrop St", "routes": "2 5"}, "geometry": {"type": "Point", "coordinates": [-73.9502, 40.656652]}}, {"type": "Feature", "properties": {"station_index": 77, "stop_id": "244", "name": "Church Av", "routes": "2 5"}, "geometry": {"type": "Point", "coordinates": [-73.949575, 40.650843]}}, {"type": "Feature", "properties": {"station_index": 78, "stop_id": "245", "name": "Beverly Rd", "routes": "2 5"}, "geometry": {"type": "Point", "coordinates": [-73.948959, 40.645098]}}, {"type": "Feature", "properties": {"station_index": 79, "stop_id": "246", "name": "Newkirk Av-Little Haiti", "routes": "2 5"}, "geometry": {"type": "Point", "coordinates": [-73.948411, 40.639967]}}, {"type": "Feature", "properties": {"station_index": 80, "stop_id": "247", "name": "Flatbush Av-Brooklyn College", "routes": "2 5"}, "geometry": {"type": "Point", "coordinates": [-73.947642, 40.632836]}}, {"type": "Feature", "properties": {"station_index": 81, "stop_id": "248", "name": "Nostrand Av", "routes": "2 3 4 5"}, "geometry": {"type": "Point", "coordinates": [-73.950466, 40.669847]}}, {"type": "Feature", "properties": {"station_index": 82, "stop_id": "249", "name": "Kingston Av", "routes": "2 3 4 5"}, "geometry": {"type": "Point", "coordinates": [-73.942161, 40.669399]}}, {"type": "Feature", "properties": {"station_index": 83, "stop_id": "250", "name": "Crown Hts-Utica Av", "routes": "2 3 4 5"}, "geometry": {"type": "Point", "coordinates": [-73.932942, 40.668897]}}, {"type": "Feature", "properties": {"station_index": 84, "stop_id": "251", "name": "Sutter Av-Rutland Rd", "routes": "2 3 4 5"}, "geometry": {"type": "Point", "coordinates": [-73.92261, 40.664717]}}, {"type": "Feature", "properties": {"station_index": 85, "stop_id": "252", "name": "Saratoga Av", "routes": "2 3 4 5"}, "geometry": {"type": "Point", "coordinates": [-73.916327, 40.661453]}}, {"type": "Feature", "properties": {"station_index": 86, "stop_id": "253", "name": "Rockaway Av", "routes": "2 3 4 5"}, "geometry": {"type": "Point", "coordinates": [-73.908946, 40.662549]}}, {"type": "Feature", "properties": {"station_index": 87, "stop_id": "254", "name": "Junius St", "routes": "2 3 4 5"}, "geometry": {"type": "Point", "coordinates": [-73.902447, 40.663515]}}, {"type": "Feature", "properties": {"station_index": 88, "stop_id": "255", "name": "Pennsylvania Av", "routes": "2 3 4 5"}, "geometry": {"type": "Point", "coordinates": [-73.894895, 40.664635]}}, {"type": "Feature", "properties": {"station_index": 89, "stop_id": "256", "name": "Van Siclen Av", "routes": "2 3 4 5"}, "geometry": {"type": "Point", "coordinates": [-73.889395, 40.665449]}}, {"type": "Feature", "properties": {"station_index": 90, "stop_id": "257", "name": "New Lots Av", "routes": "2 3 4 5"}, "geometry": {"type": "Point", "coordinates": [-73.884079, 40.666235]}}, {"type": "Feature", "properties": {"station_index": 91, "stop_id": "301", "name": "Harlem-148 St", "routes": "3"}, "geometry": {"type": "Point", "coordinates": [-73.93647, 40.82388]}}, {"type": "Feature", "properties": {"station_index": 92, "stop_id": "302", "name": "145 St", "routes": "3"}, "geometry": {"type": "Point", "coordinates": [-73.936245, 40.820421]}}, {"type": "Feature", "properties": {"station_index": 93, "stop_id": "401", "name": "Woodlawn", "routes": "4"}, "geometry": {"type": "Point", "coordinates": [-73.878751, 40.886037]}}, {"type": "Feature", "properties": {"station_index": 94, "stop_id": "402", "name": "Mosholu Pkwy", "routes": "4"}, "geometry": {"type": "Point", "coordinates": [-73.884655, 40.87975]}}, {"type": "Feature", "properties": {"station_index": 95, "stop_id": "405", "name": "Bedford Park Blvd-Lehman College", "routes": "4"}, "geometry": {"type": "Point", "coordinates": [-73.890064, 40.873412]}}, {"type": "Feature", "properties": {"station_index": 96, "stop_id": "406", "name": "Kingsbridge Rd", "routes": "4"}, "geometry": {"type": "Point", "coordinates": [-73.897174, 40.86776]}}, {"type": "Feature", "properties": {"station_index": 97, "stop_id": "407", "name": "Fordham Rd", "routes": "4"}, "geometry": {"type": "Point", "coordinates": [-73.901034, 40.862803]}}, {"type": "Feature", "properties": {"station_index": 98, "stop_id": "408", "name": "183 St", "routes": "4"}, "geometry": {"type": "Point", "coordinates": [-73.903879, 40.858407]}}, {"type": "Feature", "properties": {"station_index": 99, "stop_id": "409", "name": "Burnside Av", "routes": "4"}, "geometry": {"type": "Point", "coordinates": [-73.907684, 40.853453]}}, {"type": "Feature", "properties": {"station_index": 100, "stop_id": "410", "name": "176 St", "routes": "4"}, "geometry": {"type": "Point", "coordinates": [-73.911794, 40.84848]}}, {"type": "Feature", "properties": {"station_index": 101, "stop_id": "411", "name": "Mt Eden Av", "routes": "4"}, "geometry": {"type": "Point", "coordinates": [-73.914685, 40.844434]}}, {"type": "Feature", "properties": {"station_index": 102, "stop_id": "412", "name": "170 St", "routes": "4"}, "geometry": {"type": "Point", "coordinates": [-73.917791, 40.840075]}}, {"type": "Feature", "properties": {"station_index": 103, "stop_id": "413", "name": "167 St", "routes": "4"}, "geometry": {"type": "Point", "coordinates": [-73.9214, 40.835537]}}, {"type": "Feature", "properties": {"station_index": 104, "stop_id": "414", "name": "161 St-Yankee Stadium", "routes": "4"}, "geometry": {"type": "Point", "coordinates": [-73.925831, 40.827994]}}, {"type": "Feature", "properties": {"station_index": 105, "stop_id": "415", "name": "149 St-Grand Concourse", "routes": "4"}, "geometry": {"type": "Point", "coordinates": [-73.927351, 40.818375]}}, {"type": "Feature", "properties": {"station_index": 106, "stop_id": "416", "name": "138 St-Grand Concourse", "routes": "4 5"}, "geometry": {"type": "Point", "coordinates": [-73.929849, 40.813224]}}, {"type": "Feature", "properties": {"station_index": 107, "stop_id": "418", "name": "Fulton St", "routes": "4 5"}, "geometry": {"type": "Point", "coordinates": [-74.009509, 40.710368]}}, {"type": "Feature", "properties": {"station_index": 108, "stop_id": "419", "name": "Wall St", "routes": "4 5"}, "geometry": {"type": "Point", "coordinates": [-74.011862, 40.707557]}}, {"type": "Feature", "properties": {"station_index": 109, "stop_id": "420", "name": "Bowling Green", "routes": "4 5"}, "geometry": {"type": "Point", "coordinates": [-74.014065, 40.704817]}}, {"type": "Feature", "properties": {"station_index": 110, "stop_id": "423", "name": "Borough Hall", "routes": "4 5"}, "geometry": {"type": "Point", "coordinates": [-73.990151, 40.692404]}}, {"type": "Feature", "properties": {"station_index": 111, "stop_id": "501", "name": "Eastchester-Dyre Av", "routes": "5"}, "geometry": {"type": "Point", "coordinates": [-73.830834, 40.8883]}}, {"type": "Feature", "properties": {"station_index": 112, "stop_id": "502", "name": "Baychester Av", "routes": "5"}, "geometry": {"type": "Point", "coordinates": [-73.838591, 40.878663]}}, {"type": "Feature", "properties": {"station_index": 113, "stop_id": "503", "name": "Gun Hill Rd", "routes": "5"}, "geometry": {"type": "Point", "coordinates": [-73.846384, 40.869526]}}, {"type": "Feature", "properties": {"station_index": 114, "stop_id": "504", "name": "Pelham Pkwy", "routes": "5"}, "geometry": {"type": "Point", "coordinates": [-73.855359, 40.858985]}}, {"type": "Feature", "properties": {"station_index": 115, "stop_id": "505", "name": "Morris Park", "routes": "5"}, "geometry": {"type": "Point", "coordinates": [-73.860495, 40.854364]}}, {"type": "Feature", "properties": {"station_index": 116, "stop_id": "601", "name": "Pelham Bay Park", "routes": "6 6X"}, "geometry": {"type": "Point", "coordinates": [-73.828121, 40.852462]}}, {"type": "Feature", "properties": {"station_index": 117, "stop_id": "602", "name": "Buhre Av", "routes": "6 6X"}, "geometry": {"type": "Point", "coordinates": [-73.832569, 40.84681]}}, {"type": "Feature", "properties": {"station_index": 118, "stop_id": "603", "name": "Middletown Rd", "routes": "6 6X"}, "geometry": {"type": "Point", "coordinates": [-73.836322, 40.843863]}}, {"type": "Feature", "properties": {"station_index": 119, "stop_id": "604", "name": "Westchester Sq-E Tremont Av", "routes": "6 6X"}, "geometry": {"type": "Point", "coordinates": [-73.842952, 40.839892]}}, {"type": "Feature", "properties": {"station_index": 120, "stop_id": "606", "name": "Zerega Av", "routes": "6 6X"}, "geometry": {"type": "Point", "coordinates": [-73.847036, 40.836488]}}, {"type": "Feature", "properties": {"station_index": 121, "stop_id": "607", "name": "Castle Hill Av", "routes": "6 6X"}, "geometry": {"type": "Point", "coordinates": [-73.851222, 40.834255]}}, {"type": "Feature", "properties": {"station_index": 122, "stop_id": "608", "name": "Parkchester", "routes": "6 6X"}, "geometry": {"type": "Point", "coordinates": [-73.860816, 40.833226]}}, {"type": "Feature", "properties": {"station_index": 123, "stop_id": "609", "name": "St Lawrence Av", "routes": "6"}, "geometry": {"type": "Point", "coordinates": [-73.867618, 40.831509]}}, {"type": "Feature", "properties": {"station_index": 124, "stop_id": "610", "name": "Morrison Av-Soundview", "routes": "6"}, "geometry": {"type": "Point", "coordinates": [-73.874516, 40.829521]}}, {"type": "Feature", "properties": {"station_index": 125, "stop_id": "611", "name": "Elder Av", "routes": "6"}, "geometry": {"type": "Point", "coordinates": [-73.879159, 40.828584]}}, {"type": "Feature", "properties": {"station_index": 126, "stop_id": "612", "name": "Whitlock Av", "routes": "6"}, "geometry": {"type": "Point", "coordinates": [-73.886283, 40.826525]}}, {"type": "Feature", "properties": {"station_index": 127, "stop_id": "613", "name": "Hunts Point Av", "routes": "6 6X"}, "geometry": {"type": "Point", "coordinates": [-73.890549, 40.820948]}}, {"type": "Feature", "properties": {"station_index": 128, "stop_id": "614", "name": "Longwood Av", "routes": "6"}, "geometry": {"type": "Point", "coordinates": [-73.896435, 40.816104]}}, {"type": "Feature", "properties": {"station_index": 129, "stop_id": "615", "name": "E 149 St", "routes": "6"}, "geometry": {"type": "Point", "coordinates": [-73.904098, 40.812118]}}, {"type": "Feature", "properties": {"station_index": 130, "stop_id": "616", "name": "E 143 St-St Mary's St", "routes": "6"}, "geometry": {"type": "Point", "coordinates": [-73.907657, 40.808719]}}, {"type": "Feature", "properties": {"station_index": 131, "stop_id": "617", "name": "Cypress Av", "routes": "6"}, "geometry": {"type": "Point", "coordinates": [-73.914042, 40.805368]}}, {"type": "Feature", "properties": {"station_index": 132, "stop_id": "618", "name": "Brook Av", "routes": "6"}, "geometry": {"type": "Point", "coordinates": [-73.91924, 40.807566]}}, {"type": "Feature", "properties": {"station_index": 133, "stop_id": "619", "name": "3 Av-138 St", "routes": "6 6X"}, "geometry": {"type": "Point", "coordinates": [-73.926138, 40.810476]}}, {"type": "Feature", "properties": {"station_index": 134, "stop_id": "621", "name": "125 St", "routes": "4 5 6 6X"}, "geometry": {"type": "Point", "coordinates": [-73.937594, 40.804138]}}, {"type": "Feature", "properties": {"station_index": 135, "stop_id": "622", "name": "116 St", "routes": "4 6 6X"}, "geometry": {"type": "Point", "coordinates": [-73.941617, 40.798629]}}, {"type": "Feature", "properties": {"station_index": 136, "stop_id": "623", "name": "110 St", "routes": "4 6 6X"}, "geometry": {"type": "Point", "coordinates": [-73.94425, 40.79502]}}, {"type": "Feature", "properties": {"station_index": 137, "stop_id": "624", "name": "103 St", "routes": "4 6 6X"}, "geometry": {"type": "Point", "coordinates": [-73.947478, 40.7906]}}, {"type": "Feature", "properties": {"station_index": 138, "stop_id": "625", "name": "96 St", "routes": "4 6 6X"}, "geometry": {"type": "Point", "coordinates": [-73.95107, 40.785672]}}, {"type": "Feature", "properties": {"station_index": 139, "stop_id": "626", "name": "86 St", "routes": "4 5 6 6X"}, "geometry": {"type": "Point", "coordinates": [-73.955589, 40.779492]}}, {"type": "Feature", "properties": {"station_index": 140, "stop_id": "627", "name": "77 St", "routes": "4 6 6X"}, "geometry": {"type": "Point", "coordinates": [-73.959874, 40.77362]}}, {"type": "Feature", "properties": {"station_index": 141, "stop_id": "628", "name": "68 St-Hunter College", "routes": "4 6 6X"}, "geometry": {"type": "Point", "coordinates": [-73.96387, 40.768141]}}, {"type": "Feature", "properties": {"station_index": 142, "stop_id": "629", "name": "59 St", "routes": "4 5 6 6X"}, "geometry": {"type": "Point", "coordinates": [-73.967967, 40.762526]}}, {"type": "Feature", "properties": {"station_index": 143, "stop_id": "630", "name": "51 St", "routes": "4 6 6X"}, "geometry": {"type": "Point", "coordinates": [-73.97192, 40.757107]}}, {"type": "Feature", "properties": {"station_index": 144, "stop_id": "631", "name": "Grand Central-42 St", "routes": "4 5 6 6X"}, "geometry": {"type": "Point", "coordinates": [-73.976848, 40.751776]}}, {"type": "Feature", "properties": {"station_index": 145, "stop_id": "632", "name": "33 St", "routes": "4 6 6X"}, "geometry": {"type": "Point", "coordinates": [-73.982076, 40.746081]}}, {"type": "Feature", "properties": {"station_index": 146, "stop_id": "633", "name": "28 St", "routes": "4 6 6X"}, "geometry": {"type": "Point", "coordinates": [-73.984264, 40.74307]}}, {"type": "Feature", "properties": {"station_index": 147, "stop_id": "634", "name": "23 St-Baruch College", "routes": "4 6 6X"}, "geometry": {"type": "Point", "coordinates": [-73.986599, 40.739864]}}, {"type": "Feature", "properties": {"station_index": 148, "stop_id": "635", "name": "14 St-Union Sq", "routes": "4 5 6 6X"}, "geometry": {"type": "Point", "coordinates": [-73.989951, 40.734673]}}, {"type": "Feature", "properties": {"station_index": 149, "stop_id": "636", "name": "Astor Pl", "routes": "4 6 6X"}, "geometry": {"type": "Point", "coordinates": [-73.99107, 40.730054]}}, {"type": "Feature", "properties": {"station_index": 150, "stop_id": "637", "name": "Bleecker St", "routes": "4 6 6X"}, "geometry": {"type": "Point", "coordinates": [-73.994659, 40.725915]}}, {"type": "Feature", "properties": {"station_index": 151, "stop_id": "638", "name": "Spring St", "routes": "4 6 6X"}, "geometry": {"type": "Point", "coordinates": [-73.997141, 40.722301]}}, {"type": "Feature", "properties": {"station_index": 152, "stop_id": "639", "name": "Canal St", "routes": "4 6 6X"}, "geometry": {"type": "Point", "coordinates": [-74.000193, 40.718803]}}, {"type": "Feature", "properties": {"station_index": 153, "stop_id": "640", "name": "Brooklyn Bridge-City Hall", "routes": "4 5 6 6X"}, "geometry": {"type": "Point", "coordinates": [-74.004131, 40.713065]}}, {"type": "Feature", "properties": {"station_index": 154, "stop_id": "701", "name": "Flushing-Main St", "routes": "7 7X"}, "geometry": {"type": "Point", "coordinates": [-73.83003, 40.7596]}}, {"type": "Feature", "properties": {"station_index": 155, "stop_id": "702", "name": "Mets-Willets Point", "routes": "7 7X"}, "geometry": {"type": "Point", "coordinates": [-73.845625, 40.754622]}}, {"type": "Feature", "properties": {"station_index": 156, "stop_id": "705", "name": "111 St", "routes": "7"}, "geometry": {"type": "Point", "coordinates": [-73.855334, 40.75173]}}, {"type": "Feature", "properties": {"station_index": 157, "stop_id": "706", "name": "103 St-Corona Plaza", "routes": "7"}, "geometry": {"type": "Point", "coordinates": [-73.8627, 40.749865]}}, {"type": "Feature", "properties": {"station_index": 158, "stop_id": "707", "name": "Junction Blvd", "routes": "7 7X"}, "geometry": {"type": "Point", "coordinates": [-73.869527, 40.749145]}}, {"type": "Feature", "properties": {"station_index": 159, "stop_id": "708", "name": "90 St-Elmhurst Av", "routes": "7"}, "geometry": {"type": "Point", "coordinates": [-73.876613, 40.748408]}}, {"type": "Feature", "properties": {"station_index": 160, "stop_id": "709", "name": "82 St-Jackson Hts", "routes": "7"}, "geometry": {"type": "Point", "coordinates": [-73.883697, 40.747659]}}, {"type": "Feature", "properties": {"station_index": 161, "stop_id": "710", "name": "74 St-Broadway", "routes": "7 7X"}, "geometry": {"type": "Point", "coordinates": [-73.891394, 40.746848]}}, {"type": "Feature", "properties": {"station_index": 162, "stop_id": "711", "name": "69 St", "routes": "7 7X"}, "geometry": {"type": "Point", "coordinates": [-73.896403, 40.746325]}}, {"type": "Feature", "properties": {"station_index": 163, "stop_id": "712", "name": "61 St-Woodside", "routes": "7 7X"}, "geometry": {"type": "Point", "coordinates": [-73.902984, 40.74563]}}, {"type": "Feature", "properties": {"station_index": 164, "stop_id": "713", "name": "52 St", "routes": "7 7X"}, "geometry": {"type": "Point", "coordinates": [-73.912549, 40.744149]}}, {"type": "Feature", "properties": {"station_index": 165, "stop_id": "714", "name": "46 St-Bliss St", "routes": "7 7X"}, "geometry": {"type": "Point", "coordinates": [-73.918435, 40.743132]}}, {"type": "Feature", "properties": {"station_index": 166, "stop_id": "715", "name": "40 St-Lowery St", "routes": "7 7X"}, "geometry": {"type": "Point", "coordinates": [-73.924016, 40.743781]}}, {"type": "Feature", "properties": {"station_index": 167, "stop_id": "716", "name": "33 St-Rawson St", "routes": "7 7X"}, "geometry": {"type": "Point", "coordinates": [-73.930997, 40.744587]}}, {"type": "Feature", "properties": {"station_index": 168, "stop_id": "718", "name": "Queensboro Plaza", "routes": "7 7X"}, "geometry": {"type": "Point", "coordinates": [-73.940202, 40.750582]}}, {"type": "Feature", "properties": {"station_index": 169, "stop_id": "719", "name": "Court Sq", "routes": "7 7X"}, "geometry": {"type": "Point", "coordinates": [-73.945264, 40.747023]}}, {"type": "Feature", "properties": {"station_index": 170, "stop_id": "720", "name": "Hunters Point Av", "routes": "7 7X"}, "geometry": {"type": "Point", "coordinates": [-73.948916, 40.742216]}}, {"type": "Feature", "properties": {"station_index": 171, "stop_id": "721", "name": "Vernon Blvd-Jackson Av", "routes": "7 7X"}, "geometry": {"type": "Point", "coordinates": [-73.953581, 40.742626]}}, {"type": "Feature", "properties": {"station_index": 172, "stop_id": "723", "name": "Grand Central-42 St", "routes": "7 7X"}, "geometry": {"type": "Point", "coordinates": [-73.976041, 40.751431]}}, {"type": "Feature", "properties": {"station_index": 173, "stop_id": "724", "name": "5 Av", "routes": "7 7X"}, "geometry": {"type": "Point", "coordinates": [-73.981963, 40.753821]}}, {"type": "Feature", "properties": {"station_index": 174, "stop_id": "725", "name": "Times Sq-42 St", "routes": "7 7X"}, "geometry": {"type": "Point", "coordinates": [-73.987691, 40.755477]}}, {"type": "Feature", "properties": {"station_index": 175, "stop_id": "726", "name": "34 St-Hudson Yards", "routes": "7 7X"}, "geometry": {"type": "Point", "coordinates": [-74.00191, 40.755882]}}, {"type": "Feature", "properties": {"station_index": 176, "stop_id": "901", "name": "Grand Central-42 St", "routes": "GS"}, "geometry": {"type": "Point", "coordinates": [-73.979189, 40.752769]}}, {"type": "Feature", "properties": {"station_index": 177, "stop_id": "902", "name": "Times Sq-42 St", "routes": "GS"}, "geometry": {"type": "Point", "coordinates": [-73.986229, 40.755983]}}, {"type": "Feature", "properties": {"station_index": 178, "stop_id": "A02", "name": "Inwood-207 St", "routes": "A"}, "geometry": {"type": "Point", "coordinates": [-73.919899, 40.868072]}}, {"type": "Feature", "properties": {"station_index": 179, "stop_id": "A03", "name": "Dyckman St", "routes": "A"}, "geometry": {"type": "Point", "coordinates": [-73.927271, 40.865491]}}, {"type": "Feature", "properties": {"station_index": 180, "stop_id": "A05", "name": "190 St", "routes": "A"}, "geometry": {"type": "Point", "coordinates": [-73.93418, 40.859022]}}, {"type": "Feature", "properties": {"station_index": 181, "stop_id": "A06", "name": "181 St", "routes": "A"}, "geometry": {"type": "Point", "coordinates": [-73.937969, 40.851695]}}, {"type": "Feature", "properties": {"station_index": 182, "stop_id": "A07", "name": "175 St", "routes": "A"}, "geometry": {"type": "Point", "coordinates": [-73.939704, 40.847391]}}, {"type": "Feature", "properties": {"station_index": 183, "stop_id": "A09", "name": "168 St", "routes": "A C"}, "geometry": {"type": "Point", "coordinates": [-73.939561, 40.840719]}}, {"type": "Feature", "properties": {"station_index": 184, "stop_id": "A10", "name": "163 St-Amsterdam Av", "routes": "A C"}, "geometry": {"type": "Point", "coordinates": [-73.939892, 40.836013]}}, {"type": "Feature", "properties": {"station_index": 185, "stop_id": "A11", "name": "155 St", "routes": "A C"}, "geometry": {"type": "Point", "coordinates": [-73.941514, 40.830518]}}, {"type": "Feature", "properties": {"station_index": 186, "stop_id": "A12", "name": "145 St", "routes": "A C"}, "geometry": {"type": "Point", "coordinates": [-73.944216, 40.824783]}}, {"type": "Feature", "properties": {"station_index": 187, "stop_id": "A14", "name": "135 St", "routes": "A B C"}, "geometry": {"type": "Point", "coordinates": [-73.947649, 40.817894]}}, {"type": "Feature", "properties": {"station_index": 188, "stop_id": "A15", "name": "125 St", "routes": "A B C D"}, "geometry": {"type": "Point", "coordinates": [-73.952343, 40.811109]}}, {"type": "Feature", "properties": {"station_index": 189, "stop_id": "A16", "name": "116 St", "routes": "A B C"}, "geometry": {"type": "Point", "coordinates": [-73.954882, 40.805085]}}, {"type": "Feature", "properties": {"station_index": 190, "stop_id": "A17", "name": "Cathedral Pkwy (110 St)", "routes": "A B C"}, "geometry": {"type": "Point", "coordinates": [-73.958161, 40.800603]}}, {"type": "Feature", "properties": {"station_index": 191, "stop_id": "A18", "name": "103 St", "routes": "A B C"}, "geometry": {"type": "Point", "coordinates": [-73.961454, 40.796092]}}, {"type": "Feature", "properties": {"station_index": 192, "stop_id": "A19", "name": "96 St", "routes": "A B C"}, "geometry": {"type": "Point", "coordinates": [-73.964696, 40.791642]}}, {"type": "Feature", "properties": {"station_index": 193, "stop_id": "A20", "name": "86 St", "routes": "A B C"}, "geometry": {"type": "Point", "coordinates": [-73.968916, 40.785868]}}, {"type": "Feature", "properties": {"station_index": 194, "stop_id": "A21", "name": "81 St-Museum of Natural History", "routes": "A B C"}, "geometry": {"type": "Point", "coordinates": [-73.972143, 40.781433]}}, {"type": "Feature", "properties": {"station_index": 195, "stop_id": "A22", "name": "72 St", "routes": "A B C"}, "geometry": {"type": "Point", "coordinates": [-73.97641, 40.775594]}}, {"type": "Feature", "properties": {"station_index": 196, "stop_id": "A24", "name": "59 St-Columbus Circle", "routes": "A B C D"}, "geometry": {"type": "Point", "coordinates": [-73.981736, 40.768296]}}, {"type": "Feature", "properties": {"station_index": 197, "stop_id": "A25", "name": "50 St", "routes": "A C E"}, "geometry": {"type": "Point", "coordinates": [-73.985984, 40.762456]}}, {"type": "Feature", "properties": {"station_index": 198, "stop_id": "A27", "name": "42 St-Port Authority Bus Terminal", "routes": "A C E"}, "geometry": {"type": "Point", "coordinates": [-73.989735, 40.757308]}}, {"type": "Feature", "properties": {"station_index": 199, "stop_id": "A28", "name": "34 St-Penn Station", "routes": "A C E"}, "geometry": {"type": "Point", "coordinates": [-73.993391, 40.752287]}}, {"type": "Feature", "properties": {"station_index": 200, "stop_id": "A30", "name": "23 St", "routes": "A C E"}, "geometry": {"type": "Point", "coordinates": [-73.998041, 40.745906]}}, {"type": "Feature", "properties": {"station_index": 201, "stop_id": "A31", "name": "14 St", "routes": "A C E"}, "geometry": {"type": "Point", "coordinates": [-74.00169, 40.740893]}}, {"type": "Feature", "properties": {"station_index": 202, "stop_id": "A32", "name": "W 4 St-Wash Sq", "routes": "A C E"}, "geometry": {"type": "Point", "coordinates": [-74.000495, 40.732338]}}, {"type": "Feature", "properties": {"station_index": 203, "stop_id": "A33", "name": "Spring St", "routes": "A C E"}, "geometry": {"type": "Point", "coordinates": [-74.003739, 40.726227]}}, {"type": "Feature", "properties": {"station_index": 204, "stop_id": "A34", "name": "Canal St", "routes": "A C E"}, "geometry": {"type": "Point", "coordinates": [-74.005229, 40.720824]}}, {"type": "Feature", "properties": {"station_index": 205, "stop_id": "A36", "name": "Chambers St", "routes": "A C"}, "geometry": {"type": "Point", "coordinates": [-74.008585, 40.714111]}}, {"type": "Feature", "properties": {"station_index": 206, "stop_id": "A38", "name": "Fulton St", "routes": "A C"}, "geometry": {"type": "Point", "coordinates": [-74.007691, 40.710197]}}, {"type": "Feature", "properties": {"station_index": 207, "stop_id": "A40", "name": "High St", "routes": "A C"}, "geometry": {"type": "Point", "coordinates": [-73.990531, 40.699337]}}, {"type": "Feature", "properties": {"station_index": 208, "stop_id": "A41", "name": "Jay St-MetroTech", "routes": "A C F FX"}, "geometry": {"type": "Point", "coordinates": [-73.987342, 40.692338]}}, {"type": "Feature", "properties": {"station_index": 209, "stop_id": "A42", "name": "Hoyt-Schermerhorn Sts", "routes": "A C G"}, "geometry": {"type": "Point", "coordinates": [-73.985001, 40.688484]}}, {"type": "Feature", "properties": {"station_index": 210, "stop_id": "A43", "name": "Lafayette Av", "routes": "A C"}, "geometry": {"type": "Point", "coordinates": [-73.973946, 40.686113]}}, {"type": "Feature", "properties": {"station_index": 211, "stop_id": "A44", "name": "Clinton-Washington Avs", "routes": "A C"}, "geometry": {"type": "Point", "coordinates": [-73.965838, 40.683263]}}, {"type": "Feature", "properties": {"station_index": 212, "stop_id": "A45", "name": "Franklin Av", "routes": "A C"}, "geometry": {"type": "Point", "coordinates": [-73.956848, 40.68138]}}, {"type": "Feature", "properties": {"station_index": 213, "stop_id": "A46", "name": "Nostrand Av", "routes": "A C"}, "geometry": {"type": "Point", "coordinates": [-73.950426, 40.680438]}}, {"type": "Feature", "properties": {"station_index": 214, "stop_id": "A47", "name": "Kingston-Throop Avs", "routes": "A C"}, "geometry": {"type": "Point", "coordinates": [-73.940858, 40.679921]}}, {"type": "Feature", "properties": {"station_index": 215, "stop_id": "A48", "name": "Utica Av", "routes": "A C"}, "geometry": {"type": "Point", "coordinates": [-73.930729, 40.679364]}}, {"type": "Feature", "properties": {"station_index": 216, "stop_id": "A49", "name": "Ralph Av", "routes": "A C"}, "geometry": {"type": "Point", "coordinates": [-73.920786, 40.678822]}}, {"type": "Feature", "properties": {"station_index": 217, "stop_id": "A50", "name": "Rockaway Av", "routes": "A C"}, "geometry": {"type": "Point", "coordinates": [-73.911946, 40.67834]}}, {"type": "Feature", "properties": {"station_index": 218, "stop_id": "A51", "name": "Broadway Junction", "routes": "A C"}, "geometry": {"type": "Point", "coordinates": [-73.905316, 40.678334]}}, {"type": "Feature", "properties": {"station_index": 219, "stop_id": "A52", "name": "Liberty Av", "routes": "A C"}, "geometry": {"type": "Point", "coordinates": [-73.896548, 40.674542]}}, {"type": "Feature", "properties": {"station_index": 220, "stop_id": "A53", "name": "Van Siclen Av", "routes": "A C"}, "geometry": {"type": "Point", "coordinates": [-73.890358, 40.67271]}}, {"type": "Feature", "properties": {"station_index": 221, "stop_id": "A54", "name": "Shepherd Av", "routes": "A C"}, "geometry": {"type": "Point", "coordinates": [-73.88075, 40.67413]}}, {"type": "Feature", "properties": {"station_index": 222, "stop_id": "A55", "name": "Euclid Av", "routes": "A C"}, "geometry": {"type": "Point", "coordinates": [-73.872106, 40.675377]}}, {"type": "Feature", "properties": {"station_index": 223, "stop_id": "A57", "name": "Grant Av", "routes": "A"}, "geometry": {"type": "Point", "coordinates": [-73.86505, 40.677044]}}, {"type": "Feature", "properties": {"station_index": 224, "stop_id": "A59", "name": "80 St", "routes": "A"}, "geometry": {"type": "Point", "coordinates": [-73.858992, 40.679371]}}, {"type": "Feature", "properties": {"station_index": 225, "stop_id": "A60", "name": "88 St", "routes": "A"}, "geometry": {"type": "Point", "coordinates": [-73.85147, 40.679843]}}, {"type": "Feature", "properties": {"station_index": 226, "stop_id": "A61", "name": "Rockaway Blvd", "routes": "A H"}, "geometry": {"type": "Point", "coordinates": [-73.843853, 40.680429]}}, {"type": "Feature", "properties": {"station_index": 227, "stop_id": "A63", "name": "104 St", "routes": "A"}, "geometry": {"type": "Point", "coordinates": [-73.837683, 40.681711]}}, {"type": "Feature", "properties": {"station_index": 228, "stop_id": "A64", "name": "111 St", "routes": "A"}, "geometry": {"type": "Point", "coordinates": [-73.832163, 40.684331]}}, {"type": "Feature", "properties": {"station_index": 229, "stop_id": "A65", "name": "Ozone Park-Lefferts Blvd", "routes": "A"}, "geometry": {"type": "Point", "coordinates": [-73.825798, 40.685951]}}, {"type": "Feature", "properties": {"station_index": 230, "stop_id": "B04", "name": "21 St-Queensbridge", "routes": "F M"}, "geometry": {"type": "Point", "coordinates": [-73.942836, 40.754203]}}, {"type": "Feature", "properties": {"station_index": 231, "stop_id": "B06", "name": "Roosevelt Island", "routes": "F M"}, "geometry": {"type": "Point", "coordinates": [-73.95326, 40.759145]}}, {"type": "Feature", "properties": {"station_index": 232, "stop_id": "B08", "name": "Lexington Av/63 St", "routes": "F M N Q R"}, "geometry": {"type": "Point", "coordinates": [-73.966113, 40.764629]}}, {"type": "Feature", "properties": {"station_index": 233, "stop_id": "B10", "name": "57 St", "routes": "F M"}, "geometry": {"type": "Point", "coordinates": [-73.97745, 40.763972]}}, {"type": "Feature", "properties": {"station_index": 234, "stop_id": "B12", "name": "9 Av", "routes": "D R W"}, "geometry": {"type": "Point", "coordinates": [-73.994324, 40.646292]}}, {"type": "Feature", "properties": {"station_index": 235, "stop_id": "B13", "name": "Fort Hamilton Pkwy", "routes": "D"}, "geometry": {"type": "Point", "coordinates": [-73.994304, 40.640914]}}, {"type": "Feature", "properties": {"station_index": 236, "stop_id": "B14", "name": "50 St", "routes": "D"}, "geometry": {"type": "Point", "coordinates": [-73.994791, 40.63626]}}, {"type": "Feature", "properties": {"station_index": 237, "stop_id": "B15", "name": "55 St", "routes": "D"}, "geometry": {"type": "Point", "coordinates": [-73.995476, 40.631435]}}, {"type": "Feature", "properties": {"station_index": 238, "stop_id": "B16", "name": "62 St", "routes": "D R W"}, "geometry": {"type": "Point", "coordinates": [-73.996895, 40.626472]}}, {"type": "Feature", "properties": {"station_index": 239, "stop_id": "B17", "name": "71 St", "routes": "D"}, "geometry": {"type": "Point", "coordinates": [-73.998864, 40.619589]}}, {"type": "Feature", "properties": {"station_index": 240, "stop_id": "B18", "name": "79 St", "routes": "D"}, "geometry": {"type": "Point", "coordinates": [-74.00061, 40.613501]}}, {"type": "Feature", "properties": {"station_index": 241, "stop_id": "B19", "name": "18 Av", "routes": "D"}, "geometry": {"type": "Point", "coordinates": [-74.001736, 40.607954]}}, {"type": "Feature", "properties": {"station_index": 242, "stop_id": "B20", "name": "20 Av", "routes": "D"}, "geometry": {"type": "Point", "coordinates": [-73.998168, 40.604556]}}, {"type": "Feature", "properties": {"station_index": 243, "stop_id": "B21", "name": "Bay Pkwy", "routes": "D R W"}, "geometry": {"type": "Point", "coordinates": [-73.993728, 40.601875]}}, {"type": "Feature", "properties": {"station_index": 244, "stop_id": "B22", "name": "25 Av", "routes": "D"}, "geometry": {"type": "Point", "coordinates": [-73.986829, 40.597704]}}, {"type": "Feature", "properties": {"station_index": 245, "stop_id": "B23", "name": "Bay 50 St", "routes": "D"}, "geometry": {"type": "Point", "coordinates": [-73.983765, 40.588841]}}, {"type": "Feature", "properties": {"station_index": 246, "stop_id": "D01", "name": "Norwood-205 St", "routes": "D"}, "geometry": {"type": "Point", "coordinates": [-73.878855, 40.874811]}}, {"type": "Feature", "properties": {"station_index": 247, "stop_id": "D03", "name": "Bedford Park Blvd", "routes": "B D"}, "geometry": {"type": "Point", "coordinates": [-73.887138, 40.873244]}}, {"type": "Feature", "properties": {"station_index": 248, "stop_id": "D04", "name": "Kingsbridge Rd", "routes": "B D"}, "geometry": {"type": "Point", "coordinates": [-73.893509, 40.866978]}}, {"type": "Feature", "properties": {"station_index": 249, "stop_id": "D05", "name": "Fordham Rd", "routes": "B D"}, "geometry": {"type": "Point", "coordinates": [-73.897749, 40.861296]}}, {"type": "Feature", "properties": {"station_index": 250, "stop_id": "D06", "name": "182-183 Sts", "routes": "B D"}, "geometry": {"type": "Point", "coordinates": [-73.900741, 40.856093]}}, {"type": "Feature", "properties": {"station_index": 251, "stop_id": "D07", "name": "Tremont Av", "routes": "B D"}, "geometry": {"type": "Point", "coordinates": [-73.905227, 40.85041]}}, {"type": "Feature", "properties": {"station_index": 252, "stop_id": "D08", "name": "174-175 Sts", "routes": "B D"}, "geometry": {"type": "Point", "coordinates": [-73.910136, 40.8459]}}, {"type": "Feature", "properties": {"station_index": 253, "stop_id": "D09", "name": "170 St", "routes": "B D"}, "geometry": {"type": "Point", "coordinates": [-73.9134, 40.839306]}}, {"type": "Feature", "properties": {"station_index": 254, "stop_id": "D10", "name": "167 St", "routes": "B D"}, "geometry": {"type": "Point", "coordinates": [-73.91844, 40.833771]}}, {"type": "Feature", "properties": {"station_index": 255, "stop_id": "D11", "name": "161 St-Yankee Stadium", "routes": "B D"}, "geometry": {"type": "Point", "coordinates": [-73.925651, 40.827905]}}, {"type": "Feature", "properties": {"station_index": 256, "stop_id": "D12", "name": "155 St", "routes": "B D"}, "geometry": {"type": "Point", "coordinates": [-73.938209, 40.830135]}}, {"type": "Feature", "properties": {"station_index": 257, "stop_id": "D13", "name": "145 St", "routes": "B D"}, "geometry": {"type": "Point", "coordinates": [-73.944216, 40.824783]}}, {"type": "Feature", "properties": {"station_index": 258, "stop_id": "D14", "name": "7 Av", "routes": "B D E"}, "geometry": {"type": "Point", "coordinates": [-73.981637, 40.762862]}}, {"type": "Feature", "properties": {"station_index": 259, "stop_id": "D15", "name": "47-50 Sts-Rockefeller Ctr", "routes": "B D F FX M"}, "geometry": {"type": "Point", "coordinates": [-73.981329, 40.758663]}}, {"type": "Feature", "properties": {"station_index": 260, "stop_id": "D16", "name": "42 St-Bryant Pk", "routes": "B D F FX M"}, "geometry": {"type": "Point", "coordinates": [-73.984569, 40.754222]}}, {"type": "Feature", "properties": {"station_index": 261, "stop_id": "D17", "name": "34 St-Herald Sq", "routes": "B D F FX M"}, "geometry": {"type": "Point", "coordinates": [-73.987823, 40.749719]}}, {"type": "Feature", "properties": {"station_index": 262, "stop_id": "D18", "name": "23 St", "routes": "F FX M"}, "geometry": {"type": "Point", "coordinates": [-73.992821, 40.742878]}}, {"type": "Feature", "properties": {"station_index": 263, "stop_id": "D19", "name": "14 St", "routes": "F FX M"}, "geometry": {"type": "Point", "coordinates": [-73.996209, 40.738228]}}, {"type": "Feature", "properties": {"station_index": 264, "stop_id": "D20", "name": "W 4 St-Wash Sq", "routes": "B D F FX M"}, "geometry": {"type": "Point", "coordinates": [-74.000495, 40.732338]}}, {"type": "Feature", "properties": {"station_index": 265, "stop_id": "D21", "name": "Broadway-Lafayette St", "routes": "B D F FX M"}, "geometry": {"type": "Point", "coordinates": [-73.996204, 40.725297]}}, {"type": "Feature", "properties": {"station_index": 266, "stop_id": "D22", "name": "Grand St", "routes": "B D"}, "geometry": {"type": "Point", "coordinates": [-73.993753, 40.718267]}}, {"type": "Feature", "properties": {"station_index": 267, "stop_id": "D24", "name": "Atlantic Av-Barclays Ctr", "routes": "B Q"}, "geometry": {"type": "Point", "coordinates": [-73.97689, 40.68446]}}, {"type": "Feature", "properties": {"station_index": 268, "stop_id": "D25", "name": "7 Av", "routes": "B Q"}, "geometry": {"type": "Point", "coordinates": [-73.972367, 40.67705]}}, {"type": "Feature", "properties": {"station_index": 269, "stop_id": "D26", "name": "Prospect Park", "routes": "B FS Q"}, "geometry": {"type": "Point", "coordinates": [-73.962246, 40.661614]}}, {"type": "Feature", "properties": {"station_index": 270, "stop_id": "D27", "name": "Parkside Av", "routes": "Q"}, "geometry": {"type": "Point", "coordinates": [-73.961495, 40.655292]}}, {"type": "Feature", "properties": {"station_index": 271, "stop_id": "D28", "name": "Church Av", "routes": "B Q"}, "geometry": {"type": "Point", "coordinates": [-73.962982, 40.650527]}}, {"type": "Feature", "properties": {"station_index": 272, "stop_id": "D29", "name": "Beverley Rd", "routes": "Q"}, "geometry": {"type": "Point", "coordinates": [-73.964492, 40.644031]}}, {"type": "Feature", "properties": {"station_index": 273, "stop_id": "D30", "name": "Cortelyou Rd", "routes": "Q"}, "geometry": {"type": "Point", "coordinates": [-73.963891, 40.640927]}}, {"type": "Feature", "properties": {"station_index": 274, "stop_id": "D31", "name": "Newkirk Plaza", "routes": "B Q"}, "geometry": {"type": "Point", "coordinates": [-73.962793, 40.635082]}}, {"type": "Feature", "properties": {"station_index": 275, "stop_id": "D32", "name": "Avenue H", "routes": "Q"}, "geometry": {"type": "Point", "coordinates": [-73.961639, 40.62927]}}, {"type": "Feature", "properties": {"station_index": 276, "stop_id": "D33", "name": "Avenue J", "routes": "Q"}, "geometry": {"type": "Point", "coordinates": [-73.960803, 40.625039]}}, {"type": "Feature", "properties": {"station_index": 277, "stop_id": "D34", "name": "Avenue M", "routes": "Q"}, "geometry": {"type": "Point", "coordinates": [-73.959399, 40.617618]}}, {"type": "Feature", "properties": {"station_index": 278, "stop_id": "D35", "name": "Kings Hwy", "routes": "B Q"}, "geometry": {"type": "Point", "coordinates": [-73.957734, 40.60867]}}, {"type": "Feature", "properties": {"station_index": 279, "stop_id": "D37", "name": "Avenue U", "routes": "Q"}, "geometry": {"type": "Point", "coordinates": [-73.955929, 40.5993]}}, {"type": "Feature", "properties": {"station_index": 280, "stop_id": "D38", "name": "Neck Rd", "routes": "Q"}, "geometry": {"type": "Point", "coordinates": [-73.955161, 40.595246]}}, {"type": "Feature", "properties": {"station_index": 281, "stop_id": "D39", "name": "Sheepshead Bay", "routes": "B Q"}, "geometry": {"type": "Point", "coordinates": [-73.954155, 40.586896]}}, {"type": "Feature", "properties": {"station_index": 282, "stop_id": "D40", "name": "Brighton Beach", "routes": "B Q"}, "geometry": {"type": "Point", "coordinates": [-73.961376, 40.577621]}}, {"type": "Feature", "properties": {"station_index": 283, "stop_id": "D41", "name": "Ocean Pkwy", "routes": "Q"}, "geometry": {"type": "Point", "coordinates": [-73.968501, 40.576312]}}, {"type": "Feature", "properties": {"station_index": 284, "stop_id": "D42", "name": "W 8 St-NY Aquarium", "routes": "F FX Q"}, "geometry": {"type": "Point", "coordinates": [-73.975939, 40.576127]}}, {"type": "Feature", "properties": {"station_index": 285, "stop_id": "D43", "name": "Coney Island-Stillwell Av", "routes": "D F FX N Q"}, "geometry": {"type": "Point", "coordinates": [-73.981233, 40.577422]}}, {"type": "Feature", "properties": {"station_index": 286, "stop_id": "E01", "name": "World Trade Center", "routes": "E"}, "geometry": {"type": "Point", "coordinates": [-74.009781, 40.712582]}}, {"type": "Feature", "properties": {"station_index": 287, "stop_id": "F01", "name": "Jamaica-179 St", "routes": "E F FX"}, "geometry": {"type": "Point", "coordinates": [-73.783817, 40.712646]}}, {"type": "Feature", "properties": {"station_index": 288, "stop_id": "F02", "name": "169 St", "routes": "E F FX"}, "geometry": {"type": "Point", "coordinates": [-73.793604, 40.71047]}}, {"type": "Feature", "properties": {"station_index": 289, "stop_id": "F03", "name": "Parsons Blvd", "routes": "E F FX"}, "geometry": {"type": "Point", "coordinates": [-73.803326, 40.707564]}}, {"type": "Feature", "properties": {"station_index": 290, "stop_id": "F04", "name": "Sutphin Blvd", "routes": "E F FX"}, "geometry": {"type": "Point", "coordinates": [-73.810708, 40.70546]}}, {"type": "Feature", "properties": {"station_index": 291, "stop_id": "F05", "name": "Briarwood", "routes": "E F FX"}, "geometry": {"type": "Point", "coordinates": [-73.820574, 40.709179]}}, {"type": "Feature", "properties": {"station_index": 292, "stop_id": "F06", "name": "Kew Gardens-Union Tpke", "routes": "E F FX"}, "geometry": {"type": "Point", "coordinates": [-73.831008, 40.714441]}}, {"type": "Feature", "properties": {"station_index": 293, "stop_id": "F07", "name": "75 Av", "routes": "E F FX"}, "geometry": {"type": "Point", "coordinates": [-73.837324, 40.718331]}}, {"type": "Feature", "properties": {"station_index": 294, "stop_id": "F09", "name": "Court Sq-23 St", "routes": "E F FX"}, "geometry": {"type": "Point", "coordinates": [-73.946, 40.747846]}}, {"type": "Feature", "properties": {"station_index": 295, "stop_id": "F11", "name": "Lexington Av/53 St", "routes": "E F FX"}, "geometry": {"type": "Point", "coordinates": [-73.969055, 40.757552]}}, {"type": "Feature", "properties": {"station_index": 296, "stop_id": "F12", "name": "5 Av/53 St", "routes": "E F FX"}, "geometry": {"type": "Point", "coordinates": [-73.975224, 40.760167]}}, {"type": "Feature", "properties": {"station_index": 297, "stop_id": "F14", "name": "2 Av", "routes": "F FX"}, "geometry": {"type": "Point", "coordinates": [-73.989938, 40.723402]}}, {"type": "Feature", "properties": {"station_index": 298, "stop_id": "F15", "name": "Delancey St-Essex St", "routes": "F FX"}, "geometry": {"type": "Point", "coordinates": [-73.988114, 40.718611]}}, {"type": "Feature", "properties": {"station_index": 299, "stop_id": "F16", "name": "East Broadway", "routes": "F FX"}, "geometry": {"type": "Point", "coordinates": [-73.990173, 40.713715]}}, {"type": "Feature", "properties": {"station_index": 300, "stop_id": "F18", "name": "York St", "routes": "F FX"}, "geometry": {"type": "Point", "coordinates": [-73.986751, 40.701397]}}, {"type": "Feature", "properties": {"station_index": 301, "stop_id": "F20", "name": "Bergen St", "routes": "F G"}, "geometry": {"type": "Point", "coordinates": [-73.990862, 40.686145]}}, {"type": "Feature", "properties": {"station_index": 302, "stop_id": "F21", "name": "Carroll St", "routes": "F G"}, "geometry": {"type": "Point", "coordinates": [-73.995048, 40.680303]}}, {"type": "Feature", "properties": {"station_index": 303, "stop_id": "F22", "name": "Smith-9 Sts", "routes": "F G"}, "geometry": {"type": "Point", "coordinates": [-73.995959, 40.67358]}}, {"type": "Feature", "properties": {"station_index": 304, "stop_id": "F23", "name": "4 Av-9 St", "routes": "F G"}, "geometry": {"type": "Point", "coordinates": [-73.989779, 40.670272]}}, {"type": "Feature", "properties": {"station_index": 305, "stop_id": "F24", "name": "7 Av", "routes": "F FX G"}, "geometry": {"type": "Point", "coordinates": [-73.980305, 40.666271]}}, {"type": "Feature", "properties": {"station_index": 306, "stop_id": "F25", "name": "15 St-Prospect Park", "routes": "F G"}, "geometry": {"type": "Point", "coordinates": [-73.979493, 40.660365]}}, {"type": "Feature", "properties": {"station_index": 307, "stop_id": "F26", "name": "Fort Hamilton Pkwy", "routes": "F G"}, "geometry": {"type": "Point", "coordinates": [-73.975776, 40.650782]}}, {"type": "Feature", "properties": {"station_index": 308, "stop_id": "F27", "name": "Church Av", "routes": "F FX G"}, "geometry": {"type": "Point", "coordinates": [-73.979678, 40.644041]}}, {"type": "Feature", "properties": {"station_index": 309, "stop_id": "F29", "name": "Ditmas Av", "routes": "F FX"}, "geometry": {"type": "Point", "coordinates": [-73.978172, 40.636119]}}, {"type": "Feature", "properties": {"station_index": 310, "stop_id": "F30", "name": "18 Av", "routes": "F FX"}, "geometry": {"type": "Point", "coordinates": [-73.976971, 40.629755]}}, {"type": "Feature", "properties": {"station_index": 311, "stop_id": "F31", "name": "Avenue I", "routes": "F FX"}, "geometry": {"type": "Point", "coordinates": [-73.976127, 40.625322]}}, {"type": "Feature", "properties": {"station_index": 312, "stop_id": "F32", "name": "Bay Pkwy", "routes": "F FX"}, "geometry": {"type": "Point", "coordinates": [-73.975264, 40.620769]}}, {"type": "Feature", "properties": {"station_index": 313, "stop_id": "F33", "name": "Avenue N", "routes": "F FX"}, "geometry": {"type": "Point", "coordinates": [-73.974197, 40.61514]}}, {"type": "Feature", "properties": {"station_index": 314, "stop_id": "F34", "name": "Avenue P", "routes": "F FX"}, "geometry": {"type": "Point", "coordinates": [-73.973022, 40.608944]}}, {"type": "Feature", "properties": {"station_index": 315, "stop_id": "F35", "name": "Kings Hwy", "routes": "F FX"}, "geometry": {"type": "Point", "coordinates": [-73.972361, 40.603217]}}, {"type": "Feature", "properties": {"station_index": 316, "stop_id": "F36", "name": "Avenue U", "routes": "F FX"}, "geometry": {"type": "Point", "coordinates": [-73.973357, 40.596063]}}, {"type": "Feature", "properties": {"station_index": 317, "stop_id": "F38", "name": "Avenue X", "routes": "F FX"}, "geometry": {"type": "Point", "coordinates": [-73.97425, 40.58962]}}, {"type": "Feature", "properties": {"station_index": 318, "stop_id": "F39", "name": "Neptune Av", "routes": "F FX"}, "geometry": {"type": "Point", "coordinates": [-73.974574, 40.581011]}}, {"type": "Feature", "properties": {"station_index": 319, "stop_id": "G05", "name": "Jamaica Center-Parsons/Archer", "routes": "E J Z"}, "geometry": {"type": "Point", "coordinates": [-73.801109, 40.702147]}}, {"type": "Feature", "properties": {"station_index": 320, "stop_id": "G06", "name": "Sutphin Blvd-Archer Av-JFK Airport", "routes": "E J Z"}, "geometry": {"type": "Point", "coordinates": [-73.807969, 40.700486]}}, {"type": "Feature", "properties": {"station_index": 321, "stop_id": "G07", "name": "Jamaica-Van Wyck", "routes": "E"}, "geometry": {"type": "Point", "coordinates": [-73.816859, 40.702566]}}, {"type": "Feature", "properties": {"station_index": 322, "stop_id": "G08", "name": "Forest Hills-71 Av", "routes": "E F FX M R"}, "geometry": {"type": "Point", "coordinates": [-73.844521, 40.721691]}}, {"type": "Feature", "properties": {"station_index": 323, "stop_id": "G09", "name": "67 Av", "routes": "E F M R"}, "geometry": {"type": "Point", "coordinates": [-73.852719, 40.726523]}}, {"type": "Feature", "properties": {"station_index": 324, "stop_id": "G10", "name": "63 Dr-Rego Park", "routes": "E F M R"}, "geometry": {"type": "Point", "coordinates": [-73.861604, 40.729846]}}, {"type": "Feature", "properties": {"station_index": 325, "stop_id": "G11", "name": "Woodhaven Blvd", "routes": "E F M R"}, "geometry": {"type": "Point", "coordinates": [-73.869229, 40.733106]}}, {"type": "Feature", "properties": {"station_index": 326, "stop_id": "G12", "name": "Grand Av-Newtown", "routes": "E F M R"}, "geometry": {"type": "Point", "coordinates": [-73.877223, 40.737015]}}, {"type": "Feature", "properties": {"station_index": 327, "stop_id": "G13", "name": "Elmhurst Av", "routes": "E F M R"}, "geometry": {"type": "Point", "coordinates": [-73.882017, 40.742454]}}, {"type": "Feature", "properties": {"station_index": 328, "stop_id": "G14", "name": "Jackson Hts-Roosevelt Av", "routes": "E F FX M R"}, "geometry": {"type": "Point", "coordinates": [-73.891338, 40.746644]}}, {"type": "Feature", "properties": {"station_index": 329, "stop_id": "G15", "name": "65 St", "routes": "E F M R"}, "geometry": {"type": "Point", "coordinates": [-73.898453, 40.749669]}}, {"type": "Feature", "properties": {"station_index": 330, "stop_id": "G16", "name": "Northern Blvd", "routes": "E F M R"}, "geometry": {"type": "Point", "coordinates": [-73.906006, 40.752885]}}, {"type": "Feature", "properties": {"station_index": 331, "stop_id": "G18", "name": "46 St", "routes": "E F M R"}, "geometry": {"type": "Point", "coordinates": [-73.913333, 40.756312]}}, {"type": "Feature", "properties": {"station_index": 332, "stop_id": "G19", "name": "Steinway St", "routes": "E F M R"}, "geometry": {"type": "Point", "coordinates": [-73.92074, 40.756879]}}, {"type": "Feature", "properties": {"station_index": 333, "stop_id": "G20", "name": "36 St", "routes": "E F M R"}, "geometry": {"type": "Point", "coordinates": [-73.928781, 40.752039]}}, {"type": "Feature", "properties": {"station_index": 334, "stop_id": "G21", "name": "Queens Plaza", "routes": "E F FX R"}, "geometry": {"type": "Point", "coordinates": [-73.937243, 40.748973]}}, {"type": "Feature", "properties": {"station_index": 335, "stop_id": "G22", "name": "Court Sq", "routes": "G"}, "geometry": {"type": "Point", "coordinates": [-73.943832, 40.746554]}}, {"type": "Feature", "properties": {"station_index": 336, "stop_id": "G24", "name": "21 St", "routes": "G"}, "geometry": {"type": "Point", "coordinates": [-73.949724, 40.744065]}}, {"type": "Feature", "properties": {"station_index": 337, "stop_id": "G26", "name": "Greenpoint Av", "routes": "G"}, "geometry": {"type": "Point", "coordinates": [-73.954449, 40.731352]}}, {"type": "Feature", "properties": {"station_index": 338, "stop_id": "G28", "name": "Nassau Av", "routes": "G"}, "geometry": {"type": "Point", "coordinates": [-73.951277, 40.724635]}}, {"type": "Feature", "properties": {"station_index": 339, "stop_id": "G29", "name": "Metropolitan Av", "routes": "G"}, "geometry": {"type": "Point", "coordinates": [-73.951418, 40.712792]}}, {"type": "Feature", "properties": {"station_index": 340, "stop_id": "G30", "name": "Broadway", "routes": "G"}, "geometry": {"type": "Point", "coordinates": [-73.950308, 40.706092]}}, {"type": "Feature", "properties": {"station_index": 341, "stop_id": "G31", "name": "Flushing Av", "routes": "G"}, "geometry": {"type": "Point", "coordinates": [-73.950234, 40.700377]}}, {"type": "Feature", "properties": {"station_index": 342, "stop_id": "G32", "name": "Myrtle-Willoughby Avs", "routes": "G"}, "geometry": {"type": "Point", "coordinates": [-73.949046, 40.694568]}}, {"type": "Feature", "properties": {"station_index": 343, "stop_id": "G33", "name": "Bedford-Nostrand Avs", "routes": "G"}, "geometry": {"type": "Point", "coordinates": [-73.953522, 40.689627]}}, {"type": "Feature", "properties": {"station_index": 344, "stop_id": "G34", "name": "Classon Av", "routes": "G"}, "geometry": {"type": "Point", "coordinates": [-73.96007, 40.688873]}}, {"type": "Feature", "properties": {"station_index": 345, "stop_id": "G35", "name": "Clinton-Washington Avs", "routes": "G"}, "geometry": {"type": "Point", "coordinates": [-73.966839, 40.688089]}}, {"type": "Feature", "properties": {"station_index": 346, "stop_id": "G36", "name": "Fulton St", "routes": "G"}, "geometry": {"type": "Point", "coordinates": [-73.975375, 40.687119]}}, {"type": "Feature", "properties": {"station_index": 347, "stop_id": "H01", "name": "Aqueduct Racetrack", "routes": "A H"}, "geometry": {"type": "Point", "coordinates": [-73.835919, 40.672097]}}, {"type": "Feature", "properties": {"station_index": 348, "stop_id": "H02", "name": "Aqueduct-N Conduit Av", "routes": "A H"}, "geometry": {"type": "Point", "coordinates": [-73.834058, 40.668234]}}, {"type": "Feature", "properties": {"station_index": 349, "stop_id": "H03", "name": "Howard Beach-JFK Airport", "routes": "A H"}, "geometry": {"type": "Point", "coordinates": [-73.830301, 40.660476]}}, {"type": "Feature", "properties": {"station_index": 350, "stop_id": "H04", "name": "Broad Channel", "routes": "A H"}, "geometry": {"type": "Point", "coordinates": [-73.815925, 40.608382]}}, {"type": "Feature", "properties": {"station_index": 351, "stop_id": "H06", "name": "Beach 67 St", "routes": "A"}, "geometry": {"type": "Point", "coordinates": [-73.796924, 40.590927]}}, {"type": "Feature", "properties": {"station_index": 352, "stop_id": "H07", "name": "Beach 60 St", "routes": "A"}, "geometry": {"type": "Point", "coordinates": [-73.788522, 40.592374]}}, {"type": "Feature", "properties": {"station_index": 353, "stop_id": "H08", "name": "Beach 44 St", "routes": "A"}, "geometry": {"type": "Point", "coordinates": [-73.776013, 40.592943]}}, {"type": "Feature", "properties": {"station_index": 354, "stop_id": "H09", "name": "Beach 36 St", "routes": "A"}, "geometry": {"type": "Point", "coordinates": [-73.768175, 40.595398]}}, {"type": "Feature", "properties": {"station_index": 355, "stop_id": "H10", "name": "Beach 25 St", "routes": "A"}, "geometry": {"type": "Point", "coordinates": [-73.761353, 40.600066]}}, {"type": "Feature", "properties": {"station_index": 356, "stop_id": "H11", "name": "Far Rockaway-Mott Av", "routes": "A"}, "geometry": {"type": "Point", "coordinates": [-73.755405, 40.603995]}}, {"type": "Feature", "properties": {"station_index": 357, "stop_id": "H12", "name": "Beach 90 St", "routes": "A H"}, "geometry": {"type": "Point", "coordinates": [-73.813641, 40.588034]}}, {"type": "Feature", "properties": {"station_index": 358, "stop_id": "H13", "name": "Beach 98 St", "routes": "A H"}, "geometry": {"type": "Point", "coordinates": [-73.820558, 40.585307]}}, {"type": "Feature", "properties": {"station_index": 359, "stop_id": "H14", "name": "Beach 105 St", "routes": "A H"}, "geometry": {"type": "Point", "coordinates": [-73.827559, 40.583209]}}, {"type": "Feature", "properties": {"station_index": 360, "stop_id": "H15", "name": "Rockaway Park-Beach 116 St", "routes": "A H"}, "geometry": {"type": "Point", "coordinates": [-73.835592, 40.580903]}}, {"type": "Feature", "properties": {"station_index": 361, "stop_id": "J12", "name": "121 St", "routes": "J Z"}, "geometry": {"type": "Point", "coordinates": [-73.828294, 40.700492]}}, {"type": "Feature", "properties": {"station_index": 362, "stop_id": "J13", "name": "111 St", "routes": "J"}, "geometry": {"type": "Point", "coordinates": [-73.836345, 40.697418]}}, {"type": "Feature", "properties": {"station_index": 363, "stop_id": "J14", "name": "104 St", "routes": "J Z"}, "geometry": {"type": "Point", "coordinates": [-73.84433, 40.695178]}}, {"type": "Feature", "properties": {"station_index": 364, "stop_id": "J15", "name": "Woodhaven Blvd", "routes": "J Z"}, "geometry": {"type": "Point", "coordinates": [-73.851576, 40.693879]}}, {"type": "Feature", "properties": {"station_index": 365, "stop_id": "J16", "name": "85 St-Forest Pkwy", "routes": "J"}, "geometry": {"type": "Point", "coordinates": [-73.86001, 40.692435]}}, {"type": "Feature", "properties": {"station_index": 366, "stop_id": "J17", "name": "75 St-Elderts Ln", "routes": "J Z"}, "geometry": {"type": "Point", "coordinates": [-73.867139, 40.691324]}}, {"type": "Feature", "properties": {"station_index": 367, "stop_id": "J19", "name": "Cypress Hills", "routes": "J"}, "geometry": {"type": "Point", "coordinates": [-73.87255, 40.689941]}}, {"type": "Feature", "properties": {"station_index": 368, "stop_id": "J20", "name": "Crescent St", "routes": "J Z"}, "geometry": {"type": "Point", "coordinates": [-73.873785, 40.683194]}}, {"type": "Feature", "properties": {"station_index": 369, "stop_id": "J21", "name": "Norwood Av", "routes": "J Z"}, "geometry": {"type": "Point", "coordinates": [-73.880039, 40.68141]}}, {"type": "Feature", "properties": {"station_index": 370, "stop_id": "J22", "name": "Cleveland St", "routes": "J"}, "geometry": {"type": "Point", "coordinates": [-73.884639, 40.679947]}}, {"type": "Feature", "properties": {"station_index": 371, "stop_id": "J23", "name": "Van Siclen Av", "routes": "J Z"}, "geometry": {"type": "Point", "coordinates": [-73.891688, 40.678024]}}, {"type": "Feature", "properties": {"station_index": 372, "stop_id": "J24", "name": "Alabama Av", "routes": "J Z"}, "geometry": {"type": "Point", "coordinates": [-73.898654, 40.676992]}}, {"type": "Feature", "properties": {"station_index": 373, "stop_id": "J27", "name": "Broadway Junction", "routes": "J Z"}, "geometry": {"type": "Point", "coordinates": [-73.904512, 40.679498]}}, {"type": "Feature", "properties": {"station_index": 374, "stop_id": "J28", "name": "Chauncey St", "routes": "J Z"}, "geometry": {"type": "Point", "coordinates": [-73.910456, 40.682893]}}, {"type": "Feature", "properties": {"station_index": 375, "stop_id": "J29", "name": "Halsey St", "routes": "J"}, "geometry": {"type": "Point", "coordinates": [-73.916559, 40.68637]}}, {"type": "Feature", "properties": {"station_index": 376, "stop_id": "J30", "name": "Gates Av", "routes": "J Z"}, "geometry": {"type": "Point", "coordinates": [-73.92227, 40.68963]}}, {"type": "Feature", "properties": {"station_index": 377, "stop_id": "J31", "name": "Kosciuszko St", "routes": "J"}, "geometry": {"type": "Point", "coordinates": [-73.928814, 40.693342]}}, {"type": "Feature", "properties": {"station_index": 378, "stop_id": "L01", "name": "8 Av", "routes": "L"}, "geometry": {"type": "Point", "coordinates": [-74.002578, 40.739777]}}, {"type": "Feature", "properties": {"station_index": 379, "stop_id": "L02", "name": "6 Av", "routes": "L"}, "geometry": {"type": "Point", "coordinates": [-73.996786, 40.737335]}}, {"type": "Feature", "properties": {"station_index": 380, "stop_id": "L03", "name": "14 St-Union Sq", "routes": "L"}, "geometry": {"type": "Point", "coordinates": [-73.99073, 40.734789]}}, {"type": "Feature", "properties": {"station_index": 381, "stop_id": "L05", "name": "3 Av", "routes": "L"}, "geometry": {"type": "Point", "coordinates": [-73.986122, 40.732849]}}, {"type": "Feature", "properties": {"station_index": 382, "stop_id": "L06", "name": "1 Av", "routes": "L"}, "geometry": {"type": "Point", "coordinates": [-73.981628, 40.730953]}}, {"type": "Feature", "properties": {"station_index": 383, "stop_id": "L08", "name": "Bedford Av", "routes": "L"}, "geometry": {"type": "Point", "coordinates": [-73.956872, 40.717304]}}, {"type": "Feature", "properties": {"station_index": 384, "stop_id": "L10", "name": "Lorimer St", "routes": "L"}, "geometry": {"type": "Point", "coordinates": [-73.950275, 40.714063]}}, {"type": "Feature", "properties": {"station_index": 385, "stop_id": "L11", "name": "Graham Av", "routes": "L"}, "geometry": {"type": "Point", "coordinates": [-73.944053, 40.714565]}}, {"type": "Feature", "properties": {"station_index": 386, "stop_id": "L12", "name": "Grand St", "routes": "L"}, "geometry": {"type": "Point", "coordinates": [-73.94067, 40.711926]}}, {"type": "Feature", "properties": {"station_index": 387, "stop_id": "L13", "name": "Montrose Av", "routes": "L"}, "geometry": {"type": "Point", "coordinates": [-73.93985, 40.707739]}}, {"type": "Feature", "properties": {"station_index": 388, "stop_id": "L14", "name": "Morgan Av", "routes": "L"}, "geometry": {"type": "Point", "coordinates": [-73.933147, 40.706152]}}, {"type": "Feature", "properties": {"station_index": 389, "stop_id": "L15", "name": "Jefferson St", "routes": "L"}, "geometry": {"type": "Point", "coordinates": [-73.922913, 40.706607]}}, {"type": "Feature", "properties": {"station_index": 390, "stop_id": "L16", "name": "DeKalb Av", "routes": "L"}, "geometry": {"type": "Point", "coordinates": [-73.918425, 40.703811]}}, {"type": "Feature", "properties": {"station_index": 391, "stop_id": "L17", "name": "Myrtle-Wyckoff Avs", "routes": "L"}, "geometry": {"type": "Point", "coordinates": [-73.911586, 40.699814]}}, {"type": "Feature", "properties": {"station_index": 392, "stop_id": "L19", "name": "Halsey St", "routes": "L"}, "geometry": {"type": "Point", "coordinates": [-73.904084, 40.695602]}}, {"type": "Feature", "properties": {"station_index": 393, "stop_id": "L20", "name": "Wilson Av", "routes": "L"}, "geometry": {"type": "Point", "coordinates": [-73.904046, 40.688764]}}, {"type": "Feature", "properties": {"station_index": 394, "stop_id": "L21", "name": "Bushwick Av-Aberdeen St", "routes": "L"}, "geometry": {"type": "Point", "coordinates": [-73.905249, 40.682829]}}, {"type": "Feature", "properties": {"station_index": 395, "stop_id": "L22", "name": "Broadway Junction", "routes": "L"}, "geometry": {"type": "Point", "coordinates": [-73.90324, 40.678856]}}, {"type": "Feature", "properties": {"station_index": 396, "stop_id": "L24", "name": "Atlantic Av", "routes": "L"}, "geometry": {"type": "Point", "coordinates": [-73.903097, 40.675345]}}, {"type": "Feature", "properties": {"station_index": 397, "stop_id": "L25", "name": "Sutter Av", "routes": "L"}, "geometry": {"type": "Point", "coordinates": [-73.901975, 40.669367]}}, {"type": "Feature", "properties": {"station_index": 398, "stop_id": "L26", "name": "Livonia Av", "routes": "L"}, "geometry": {"type": "Point", "coordinates": [-73.900571, 40.664038]}}, {"type": "Feature", "properties": {"station_index": 399, "stop_id": "L27", "name": "New Lots Av", "routes": "L"}, "geometry": {"type": "Point", "coordinates": [-73.899232, 40.658733]}}, {"type": "Feature", "properties": {"station_index": 400, "stop_id": "L28", "name": "East 105 St", "routes": "L"}, "geometry": {"type": "Point", "coordinates": [-73.899485, 40.650573]}}, {"type": "Feature", "properties": {"station_index": 401, "stop_id": "L29", "name": "Canarsie-Rockaway Pkwy", "routes": "L"}, "geometry": {"type": "Point", "coordinates": [-73.90185, 40.646654]}}, {"type": "Feature", "properties": {"station_index": 402, "stop_id": "M01", "name": "Middle Village-Metropolitan Av", "routes": "M"}, "geometry": {"type": "Point", "coordinates": [-73.889601, 40.711396]}}, {"type": "Feature", "properties": {"station_index": 403, "stop_id": "M04", "name": "Fresh Pond Rd", "routes": "M"}, "geometry": {"type": "Point", "coordinates": [-73.895877, 40.706186]}}, {"type": "Feature", "properties": {"station_index": 404, "stop_id": "M05", "name": "Forest Av", "routes": "M"}, "geometry": {"type": "Point", "coordinates": [-73.903077, 40.704423]}}, {"type": "Feature", "properties": {"station_index": 405, "stop_id": "M06", "name": "Seneca Av", "routes": "M"}, "geometry": {"type": "Point", "coordinates": [-73.90774, 40.702762]}}, {"type": "Feature", "properties": {"station_index": 406, "stop_id": "M08", "name": "Myrtle-Wyckoff Avs", "routes": "M"}, "geometry": {"type": "Point", "coordinates": [-73.912385, 40.69943]}}, {"type": "Feature", "properties": {"station_index": 407, "stop_id": "M09", "name": "Knickerbocker Av", "routes": "M"}, "geometry": {"type": "Point", "coordinates": [-73.919711, 40.698664]}}, {"type": "Feature", "properties": {"station_index": 408, "stop_id": "M10", "name": "Central Av", "routes": "M"}, "geometry": {"type": "Point", "coordinates": [-73.927397, 40.697857]}}, {"type": "Feature", "properties": {"station_index": 409, "stop_id": "M11", "name": "Myrtle Av", "routes": "J M Z"}, "geometry": {"type": "Point", "coordinates": [-73.935657, 40.697207]}}, {"type": "Feature", "properties": {"station_index": 410, "stop_id": "M12", "name": "Flushing Av", "routes": "J M"}, "geometry": {"type": "Point", "coordinates": [-73.941126, 40.70026]}}, {"type": "Feature", "properties": {"station_index": 411, "stop_id": "M13", "name": "Lorimer St", "routes": "J M"}, "geometry": {"type": "Point", "coordinates": [-73.947408, 40.703869]}}, {"type": "Feature", "properties": {"station_index": 412, "stop_id": "M14", "name": "Hewes St", "routes": "J M"}, "geometry": {"type": "Point", "coordinates": [-73.953431, 40.70687]}}, {"type": "Feature", "properties": {"station_index": 413, "stop_id": "M16", "name": "Marcy Av", "routes": "J M Z"}, "geometry": {"type": "Point", "coordinates": [-73.957757, 40.708359]}}, {"type": "Feature", "properties": {"station_index": 414, "stop_id": "M18", "name": "Delancey St-Essex St", "routes": "J M Z"}, "geometry": {"type": "Point", "coordinates": [-73.987437, 40.718315]}}, {"type": "Feature", "properties": {"station_index": 415, "stop_id": "M19", "name": "Bowery", "routes": "J Z"}, "geometry": {"type": "Point", "coordinates": [-73.993915, 40.72028]}}, {"type": "Feature", "properties": {"station_index": 416, "stop_id": "M20", "name": "Canal St", "routes": "J Z"}, "geometry": {"type": "Point", "coordinates": [-73.999892, 40.718092]}}, {"type": "Feature", "properties": {"station_index": 417, "stop_id": "M21", "name": "Chambers St", "routes": "J Z"}, "geometry": {"type": "Point", "coordinates": [-74.003401, 40.713243]}}, {"type": "Feature", "properties": {"station_index": 418, "stop_id": "M22", "name": "Fulton St", "routes": "J Z"}, "geometry": {"type": "Point", "coordinates": [-74.007582, 40.710374]}}, {"type": "Feature", "properties": {"station_index": 419, "stop_id": "M23", "name": "Broad St", "routes": "J Z"}, "geometry": {"type": "Point", "coordinates": [-74.011056, 40.706476]}}, {"type": "Feature", "properties": {"station_index": 420, "stop_id": "N02", "name": "8 Av", "routes": "N W"}, "geometry": {"type": "Point", "coordinates": [-74.011719, 40.635064]}}, {"type": "Feature", "properties": {"station_index": 421, "stop_id": "N03", "name": "Fort Hamilton Pkwy", "routes": "N W"}, "geometry": {"type": "Point", "coordinates": [-74.005351, 40.631386]}}, {"type": "Feature", "properties": {"station_index": 422, "stop_id": "N04", "name": "New Utrecht Av", "routes": "N W"}, "geometry": {"type": "Point", "coordinates": [-73.996353, 40.624842]}}, {"type": "Feature", "properties": {"station_index": 423, "stop_id": "N05", "name": "18 Av", "routes": "N W"}, "geometry": {"type": "Point", "coordinates": [-73.990414, 40.620671]}}, {"type": "Feature", "properties": {"station_index": 424, "stop_id": "N06", "name": "20 Av", "routes": "N W"}, "geometry": {"type": "Point", "coordinates": [-73.985026, 40.61741]}}, {"type": "Feature", "properties": {"station_index": 425, "stop_id": "N07", "name": "Bay Pkwy", "routes": "N W"}, "geometry": {"type": "Point", "coordinates": [-73.981848, 40.611815]}}, {"type": "Feature", "properties": {"station_index": 426, "stop_id": "N08", "name": "Kings Hwy", "routes": "N W"}, "geometry": {"type": "Point", "coordinates": [-73.980353, 40.603923]}}, {"type": "Feature", "properties": {"station_index": 427, "stop_id": "N09", "name": "Avenue U", "routes": "N W"}, "geometry": {"type": "Point", "coordinates": [-73.979137, 40.597473]}}, {"type": "Feature", "properties": {"station_index": 428, "stop_id": "N10", "name": "86 St", "routes": "N W"}, "geometry": {"type": "Point", "coordinates": [-73.97823, 40.592721]}}, {"type": "Feature", "properties": {"station_index": 429, "stop_id": "Q01", "name": "Canal St", "routes": "N Q"}, "geometry": {"type": "Point", "coordinates": [-74.00046, 40.718383]}}, {"type": "Feature", "properties": {"station_index": 430, "stop_id": "Q03", "name": "72 St", "routes": "N Q R"}, "geometry": {"type": "Point", "coordinates": [-73.958424, 40.768799]}}, {"type": "Feature", "properties": {"station_index": 431, "stop_id": "Q04", "name": "86 St", "routes": "N Q R"}, "geometry": {"type": "Point", "coordinates": [-73.951787, 40.777891]}}, {"type": "Feature", "properties": {"station_index": 432, "stop_id": "Q05", "name": "96 St", "routes": "N Q R"}, "geometry": {"type": "Point", "coordinates": [-73.947152, 40.784318]}}, {"type": "Feature", "properties": {"station_index": 433, "stop_id": "R01", "name": "Astoria-Ditmars Blvd", "routes": "N W"}, "geometry": {"type": "Point", "coordinates": [-73.912034, 40.775036]}}, {"type": "Feature", "properties": {"station_index": 434, "stop_id": "R03", "name": "Astoria Blvd", "routes": "N W"}, "geometry": {"type": "Point", "coordinates": [-73.917843, 40.770258]}}, {"type": "Feature", "properties": {"station_index": 435, "stop_id": "R04", "name": "30 Av", "routes": "N W"}, "geometry": {"type": "Point", "coordinates": [-73.921479, 40.766779]}}, {"type": "Feature", "properties": {"station_index": 436, "stop_id": "R05", "name": "Broadway", "routes": "N W"}, "geometry": {"type": "Point", "coordinates": [-73.925508, 40.76182]}}, {"type": "Feature", "properties": {"station_index": 437, "stop_id": "R06", "name": "36 Av", "routes": "N W"}, "geometry": {"type": "Point", "coordinates": [-73.929575, 40.756804]}}, {"type": "Feature", "properties": {"station_index": 438, "stop_id": "R08", "name": "39 Av-Dutch Kills", "routes": "N W"}, "geometry": {"type": "Point", "coordinates": [-73.932755, 40.752882]}}, {"type": "Feature", "properties": {"station_index": 439, "stop_id": "R09", "name": "Queensboro Plaza", "routes": "N W"}, "geometry": {"type": "Point", "coordinates": [-73.940202, 40.750582]}}, {"type": "Feature", "properties": {"station_index": 440, "stop_id": "R11", "name": "Lexington Av/59 St", "routes": "N R W"}, "geometry": {"type": "Point", "coordinates": [-73.967258, 40.76266]}}, {"type": "Feature", "properties": {"station_index": 441, "stop_id": "R13", "name": "5 Av/59 St", "routes": "N R W"}, "geometry": {"type": "Point", "coordinates": [-73.973347, 40.764811]}}, {"type": "Feature", "properties": {"station_index": 442, "stop_id": "R14", "name": "57 St-7 Av", "routes": "N Q R W"}, "geometry": {"type": "Point", "coordinates": [-73.980658, 40.764664]}}, {"type": "Feature", "properties": {"station_index": 443, "stop_id": "R15", "name": "49 St", "routes": "N Q R W"}, "geometry": {"type": "Point", "coordinates": [-73.984139, 40.759901]}}, {"type": "Feature", "properties": {"station_index": 444, "stop_id": "R16", "name": "Times Sq-42 St", "routes": "N Q R W"}, "geometry": {"type": "Point", "coordinates": [-73.986754, 40.754672]}}, {"type": "Feature", "properties": {"station_index": 445, "stop_id": "R17", "name": "34 St-Herald Sq", "routes": "N Q R W"}, "geometry": {"type": "Point", "coordinates": [-73.98795, 40.749567]}}, {"type": "Feature", "properties": {"station_index": 446, "stop_id": "R18", "name": "28 St", "routes": "N Q R W"}, "geometry": {"type": "Point", "coordinates": [-73.988691, 40.745494]}}, {"type": "Feature", "properties": {"station_index": 447, "stop_id": "R19", "name": "23 St", "routes": "N Q R W"}, "geometry": {"type": "Point", "coordinates": [-73.989344, 40.741303]}}, {"type": "Feature", "properties": {"station_index": 448, "stop_id": "R20", "name": "14 St-Union Sq", "routes": "N Q R W"}, "geometry": {"type": "Point", "coordinates": [-73.990568, 40.735736]}}, {"type": "Feature", "properties": {"station_index": 449, "stop_id": "R21", "name": "8 St-NYU", "routes": "N Q R W"}, "geometry": {"type": "Point", "coordinates": [-73.992629, 40.730328]}}, {"type": "Feature", "properties": {"station_index": 450, "stop_id": "R22", "name": "Prince St", "routes": "N Q R W"}, "geometry": {"type": "Point", "coordinates": [-73.997702, 40.724329]}}, {"type": "Feature", "properties": {"station_index": 451, "stop_id": "R23", "name": "Canal St", "routes": "N R W"}, "geometry": {"type": "Point", "coordinates": [-74.001775, 40.719527]}}, {"type": "Feature", "properties": {"station_index": 452, "stop_id": "R24", "name": "City Hall", "routes": "N R W"}, "geometry": {"type": "Point", "coordinates": [-74.006978, 40.713282]}}, {"type": "Feature", "properties": {"station_index": 453, "stop_id": "R25", "name": "Cortlandt St", "routes": "N R W"}, "geometry": {"type": "Point", "coordinates": [-74.011029, 40.710668]}}, {"type": "Feature", "properties": {"station_index": 454, "stop_id": "R26", "name": "Rector St", "routes": "N R W"}, "geometry": {"type": "Point", "coordinates": [-74.013342, 40.70722]}}, {"type": "Feature", "properties": {"station_index": 455, "stop_id": "R27", "name": "Whitehall St-South Ferry", "routes": "N R W"}, "geometry": {"type": "Point", "coordinates": [-74.012994, 40.703087]}}, {"type": "Feature", "properties": {"station_index": 456, "stop_id": "R28", "name": "Court St", "routes": "N R W"}, "geometry": {"type": "Point", "coordinates": [-73.991777, 40.6941]}}, {"type": "Feature", "properties": {"station_index": 457, "stop_id": "R29", "name": "Jay St-MetroTech", "routes": "N R W"}, "geometry": {"type": "Point", "coordinates": [-73.985942, 40.69218]}}, {"type": "Feature", "properties": {"station_index": 458, "stop_id": "R30", "name": "DeKalb Av", "routes": "B D N Q R W"}, "geometry": {"type": "Point", "coordinates": [-73.981824, 40.690635]}}, {"type": "Feature", "properties": {"station_index": 459, "stop_id": "R31", "name": "Atlantic Av-Barclays Ctr", "routes": "D N R W"}, "geometry": {"type": "Point", "coordinates": [-73.97881, 40.683666]}}, {"type": "Feature", "properties": {"station_index": 460, "stop_id": "R32", "name": "Union St", "routes": "D N R W"}, "geometry": {"type": "Point", "coordinates": [-73.98311, 40.677316]}}, {"type": "Feature", "properties": {"station_index": 461, "stop_id": "R33", "name": "4 Av-9 St", "routes": "D N R W"}, "geometry": {"type": "Point", "coordinates": [-73.988302, 40.670847]}}, {"type": "Feature", "properties": {"station_index": 462, "stop_id": "R34", "name": "Prospect Av", "routes": "D N R W"}, "geometry": {"type": "Point", "coordinates": [-73.992872, 40.665414]}}, {"type": "Feature", "properties": {"station_index": 463, "stop_id": "R35", "name": "25 St", "routes": "D N R W"}, "geometry": {"type": "Point", "coordinates": [-73.998091, 40.660397]}}, {"type": "Feature", "properties": {"station_index": 464, "stop_id": "R36", "name": "36 St", "routes": "D N R W"}, "geometry": {"type": "Point", "coordinates": [-74.003549, 40.655144]}}, {"type": "Feature", "properties": {"station_index": 465, "stop_id": "R39", "name": "45 St", "routes": "N R W"}, "geometry": {"type": "Point", "coordinates": [-74.010006, 40.648939]}}, {"type": "Feature", "properties": {"station_index": 466, "stop_id": "R40", "name": "53 St", "routes": "N R W"}, "geometry": {"type": "Point", "coordinates": [-74.014034, 40.645069]}}, {"type": "Feature", "properties": {"station_index": 467, "stop_id": "R41", "name": "59 St", "routes": "N R W"}, "geometry": {"type": "Point", "coordinates": [-74.017881, 40.641362]}}, {"type": "Feature", "properties": {"station_index": 468, "stop_id": "R42", "name": "Bay Ridge Av", "routes": "R"}, "geometry": {"type": "Point", "coordinates": [-74.023377, 40.634967]}}, {"type": "Feature", "properties": {"station_index": 469, "stop_id": "R43", "name": "77 St", "routes": "R"}, "geometry": {"type": "Point", "coordinates": [-74.02551, 40.629742]}}, {"type": "Feature", "properties": {"station_index": 470, "stop_id": "R44", "name": "86 St", "routes": "R"}, "geometry": {"type": "Point", "coordinates": [-74.028398, 40.622687]}}, {"type": "Feature", "properties": {"station_index": 471, "stop_id": "R45", "name": "Bay Ridge-95 St", "routes": "R"}, "geometry": {"type": "Point", "coordinates": [-74.030876, 40.616622]}}, {"type": "Feature", "properties": {"station_index": 472, "stop_id": "S01", "name": "Franklin Av", "routes": "FS"}, "geometry": {"type": "Point", "coordinates": [-73.955827, 40.680596]}}, {"type": "Feature", "properties": {"station_index": 473, "stop_id": "S03", "name": "Park Pl", "routes": "FS"}, "geometry": {"type": "Point", "coordinates": [-73.957624, 40.674772]}}, {"type": "Feature", "properties": {"station_index": 474, "stop_id": "S04", "name": "Botanic Garden", "routes": "FS"}, "geometry": {"type": "Point", "coordinates": [-73.959245, 40.670343]}}, {"type": "Feature", "properties": {"station_index": 475, "stop_id": "S09", "name": "Tottenville", "routes": "SI"}, "geometry": {"type": "Point", "coordinates": [-74.251961, 40.512764]}}, {"type": "Feature", "properties": {"station_index": 476, "stop_id": "S11", "name": "Arthur Kill", "routes": "SI"}, "geometry": {"type": "Point", "coordinates": [-74.242096, 40.516578]}}, {"type": "Feature", "properties": {"station_index": 477, "stop_id": "S13", "name": "Richmond Valley", "routes": "SI"}, "geometry": {"type": "Point", "coordinates": [-74.229141, 40.519631]}}, {"type": "Feature", "properties": {"station_index": 478, "stop_id": "S14", "name": "Pleasant Plains", "routes": "SI"}, "geometry": {"type": "Point", "coordinates": [-74.217847, 40.52241]}}, {"type": "Feature", "properties": {"station_index": 479, "stop_id": "S15", "name": "Prince's Bay", "routes": "SI"}, "geometry": {"type": "Point", "coordinates": [-74.200064, 40.525507]}}, {"type": "Feature", "properties": {"station_index": 480, "stop_id": "S16", "name": "Huguenot", "routes": "SI"}, "geometry": {"type": "Point", "coordinates": [-74.191794, 40.533674]}}, {"type": "Feature", "properties": {"station_index": 481, "stop_id": "S17", "name": "Annadale", "routes": "SI"}, "geometry": {"type": "Point", "coordinates": [-74.178217, 40.54046]}}, {"type": "Feature", "properties": {"station_index": 482, "stop_id": "S18", "name": "Eltingville", "routes": "SI"}, "geometry": {"type": "Point", "coordinates": [-74.16457, 40.544601]}}, {"type": "Feature", "properties": {"station_index": 483, "stop_id": "S19", "name": "Great Kills", "routes": "SI"}, "geometry": {"type": "Point", "coordinates": [-74.151399, 40.551231]}}, {"type": "Feature", "properties": {"station_index": 484, "stop_id": "S20", "name": "Bay Terrace", "routes": "SI"}, "geometry": {"type": "Point", "coordinates": [-74.136907, 40.5564]}}, {"type": "Feature", "properties": {"station_index": 485, "stop_id": "S21", "name": "Oakwood Heights", "routes": "SI"}, "geometry": {"type": "Point", "coordinates": [-74.12632, 40.56511]}}, {"type": "Feature", "properties": {"station_index": 486, "stop_id": "S22", "name": "New Dorp", "routes": "SI"}, "geometry": {"type": "Point", "coordinates": [-74.11721, 40.57348]}}, {"type": "Feature", "properties": {"station_index": 487, "stop_id": "S23", "name": "Grant City", "routes": "SI"}, "geometry": {"type": "Point", "coordinates": [-74.109704, 40.578965]}}, {"type": "Feature", "properties": {"station_index": 488, "stop_id": "S24", "name": "Jefferson Av", "routes": "SI"}, "geometry": {"type": "Point", "coordinates": [-74.103338, 40.583591]}}, {"type": "Feature", "properties": {"station_index": 489, "stop_id": "S25", "name": "Dongan Hills", "routes": "SI"}, "geometry": {"type": "Point", "coordinates": [-74.09609, 40.588849]}}, {"type": "Feature", "properties": {"station_index": 490, "stop_id": "S26", "name": "Old Town", "routes": "SI"}, "geometry": {"type": "Point", "coordinates": [-74.087368, 40.596612]}}, {"type": "Feature", "properties": {"station_index": 491, "stop_id": "S27", "name": "Grasmere", "routes": "SI"}, "geometry": {"type": "Point", "coordinates": [-74.084087, 40.603117]}}, {"type": "Feature", "properties": {"station_index": 492, "stop_id": "S28", "name": "Clifton", "routes": "SI"}, "geometry": {"type": "Point", "coordinates": [-74.071402, 40.621319]}}, {"type": "Feature", "properties": {"station_index": 493, "stop_id": "S29", "name": "Stapleton", "routes": "SI"}, "geometry": {"type": "Point", "coordinates": [-74.075162, 40.627915]}}, {"type": "Feature", "properties": {"station_index": 494, "stop_id": "S30", "name": "Tompkinsville", "routes": "SI"}, "geometry": {"type": "Point", "coordinates": [-74.074835, 40.636949]}}, {"type": "Feature", "properties": {"station_index": 495, "stop_id": "S31", "name": "St George", "routes": "SI"}, "geometry": {"type": "Point", "coordinates": [-74.073643, 40.643748]}}]}