{
"type": "FeatureCollection",
"name": "network_distance_results",
"crs": { "type": "name", "properties": { "name": "urn:ogc:def:crs:OGC:1.3:CRS84" } },
"features": [
{ "type": "Feature", "properties": { "place_name": "Butler Library", "place_type": "university_library", "neighborhood": "Morningside Heights", "euclidean_m": 121.03150211201357, "network_m": 170.77606977355265, "extra_distance_m": 49.744567661539079, "detour_factor": 1.4110051250582756, "euclidean_rank": 1, "network_rank": 1, "rank_change": 0 }, "geometry": { "type": "Point", "coordinates": [ -73.96324, 40.80657 ] } },
{ "type": "Feature", "properties": { "place_name": "Morningside Heights Library", "place_type": "public_library", "neighborhood": "Morningside Heights", "euclidean_m": 263.33892357247055, "network_m": 427.02793913079057, "extra_distance_m": 163.68901555832002, "detour_factor": 1.6215906609539741, "euclidean_rank": 2, "network_rank": 2, "rank_change": 0 }, "geometry": { "type": "Point", "coordinates": [ -73.96479, 40.80587 ] } },
{ "type": "Feature", "properties": { "place_name": "Sakura Park", "place_type": "park", "neighborhood": "Morningside Heights", "euclidean_m": 553.55913537822323, "network_m": 780.22538650316085, "extra_distance_m": 226.66625112493762, "detour_factor": 1.4094707080754187, "euclidean_rank": 3, "network_rank": 3, "rank_change": 0 }, "geometry": { "type": "Point", "coordinates": [ -73.96203, 40.8125 ] } },
{ "type": "Feature", "properties": { "place_name": "Riverside Park Overlook at 116th Street", "place_type": "park", "neighborhood": "Morningside Heights", "euclidean_m": 683.26762747963323, "network_m": 797.49276952786829, "extra_distance_m": 114.22514204823506, "detour_factor": 1.1671748191401616, "euclidean_rank": 5, "network_rank": 4, "rank_change": -1 }, "geometry": { "type": "Point", "coordinates": [ -73.97014, 40.8097 ] } },
{ "type": "Feature", "properties": { "place_name": "West Harlem Piers Park", "place_type": "waterfront_park", "neighborhood": "West Harlem", "euclidean_m": 1199.6341605999639, "network_m": 1453.0430829972674, "extra_distance_m": 253.40892239730351, "detour_factor": 1.2112385014699549, "euclidean_rank": 6, "network_rank": 6, "rank_change": 0 }, "geometry": { "type": "Point", "coordinates": [ -73.96077, 40.81825 ] } },
{ "type": "Feature", "properties": { "place_name": "Morningside Park", "place_type": "park", "neighborhood": "Harlem", "euclidean_m": 622.01293559379292, "network_m": 933.36983188132308, "extra_distance_m": 311.35689628753016, "detour_factor": 1.5005633781398762, "euclidean_rank": 4, "network_rank": 5, "rank_change": 1 }, "geometry": { "type": "Point", "coordinates": [ -73.95523, 40.80692 ] } },
{ "type": "Feature", "properties": { "place_name": "The Metropolitan Museum of Art", "place_type": "museum", "neighborhood": "Upper East Side", "euclidean_m": 3118.9660825995111, "network_m": 4026.0241247266767, "extra_distance_m": 907.05804212716566, "detour_factor": 1.2908201045171916, "euclidean_rank": 9, "network_rank": 9, "rank_change": 0 }, "geometry": { "type": "Point", "coordinates": [ -73.96324, 40.77944 ] } },
{ "type": "Feature", "properties": { "place_name": "Cooper Hewitt Garden", "place_type": "museum_garden", "neighborhood": "Carnegie Hill", "euclidean_m": 2600.1757613476848, "network_m": 3329.2686075832853, "extra_distance_m": 729.09284623560052, "detour_factor": 1.2804013701972623, "euclidean_rank": 8, "network_rank": 8, "rank_change": 0 }, "geometry": { "type": "Point", "coordinates": [ -73.95788, 40.78438 ] } },
{ "type": "Feature", "properties": { "place_name": "Museum of the City of New York", "place_type": "museum", "neighborhood": "East Harlem", "euclidean_m": 1896.4720393155378, "network_m": 2389.6431018963603, "extra_distance_m": 493.17106258082254, "detour_factor": 1.2600465772006924, "euclidean_rank": 7, "network_rank": 7, "rank_change": 0 }, "geometry": { "type": "Point", "coordinates": [ -73.9519, 40.79249 ] } }
]
}
