{
"type": "FeatureCollection",
"name": "shortest_routes",
"crs": { "type": "name", "properties": { "name": "urn:ogc:def:crs:OGC:1.3:CRS84" } },
"features": [
{ "type": "Feature", "properties": { "place_name": "Butler Library", "network_m": 170.77606977355265, "network_km": 0.17077606977355264 }, "geometry": { "type": "MultiLineString", "coordinates": [ [ [ -73.9623663, 40.8075087 ], [ -73.9624361, 40.8074124 ], [ -73.962502, 40.8073187 ] ], [ [ -73.962502, 40.8073187 ], [ -73.9623814, 40.8072684 ] ], [ [ -73.9623814, 40.8072684 ], [ -73.9624032, 40.8072402 ], [ -73.9624252, 40.8072088 ], [ -73.9624364, 40.8071928 ] ], [ [ -73.9624364, 40.8071928 ], [ -73.9624922, 40.8072165 ] ], [ [ -73.9624922, 40.8072165 ], [ -73.9628707, 40.8067087 ], [ -73.9628783, 40.8066984 ], [ -73.9628926, 40.8066909 ], [ -73.9629748, 40.8066729 ] ], [ [ -73.9629748, 40.8066729 ], [ -73.9629914, 40.8066506 ], [ -73.9630095, 40.8066256 ], [ -73.9630243, 40.8066051 ] ], [ [ -73.9630243, 40.8066051 ], [ -73.9630476, 40.8065728 ] ] ] } },
{ "type": "Feature", "properties": { "place_name": "Morningside Heights Library", "network_m": 427.02793913079057, "network_km": 0.42702793913079057 }, "geometry": { "type": "MultiLineString", "coordinates": [ [ [ -73.9623663, 40.8075087 ], [ -73.9624361, 40.8074124 ], [ -73.962502, 40.8073187 ] ], [ [ -73.962502, 40.8073187 ], [ -73.9626402, 40.8073762 ] ], [ [ -73.9626402, 40.8073762 ], [ -73.9629631, 40.8075108 ] ], [ [ -73.9629631, 40.8075108 ], [ -73.9629822, 40.8074839 ], [ -73.9629968, 40.807463 ], [ -73.9630189, 40.8074363 ] ], [ [ -73.9630189, 40.8074363 ], [ -73.963046, 40.8074069 ], [ -73.9630617, 40.8073924 ], [ -73.9630911, 40.8073683 ] ], [ [ -73.9630911, 40.8073683 ], [ -73.9631205, 40.8073449 ], [ -73.9631347, 40.8073324 ], [ -73.9631524, 40.8073126 ] ], [ [ -73.9631524, 40.8073126 ], [ -73.9634726, 40.8074451 ] ], [ [ -73.9634726, 40.8074451 ], [ -73.9636097, 40.8075028 ] ], [ [ -73.9636097, 40.8075028 ], [ -73.9636483, 40.8074529 ], [ -73.9639015, 40.8071259 ] ], [ [ -73.9639015, 40.8071259 ], [ -73.964004, 40.8071482 ], [ -73.9641652, 40.8072143 ], [ -73.9642056, 40.8072307 ] ], [ [ -73.9642056, 40.8072307 ], [ -73.9642157, 40.8072177 ], [ -73.9642283, 40.8072013 ] ], [ [ -73.9642283, 40.8072013 ], [ -73.9646109, 40.8066919 ] ], [ [ -73.9646109, 40.8066919 ], [ -73.9646226, 40.8066764 ], [ -73.9646572, 40.8066309 ], [ -73.9646857, 40.8065937 ], [ -73.9646947, 40.806582 ] ], [ [ -73.9646947, 40.806582 ], [ -73.9646958, 40.8065805 ], [ -73.9647147, 40.8065539 ], [ -73.9650635, 40.806065 ] ], [ [ -73.9650635, 40.806065 ], [ -73.9650772, 40.8060458 ], [ -73.9651134, 40.8059971 ], [ -73.9651372, 40.8059616 ], [ -73.9651456, 40.8059499 ] ] ] } },
{ "type": "Feature", "properties": { "place_name": "Sakura Park", "network_m": 780.22538650316085, "network_km": 0.78022538650316087 }, "geometry": { "type": "MultiLineString", "coordinates": [ [ [ -73.9623663, 40.8075087 ], [ -73.962308, 40.8075899 ] ], [ [ -73.962308, 40.8075899 ], [ -73.9622458, 40.8076717 ] ], [ [ -73.9622458, 40.8076717 ], [ -73.9621933, 40.8077429 ], [ -73.9621703, 40.8077746 ], [ -73.9621333, 40.8078256 ], [ -73.962116, 40.8078495 ], [ -73.9621037, 40.8078665 ] ], [ [ -73.9621037, 40.8078665 ], [ -73.9623028, 40.8079476 ], [ -73.9623541, 40.8079689 ] ], [ [ -73.9623541, 40.8079689 ], [ -73.9622321, 40.8081368 ] ], [ [ -73.9622321, 40.8081368 ], [ -73.9624027, 40.8082127 ] ], [ [ -73.9624027, 40.8082127 ], [ -73.96235, 40.8082856 ] ], [ [ -73.96235, 40.8082856 ], [ -73.9625157, 40.8083599 ] ], [ [ -73.9625157, 40.8083599 ], [ -73.9628185, 40.8084903 ] ], [ [ -73.9628185, 40.8084903 ], [ -73.9629342, 40.8085402 ], [ -73.9629474, 40.8086034 ], [ -73.9628968, 40.8086784 ] ], [ [ -73.9628968, 40.8086784 ], [ -73.9630488, 40.8087435 ], [ -73.9630855, 40.8087608 ] ], [ [ -73.9630855, 40.8087608 ], [ -73.9627876, 40.8091752 ] ], [ [ -73.9627876, 40.8091752 ], [ -73.9627042, 40.8092913 ] ], [ [ -73.9627042, 40.8092913 ], [ -73.9623248, 40.809819 ] ], [ [ -73.9623248, 40.809819 ], [ -73.9622472, 40.8099269 ] ], [ [ -73.9622472, 40.8099269 ], [ -73.9619344, 40.8103621 ] ], [ [ -73.9619344, 40.8103621 ], [ -73.961913, 40.8103927 ], [ -73.9618636, 40.8104569 ], [ -73.9618061, 40.8105322 ], [ -73.9617919, 40.8105546 ] ], [ [ -73.9617919, 40.8105546 ], [ -73.9614202, 40.8110735 ] ], [ [ -73.9614202, 40.8110735 ], [ -73.9614045, 40.8110947 ], [ -73.9613804, 40.8111279 ], [ -73.9613531, 40.8111673 ], [ -73.9613396, 40.8111856 ] ], [ [ -73.9613396, 40.8111856 ], [ -73.9613673, 40.8111969 ], [ -73.961444, 40.8112311 ], [ -73.9614975, 40.8112546 ], [ -73.9615623, 40.8112827 ], [ -73.9616351, 40.8113137 ], [ -73.9616989, 40.8113405 ], [ -73.9617293, 40.811353 ] ], [ [ -73.9617293, 40.811353 ], [ -73.9613678, 40.8118483 ] ], [ [ -73.9613678, 40.8118483 ], [ -73.9620713, 40.8121514 ] ], [ [ -73.9620713, 40.8121514 ], [ -73.9620986, 40.8121628 ], [ -73.9621543, 40.8121858 ], [ -73.96223, 40.8122169 ], [ -73.9622528, 40.8122266 ] ], [ [ -73.9622528, 40.8122266 ], [ -73.9622367, 40.8122493 ], [ -73.9622006, 40.8122989 ], [ -73.9621622, 40.812352 ], [ -73.9621489, 40.8123705 ] ], [ [ -73.9621489, 40.8123705 ], [ -73.9621864, 40.8123861 ], [ -73.9622873, 40.8124281 ] ], [ [ -73.9622873, 40.8124281 ], [ -73.9622676, 40.8124537 ], [ -73.9622563, 40.8124909 ], [ -73.9622315, 40.8125258 ], [ -73.962219, 40.8125431 ] ] ] } },
{ "type": "Feature", "properties": { "place_name": "Riverside Park Overlook at 116th Street", "network_m": 797.49276952786829, "network_km": 0.79749276952786829 }, "geometry": { "type": "MultiLineString", "coordinates": [ [ [ -73.9623663, 40.8075087 ], [ -73.9627923, 40.8076884 ] ], [ [ -73.9627923, 40.8076884 ], [ -73.9628279, 40.8077039 ] ], [ [ -73.9628279, 40.8077039 ], [ -73.9629013, 40.8077335 ], [ -73.9635443, 40.8079927 ] ], [ [ -73.9635443, 40.8079927 ], [ -73.9635879, 40.8080103 ], [ -73.9636275, 40.8080263 ] ], [ [ -73.9636275, 40.8080263 ], [ -73.9636717, 40.808048 ], [ -73.9637334, 40.8080808 ], [ -73.963786, 40.8081099 ], [ -73.9638584, 40.8081401 ], [ -73.9639191, 40.8081592 ], [ -73.9639948, 40.8081851 ], [ -73.9640288, 40.8081998 ] ], [ [ -73.9640288, 40.8081998 ], [ -73.9647305, 40.8085022 ] ], [ [ -73.9647305, 40.8085022 ], [ -73.9647575, 40.8085145 ], [ -73.9648117, 40.8085359 ], [ -73.9648862, 40.8085663 ], [ -73.9649066, 40.8085742 ] ], [ [ -73.9649066, 40.8085742 ], [ -73.9651157, 40.8086554 ], [ -73.9651606, 40.8086764 ], [ -73.9652305, 40.8087113 ], [ -73.9652961, 40.8087392 ] ], [ [ -73.9652961, 40.8087392 ], [ -73.965626, 40.8088738 ] ], [ [ -73.965626, 40.8088738 ], [ -73.9656655, 40.8088906 ], [ -73.965723, 40.8089139 ], [ -73.9658117, 40.8089504 ], [ -73.9658713, 40.8089754 ], [ -73.9658947, 40.8089846 ] ], [ [ -73.9658947, 40.8089846 ], [ -73.9660316, 40.8090455 ] ], [ [ -73.9660316, 40.8090455 ], [ -73.9661161, 40.8090793 ], [ -73.966136, 40.8090911 ], [ -73.9661592, 40.8091052 ] ], [ [ -73.9661592, 40.8091052 ], [ -73.9661268, 40.8091381 ], [ -73.9660927, 40.8092012 ], [ -73.9660802, 40.8092379 ], [ -73.9660723, 40.8092841 ], [ -73.9660708, 40.809367 ], [ -73.9660848, 40.80941 ] ], [ [ -73.9660848, 40.80941 ], [ -73.966113, 40.8094486 ], [ -73.9661353, 40.8094646 ], [ -73.9661913, 40.8094794 ], [ -73.9662561, 40.8094906 ], [ -73.9663257, 40.8094921 ], [ -73.9664101, 40.8094818 ], [ -73.9664633, 40.8094699 ], [ -73.9665556, 40.8094321 ], [ -73.9667088, 40.8093539 ], [ -73.9668814, 40.8092573 ] ], [ [ -73.9668814, 40.8092573 ], [ -73.9669798, 40.8091537 ], [ -73.9671176, 40.8090383 ] ], [ [ -73.9671176, 40.8090383 ], [ -73.967278, 40.8089908 ], [ -73.9674499, 40.808965 ] ], [ [ -73.9674499, 40.808965 ], [ -73.9675052, 40.8089821 ], [ -73.9676539, 40.8090386 ] ] ] } },
{ "type": "Feature", "properties": { "place_name": "West Harlem Piers Park", "network_m": 1453.0430829972674, "network_km": 1.4530430829972674 }, "geometry": { "type": "MultiLineString", "coordinates": [ [ [ -73.9623663, 40.8075087 ], [ -73.962308, 40.8075899 ] ], [ [ -73.962308, 40.8075899 ], [ -73.9622458, 40.8076717 ] ], [ [ -73.9622458, 40.8076717 ], [ -73.9621933, 40.8077429 ], [ -73.9621703, 40.8077746 ], [ -73.9621333, 40.8078256 ], [ -73.962116, 40.8078495 ], [ -73.9621037, 40.8078665 ] ], [ [ -73.9621037, 40.8078665 ], [ -73.9623028, 40.8079476 ], [ -73.9623541, 40.8079689 ] ], [ [ -73.9623541, 40.8079689 ], [ -73.9622321, 40.8081368 ] ], [ [ -73.9622321, 40.8081368 ], [ -73.9624027, 40.8082127 ] ], [ [ -73.9624027, 40.8082127 ], [ -73.96235, 40.8082856 ] ], [ [ -73.96235, 40.8082856 ], [ -73.9625157, 40.8083599 ] ], [ [ -73.9625157, 40.8083599 ], [ -73.9628185, 40.8084903 ] ], [ [ -73.9628185, 40.8084903 ], [ -73.9629342, 40.8085402 ], [ -73.9629474, 40.8086034 ], [ -73.9628968, 40.8086784 ] ], [ [ -73.9628968, 40.8086784 ], [ -73.9630488, 40.8087435 ], [ -73.9630855, 40.8087608 ] ], [ [ -73.9630855, 40.8087608 ], [ -73.9627876, 40.8091752 ] ], [ [ -73.9627876, 40.8091752 ], [ -73.9627042, 40.8092913 ] ], [ [ -73.9627042, 40.8092913 ], [ -73.9623248, 40.809819 ] ], [ [ -73.9623248, 40.809819 ], [ -73.9622472, 40.8099269 ] ], [ [ -73.9622472, 40.8099269 ], [ -73.9619344, 40.8103621 ] ], [ [ -73.9619344, 40.8103621 ], [ -73.961913, 40.8103927 ], [ -73.9618636, 40.8104569 ], [ -73.9618061, 40.8105322 ], [ -73.9617919, 40.8105546 ] ], [ [ -73.9617919, 40.8105546 ], [ -73.9614202, 40.8110735 ] ], [ [ -73.9614202, 40.8110735 ], [ -73.9614045, 40.8110947 ], [ -73.9613804, 40.8111279 ], [ -73.9613531, 40.8111673 ], [ -73.9613396, 40.8111856 ] ], [ [ -73.9613396, 40.8111856 ], [ -73.9609719, 40.8116842 ] ], [ [ -73.9609719, 40.8116842 ], [ -73.9609512, 40.8117084 ], [ -73.9609182, 40.8117536 ], [ -73.9608791, 40.8118046 ], [ -73.9608631, 40.8118261 ] ], [ [ -73.9608631, 40.8118261 ], [ -73.9604905, 40.8123219 ] ], [ [ -73.9604905, 40.8123219 ], [ -73.9604765, 40.8123419 ], [ -73.9604505, 40.8123747 ], [ -73.9604119, 40.8124256 ], [ -73.9604012, 40.8124397 ] ], [ [ -73.9604012, 40.8124397 ], [ -73.9595369, 40.8136253 ] ], [ [ -73.9595369, 40.8136253 ], [ -73.9595243, 40.8136401 ], [ -73.9594767, 40.8137096 ], [ -73.9594277, 40.8137811 ], [ -73.9594155, 40.813799 ] ], [ [ -73.9594155, 40.813799 ], [ -73.9591857, 40.8141129 ] ], [ [ -73.9591857, 40.8141129 ], [ -73.9589622, 40.8144184 ] ], [ [ -73.9589622, 40.8144184 ], [ -73.9588165, 40.8146175 ] ], [ [ -73.9588165, 40.8146175 ], [ -73.9586806, 40.8147894 ] ], [ [ -73.9586806, 40.8147894 ], [ -73.9585822, 40.8149376 ] ], [ [ -73.9585822, 40.8149376 ], [ -73.9585221, 40.8150196 ] ], [ [ -73.9585221, 40.8150196 ], [ -73.9585016, 40.8150477 ] ], [ [ -73.9585016, 40.8150477 ], [ -73.9584893, 40.8150645 ], [ -73.9582359, 40.8154107 ] ], [ [ -73.9582359, 40.8154107 ], [ -73.9582477, 40.815424 ], [ -73.9582954, 40.8154778 ], [ -73.958432, 40.815632 ] ], [ [ -73.958432, 40.815632 ], [ -73.958479, 40.815685 ] ], [ [ -73.958479, 40.815685 ], [ -73.9585256, 40.8157376 ] ], [ [ -73.9585256, 40.8157376 ], [ -73.9585567, 40.8157711 ], [ -73.9596031, 40.8169914 ] ], [ [ -73.9596031, 40.8169914 ], [ -73.9596938, 40.8170295 ] ], [ [ -73.9596938, 40.8170295 ], [ -73.9596938, 40.8170684 ], [ -73.9597547, 40.8171381 ] ], [ [ -73.9597547, 40.8171381 ], [ -73.9598133, 40.8172062 ], [ -73.9598434, 40.8172373 ], [ -73.9599231, 40.8172696 ] ], [ [ -73.9599231, 40.8172696 ], [ -73.9603397, 40.8177546 ] ], [ [ -73.9603397, 40.8177546 ], [ -73.9604648, 40.8178841 ] ], [ [ -73.9604648, 40.8178841 ], [ -73.9605338, 40.8179556 ] ], [ [ -73.9605338, 40.8179556 ], [ -73.9605795, 40.8180128 ], [ -73.9605997, 40.8180402 ] ], [ [ -73.9605997, 40.8180402 ], [ -73.9606313, 40.8180833 ] ], [ [ -73.9606313, 40.8180833 ], [ -73.9606422, 40.8180981 ] ] ] } },
{ "type": "Feature", "properties": { "place_name": "Morningside Park", "network_m": 933.36983188132308, "network_km": 0.93336983188132305 }, "geometry": { "type": "MultiLineString", "coordinates": [ [ [ -73.9623663, 40.8075087 ], [ -73.9619458, 40.8073263 ] ], [ [ -73.9619458, 40.8073263 ], [ -73.9619089, 40.8073103 ] ], [ [ -73.9619089, 40.8073103 ], [ -73.9618444, 40.8072826 ], [ -73.9611833, 40.8070001 ] ], [ [ -73.9611833, 40.8070001 ], [ -73.9611432, 40.806983 ], [ -73.961105, 40.8069672 ] ], [ [ -73.961105, 40.8069672 ], [ -73.9610864, 40.8069592 ], [ -73.9610647, 40.8069499 ], [ -73.9609926, 40.8069192 ], [ -73.9608955, 40.8068778 ], [ -73.9608576, 40.8068614 ] ], [ [ -73.9608576, 40.8068614 ], [ -73.9601995, 40.8065765 ], [ -73.9601562, 40.8065578 ] ], [ [ -73.9601562, 40.8065578 ], [ -73.9601006, 40.8065338 ], [ -73.9593977, 40.8062297 ] ], [ [ -73.9593977, 40.8062297 ], [ -73.9593748, 40.8062197 ], [ -73.9593036, 40.8061917 ], [ -73.9592428, 40.8061676 ], [ -73.9592012, 40.8061481 ] ], [ [ -73.9592012, 40.8061481 ], [ -73.9592594, 40.8060677 ] ], [ [ -73.9592594, 40.8060677 ], [ -73.9592327, 40.8060571 ], [ -73.9591598, 40.8060261 ], [ -73.9592049, 40.8059647 ], [ -73.9593806, 40.8057172 ], [ -73.9593856, 40.8056884 ], [ -73.9593088, 40.8056565 ] ], [ [ -73.9593088, 40.8056565 ], [ -73.959289, 40.8056837 ], [ -73.9592196, 40.8057788 ], [ -73.9591877, 40.8057735 ], [ -73.9591111, 40.8057361 ] ], [ [ -73.9591111, 40.8057361 ], [ -73.9589649, 40.8057454 ] ], [ [ -73.9589649, 40.8057454 ], [ -73.9589669, 40.8058513 ], [ -73.9589538, 40.8059283 ], [ -73.9589522, 40.8059831 ], [ -73.9589561, 40.8060097 ], [ -73.9589619, 40.8060158 ] ], [ [ -73.9589619, 40.8060158 ], [ -73.9589269, 40.8060566 ], [ -73.9588592, 40.8061293 ], [ -73.9587085, 40.8061802 ], [ -73.958586, 40.8061914 ] ], [ [ -73.958586, 40.8061914 ], [ -73.958587, 40.806217 ], [ -73.9585846, 40.8062413 ], [ -73.9585763, 40.8062712 ], [ -73.9585649, 40.8063018 ], [ -73.9585338, 40.8063584 ] ], [ [ -73.9585338, 40.8063584 ], [ -73.9584912, 40.8064274 ], [ -73.9584607, 40.8064711 ], [ -73.9584275, 40.8065182 ], [ -73.9582397, 40.8067416 ], [ -73.9581588, 40.8068322 ] ], [ [ -73.9581588, 40.8068322 ], [ -73.9580272, 40.8067694 ], [ -73.9579959, 40.8067565 ], [ -73.957968, 40.806754 ], [ -73.9579258, 40.8067545 ], [ -73.9578985, 40.8067514 ], [ -73.9578512, 40.8067281 ] ], [ [ -73.9578512, 40.8067281 ], [ -73.957779, 40.8068143 ] ], [ [ -73.957779, 40.8068143 ], [ -73.957783, 40.8068167 ], [ -73.9577944, 40.8068248 ], [ -73.9578125, 40.806841 ], [ -73.9578186, 40.8068481 ], [ -73.9578212, 40.8068669 ], [ -73.9578233, 40.8068893 ], [ -73.9578192, 40.8069182 ], [ -73.9578098, 40.8069512 ], [ -73.957785, 40.8069786 ], [ -73.9577535, 40.8069979 ], [ -73.9577247, 40.8070116 ], [ -73.9576831, 40.8070172 ], [ -73.9576462, 40.8070177 ], [ -73.9576409, 40.8070385 ], [ -73.9576322, 40.8070593 ], [ -73.9576114, 40.8070918 ], [ -73.9575903, 40.8071166 ] ], [ [ -73.9575903, 40.8071166 ], [ -73.9574895, 40.8070764 ], [ -73.957408, 40.8070457 ], [ -73.9573714, 40.8070302 ] ], [ [ -73.9573714, 40.8070302 ], [ -73.9573589, 40.8070472 ] ], [ [ -73.9573589, 40.8070472 ], [ -73.9569731, 40.8075702 ] ], [ [ -73.9569731, 40.8075702 ], [ -73.9569044, 40.8076633 ] ], [ [ -73.9569044, 40.8076633 ], [ -73.9568631, 40.807647 ], [ -73.9567574, 40.8076114 ], [ -73.9566619, 40.8075793 ], [ -73.9566381, 40.8075617 ] ], [ [ -73.9566381, 40.8075617 ], [ -73.9554675, 40.8070677 ] ], [ [ -73.9554675, 40.8070677 ], [ -73.9554467, 40.8070589 ], [ -73.9553688, 40.8070253 ], [ -73.9552961, 40.806994 ], [ -73.9552706, 40.8069832 ] ] ] } },
{ "type": "Feature", "properties": { "place_name": "The Metropolitan Museum of Art", "network_m": 4026.0241247266767, "network_km": 4.0260241247266766 }, "geometry": { "type": "MultiLineString", "coordinates": [ [ [ -73.9623663, 40.8075087 ], [ -73.9619458, 40.8073263 ] ], [ [ -73.9619458, 40.8073263 ], [ -73.9619089, 40.8073103 ] ], [ [ -73.9619089, 40.8073103 ], [ -73.9618444, 40.8072826 ], [ -73.9611833, 40.8070001 ] ], [ [ -73.9611833, 40.8070001 ], [ -73.9611432, 40.806983 ], [ -73.961105, 40.8069672 ] ], [ [ -73.961105, 40.8069672 ], [ -73.9610864, 40.8069592 ], [ -73.9610647, 40.8069499 ], [ -73.9609926, 40.8069192 ], [ -73.9608955, 40.8068778 ], [ -73.9608576, 40.8068614 ] ], [ [ -73.9608576, 40.8068614 ], [ -73.9601995, 40.8065765 ], [ -73.9601562, 40.8065578 ] ], [ [ -73.9601562, 40.8065578 ], [ -73.9601006, 40.8065338 ], [ -73.9593977, 40.8062297 ] ], [ [ -73.9593977, 40.8062297 ], [ -73.9593748, 40.8062197 ], [ -73.9593036, 40.8061917 ], [ -73.9592428, 40.8061676 ], [ -73.9592012, 40.8061481 ] ], [ [ -73.9592012, 40.8061481 ], [ -73.9592594, 40.8060677 ] ], [ [ -73.9592594, 40.8060677 ], [ -73.9593132, 40.8059958 ] ], [ [ -73.9593132, 40.8059958 ], [ -73.9596611, 40.8055139 ], [ -73.9596812, 40.8054781 ], [ -73.9596931, 40.8054476 ], [ -73.9596957, 40.80544 ] ], [ [ -73.9596957, 40.80544 ], [ -73.9597109, 40.805395 ], [ -73.9597301, 40.8053351 ], [ -73.9599314, 40.8047473 ] ], [ [ -73.9599314, 40.8047473 ], [ -73.9599652, 40.8046485 ] ], [ [ -73.9599652, 40.8046485 ], [ -73.9599694, 40.8046373 ] ], [ [ -73.9599694, 40.8046373 ], [ -73.9599714, 40.804632 ], [ -73.9601733, 40.8040429 ] ], [ [ -73.9601733, 40.8040429 ], [ -73.9602112, 40.8039324 ] ], [ [ -73.9602112, 40.8039324 ], [ -73.9602272, 40.8038858 ] ], [ [ -73.9602272, 40.8038858 ], [ -73.9603827, 40.8034337 ] ], [ [ -73.9603827, 40.8034337 ], [ -73.9604489, 40.8032367 ] ], [ [ -73.9604489, 40.8032367 ], [ -73.9606983, 40.8025198 ] ], [ [ -73.9606983, 40.8025198 ], [ -73.9608874, 40.8019725 ], [ -73.9609258, 40.8018493 ] ], [ [ -73.9609258, 40.8018493 ], [ -73.9609356, 40.8018104 ], [ -73.9609469, 40.8017305 ], [ -73.9609554, 40.8016439 ], [ -73.9609801, 40.8015988 ] ], [ [ -73.9609801, 40.8015988 ], [ -73.9610031, 40.8015644 ] ], [ [ -73.9610031, 40.8015644 ], [ -73.9598267, 40.8010925 ] ], [ [ -73.9598267, 40.8010925 ], [ -73.9597935, 40.801079 ], [ -73.95973, 40.8010494 ], [ -73.9596643, 40.8010188 ], [ -73.9596342, 40.8010061 ] ], [ [ -73.9596342, 40.8010061 ], [ -73.958682, 40.8006049 ] ], [ [ -73.958682, 40.8006049 ], [ -73.9586731, 40.8005841 ], [ -73.958653, 40.8005006 ], [ -73.95861, 40.8004216 ], [ -73.9585758, 40.8003859 ], [ -73.9585359, 40.8003638 ], [ -73.9585248, 40.8003577 ] ], [ [ -73.9585248, 40.8003577 ], [ -73.9587155, 40.8000936 ] ], [ [ -73.9587155, 40.8000936 ], [ -73.9587296, 40.8000762 ], [ -73.9587597, 40.8000395 ], [ -73.9587838, 40.800006 ], [ -73.9587957, 40.7999895 ] ], [ [ -73.9587957, 40.7999895 ], [ -73.9591714, 40.7994618 ] ], [ [ -73.9591714, 40.7994618 ], [ -73.9591787, 40.7994508 ], [ -73.959208, 40.7994078 ], [ -73.9592388, 40.7993658 ], [ -73.9592486, 40.7993541 ] ], [ [ -73.9592486, 40.7993541 ], [ -73.9592223, 40.7993401 ], [ -73.9591262, 40.7993018 ], [ -73.9590205, 40.7992596 ], [ -73.9589813, 40.7992425 ] ], [ [ -73.9589813, 40.7992425 ], [ -73.9589632, 40.7992307 ], [ -73.9589122, 40.7991957 ], [ -73.9588532, 40.7991388 ], [ -73.9588131, 40.7991083 ] ], [ [ -73.9588131, 40.7991083 ], [ -73.9587655, 40.7990298 ], [ -73.9587328, 40.7989651 ], [ -73.9587182, 40.7989171 ], [ -73.9586878, 40.7988245 ], [ -73.9586732, 40.7987633 ], [ -73.9586636, 40.7987276 ] ], [ [ -73.9586636, 40.7987276 ], [ -73.9586098, 40.7987449 ], [ -73.9585733, 40.7987536 ], [ -73.9585288, 40.7987644 ] ], [ [ -73.9585288, 40.7987644 ], [ -73.9585211, 40.7987201 ], [ -73.9585094, 40.7986744 ], [ -73.9584987, 40.7986461 ], [ -73.9584824, 40.7986067 ], [ -73.9584637, 40.7985718 ], [ -73.95844, 40.7985323 ], [ -73.9584019, 40.7984867 ], [ -73.9583595, 40.7984454 ], [ -73.9583187, 40.7984124 ], [ -73.9582666, 40.7983742 ], [ -73.9582156, 40.7983455 ], [ -73.9581654, 40.798319 ], [ -73.9581064, 40.7982948 ], [ -73.9580483, 40.7982779 ], [ -73.9579848, 40.7982627 ], [ -73.9575617, 40.7981647 ], [ -73.9574902, 40.7981463 ], [ -73.9574403, 40.7981301 ] ], [ [ -73.9574403, 40.7981301 ], [ -73.9574036, 40.7981166 ], [ -73.9573574, 40.7980919 ], [ -73.9573133, 40.7980618 ], [ -73.9572581, 40.7980225 ], [ -73.9572087, 40.7979825 ], [ -73.9571758, 40.7979508 ], [ -73.9571486, 40.7979186 ], [ -73.9571174, 40.7978776 ], [ -73.9570943, 40.7978418 ], [ -73.9570725, 40.797797 ], [ -73.9570563, 40.7977534 ], [ -73.9570406, 40.7977047 ], [ -73.9570319, 40.7976582 ], [ -73.9570289, 40.7976082 ], [ -73.9570321, 40.7975652 ], [ -73.9570487, 40.7974585 ], [ -73.9570524, 40.7974021 ], [ -73.9570527, 40.7973486 ], [ -73.9570473, 40.7973004 ], [ -73.9570392, 40.7972469 ] ], [ [ -73.9570392, 40.7972469 ], [ -73.957027, 40.7972026 ], [ -73.9570102, 40.7971459 ], [ -73.9569902, 40.79709 ], [ -73.9569592, 40.7970306 ], [ -73.9569253, 40.7969773 ], [ -73.9568922, 40.796922 ], [ -73.9568599, 40.7968651 ], [ -73.9568351, 40.7968056 ], [ -73.9568154, 40.7967427 ], [ -73.9568038, 40.7966806 ], [ -73.9567981, 40.7966204 ], [ -73.9567951, 40.7965634 ], [ -73.9567982, 40.7965162 ] ], [ [ -73.9567982, 40.7965162 ], [ -73.9567354, 40.7965183 ], [ -73.9566562, 40.7965211 ] ], [ [ -73.9566562, 40.7965211 ], [ -73.9566185, 40.7964889 ], [ -73.9565999, 40.7964557 ], [ -73.9565929, 40.7964308 ], [ -73.9565954, 40.7964102 ], [ -73.9566074, 40.7963807 ], [ -73.9566254, 40.7963478 ], [ -73.9566524, 40.7963001 ], [ -73.956675, 40.7962605 ], [ -73.9566922, 40.7962097 ], [ -73.9567049, 40.7961734 ], [ -73.9567117, 40.7961336 ], [ -73.9567177, 40.7960916 ] ], [ [ -73.9567177, 40.7960916 ], [ -73.9567274, 40.7960535 ], [ -73.9567371, 40.796026 ], [ -73.9567507, 40.7960018 ], [ -73.956774, 40.7959712 ], [ -73.9568032, 40.7959428 ], [ -73.956846, 40.7959019 ], [ -73.956872, 40.7958714 ], [ -73.9568903, 40.7958417 ], [ -73.9568955, 40.7958127 ], [ -73.9568963, 40.7957832 ], [ -73.956891, 40.7957457 ], [ -73.9568858, 40.795711 ], [ -73.9568858, 40.7956724 ], [ -73.9568913, 40.7956486 ] ], [ [ -73.9568913, 40.7956486 ], [ -73.9569308, 40.7956224 ], [ -73.956963, 40.7955929 ], [ -73.957002, 40.7955486 ], [ -73.9570268, 40.7955117 ], [ -73.9570445, 40.7954783 ], [ -73.9570546, 40.7954367 ], [ -73.9570651, 40.7953878 ], [ -73.9570696, 40.7953288 ], [ -73.9570595, 40.7952709 ] ], [ [ -73.9570595, 40.7952709 ], [ -73.9570803, 40.7952622 ], [ -73.9571177, 40.7952441 ], [ -73.957174, 40.7952123 ], [ -73.9572237, 40.7951782 ], [ -73.957273, 40.7951504 ], [ -73.9573375, 40.7951158 ], [ -73.9573833, 40.7950908 ], [ -73.9574178, 40.7950743 ], [ -73.957467, 40.7950611 ], [ -73.9575078, 40.7950504 ], [ -73.9575656, 40.7950442 ], [ -73.9576301, 40.7950385 ], [ -73.9576744, 40.7950323 ], [ -73.9577277, 40.7950186 ], [ -73.9577772, 40.7950044 ], [ -73.957817, 40.7949885 ], [ -73.9578522, 40.7949709 ], [ -73.9579213, 40.7949388 ], [ -73.9580023, 40.7948954 ], [ -73.9580916, 40.7948522 ], [ -73.9581629, 40.7948215 ], [ -73.9582139, 40.7947965 ], [ -73.9582439, 40.7947749 ], [ -73.9582664, 40.7947477 ], [ -73.9582754, 40.7947329 ], [ -73.9582799, 40.7947125 ], [ -73.9582791, 40.7946937 ], [ -73.9582752, 40.7946679 ], [ -73.9582651, 40.7946171 ], [ -73.9582615, 40.7945869 ] ], [ [ -73.9582615, 40.7945869 ], [ -73.9582608, 40.7945815 ] ], [ [ -73.9582608, 40.7945815 ], [ -73.9582437, 40.7945714 ] ], [ [ -73.9582437, 40.7945714 ], [ -73.9582171, 40.7945418 ], [ -73.958209, 40.7945301 ], [ -73.9582064, 40.794522 ], [ -73.958206, 40.7945134 ] ], [ [ -73.958206, 40.7945134 ], [ -73.9582087, 40.7945006 ], [ -73.9582087, 40.7944898 ], [ -73.9582087, 40.7944773 ], [ -73.9582087, 40.7944654 ], [ -73.958208, 40.7944541 ], [ -73.958205, 40.7944427 ], [ -73.9581982, 40.7944285 ], [ -73.95819, 40.7944092 ] ], [ [ -73.95819, 40.7944092 ], [ -73.9581659, 40.7944092 ], [ -73.9581472, 40.7944069 ], [ -73.9581269, 40.7944035 ], [ -73.9581104, 40.7944018 ], [ -73.9580788, 40.7943981 ] ], [ [ -73.9580788, 40.7943981 ], [ -73.9580706, 40.7943938 ], [ -73.9580316, 40.7943631 ], [ -73.9579848, 40.7943258 ], [ -73.9579753, 40.7943104 ] ], [ [ -73.9579753, 40.7943104 ], [ -73.9579715, 40.7942694 ], [ -73.9579753, 40.7942393 ], [ -73.9579858, 40.7942149 ], [ -73.9580015, 40.794191 ], [ -73.9580233, 40.7941666 ], [ -73.9580518, 40.7941399 ], [ -73.9580961, 40.7941001 ], [ -73.9581366, 40.7940575 ], [ -73.9581486, 40.7940388 ], [ -73.9581554, 40.7940172 ], [ -73.9581499, 40.7940001 ], [ -73.9581394, 40.7939768 ] ], [ [ -73.9581394, 40.7939768 ], [ -73.9581168, 40.7939406 ], [ -73.9580883, 40.7938997 ], [ -73.958071, 40.7938707 ], [ -73.9580635, 40.7938389 ], [ -73.958055, 40.793817 ], [ -73.9580565, 40.7937859 ], [ -73.9580643, 40.7937583 ], [ -73.9581395, 40.7935746 ], [ -73.9581452, 40.7935622 ], [ -73.9581506, 40.7935532 ], [ -73.9581602, 40.7935455 ], [ -73.9581722, 40.793539 ], [ -73.9582321, 40.7935291 ], [ -73.9582785, 40.7935214 ], [ -73.9583002, 40.7935153 ], [ -73.9583181, 40.7935093 ], [ -73.9583408, 40.7934987 ], [ -73.9583551, 40.7934889 ], [ -73.9583644, 40.7934776 ], [ -73.9583693, 40.7934659 ], [ -73.9583718, 40.79345 ], [ -73.958368, 40.7934328 ], [ -73.9583571, 40.7934123 ], [ -73.9583452, 40.7933954 ], [ -73.9583356, 40.7933761 ], [ -73.9583336, 40.7933604 ], [ -73.9583329, 40.7933465 ], [ -73.9583385, 40.7933285 ], [ -73.9583485, 40.7933134 ] ], [ [ -73.9583485, 40.7933134 ], [ -73.9583819, 40.7932608 ], [ -73.9584198, 40.7931875 ], [ -73.9584643, 40.7930662 ], [ -73.958477, 40.793016 ], [ -73.9584921, 40.7929366 ], [ -73.9584999, 40.7928832 ], [ -73.9585001, 40.7928421 ], [ -73.9584952, 40.792801 ], [ -73.9584817, 40.7927421 ], [ -73.9584582, 40.7926832 ], [ -73.9584342, 40.7926332 ], [ -73.9584027, 40.7925875 ], [ -73.958346, 40.7925283 ], [ -73.9582044, 40.7924199 ], [ -73.958104, 40.7923268 ], [ -73.9580837, 40.7922978 ], [ -73.9580643, 40.7922555 ], [ -73.9580433, 40.7922029 ], [ -73.9580328, 40.7921424 ], [ -73.9580322, 40.7921019 ], [ -73.9580355, 40.7920565 ], [ -73.9580798, 40.7919686 ], [ -73.9581819, 40.791812 ], [ -73.9582334, 40.7917259 ], [ -73.9582598, 40.7916667 ], [ -73.9582742, 40.7916048 ], [ -73.958298, 40.7914359 ] ], [ [ -73.958298, 40.7914359 ], [ -73.9583121, 40.7913453 ], [ -73.9583388, 40.7912481 ], [ -73.9584017, 40.7911357 ], [ -73.9584779, 40.7910005 ], [ -73.9585253, 40.7908818 ], [ -73.9585452, 40.7908224 ], [ -73.9585676, 40.7907251 ], [ -73.9585666, 40.7906699 ], [ -73.9585622, 40.7906312 ], [ -73.9585506, 40.7905924 ], [ -73.9585074, 40.7905215 ], [ -73.9584282, 40.7904399 ] ], [ [ -73.9584282, 40.7904399 ], [ -73.9582329, 40.7903854 ], [ -73.9581104, 40.7903427 ], [ -73.9579382, 40.7902655 ], [ -73.9578693, 40.7902304 ], [ -73.9576829, 40.7901197 ] ], [ [ -73.9576829, 40.7901197 ], [ -73.9576035, 40.7900468 ], [ -73.9575702, 40.7900014 ], [ -73.9575426, 40.7899453 ], [ -73.9575155, 40.7898075 ], [ -73.9575151, 40.7897571 ] ], [ [ -73.9575151, 40.7897571 ], [ -73.9574709, 40.7897499 ] ], [ [ -73.9574709, 40.7897499 ], [ -73.9574095, 40.7897395 ], [ -73.9573402, 40.789722 ] ], [ [ -73.9573402, 40.789722 ], [ -73.9573607, 40.7896352 ], [ -73.9573679, 40.7895782 ], [ -73.957374, 40.7895217 ], [ -73.9573773, 40.7894437 ], [ -73.957376, 40.7893854 ], [ -73.9573638, 40.789332 ], [ -73.9573456, 40.7892867 ], [ -73.9573165, 40.789244 ], [ -73.9570933, 40.7890241 ], [ -73.9570309, 40.7889516 ], [ -73.9569785, 40.7888789 ], [ -73.9569408, 40.7888155 ], [ -73.9569032, 40.7887404 ], [ -73.9568782, 40.7886689 ], [ -73.956862, 40.7886072 ], [ -73.9568458, 40.7885283 ], [ -73.9568406, 40.7884558 ], [ -73.9568383, 40.788398 ], [ -73.9568416, 40.7883326 ], [ -73.9568509, 40.7882814 ], [ -73.9568646, 40.7882237 ], [ -73.956891, 40.7881419 ], [ -73.9569277, 40.7880575 ], [ -73.9569579, 40.7879784 ], [ -73.956978, 40.787936 ], [ -73.9569949, 40.787874 ], [ -73.9570114, 40.7877975 ], [ -73.9570201, 40.7877328 ], [ -73.9570227, 40.787662 ], [ -73.95702, 40.7876095 ] ], [ [ -73.95702, 40.7876095 ], [ -73.9570138, 40.7875437 ], [ -73.9570089, 40.7875051 ], [ -73.957005, 40.7874737 ], [ -73.9569898, 40.7873736 ], [ -73.9569766, 40.7872868 ], [ -73.956971, 40.7872287 ], [ -73.9569704, 40.7871296 ], [ -73.9569775, 40.787051 ], [ -73.9569869, 40.7869901 ], [ -73.9570013, 40.7869196 ], [ -73.9570164, 40.786868 ], [ -73.9570332, 40.7868192 ], [ -73.9570504, 40.7867814 ], [ -73.9570736, 40.7867389 ], [ -73.9571786, 40.7865637 ], [ -73.9572307, 40.7864771 ], [ -73.9572751, 40.7864039 ], [ -73.9573435, 40.7863029 ], [ -73.9587975, 40.7843176 ] ], [ [ -73.9587975, 40.7843176 ], [ -73.9587564, 40.7843003 ], [ -73.9587244, 40.7842788 ] ], [ [ -73.9587244, 40.7842788 ], [ -73.9587957, 40.7841793 ] ], [ [ -73.9587957, 40.7841793 ], [ -73.9587388, 40.7841556 ], [ -73.958678, 40.7841303 ] ], [ [ -73.958678, 40.7841303 ], [ -73.9587288, 40.7840585 ] ], [ [ -73.9587288, 40.7840585 ], [ -73.9590869, 40.7835524 ] ], [ [ -73.9590869, 40.7835524 ], [ -73.9591498, 40.7834654 ] ], [ [ -73.9591498, 40.7834654 ], [ -73.9595205, 40.782937 ] ], [ [ -73.9595205, 40.782937 ], [ -73.9595912, 40.7828372 ] ], [ [ -73.9595912, 40.7828372 ], [ -73.9599818, 40.7823143 ] ], [ [ -73.9599818, 40.7823143 ], [ -73.9600654, 40.7822024 ] ], [ [ -73.9600654, 40.7822024 ], [ -73.9604544, 40.7816816 ] ], [ [ -73.9604544, 40.7816816 ], [ -73.9605969, 40.7814952 ] ], [ [ -73.9605969, 40.7814952 ], [ -73.9608636, 40.7811339 ] ], [ [ -73.9608636, 40.7811339 ], [ -73.9609825, 40.7809711 ] ], [ [ -73.9609825, 40.7809711 ], [ -73.9610334, 40.7809036 ] ], [ [ -73.9610334, 40.7809036 ], [ -73.961072, 40.7808502 ] ], [ [ -73.961072, 40.7808502 ], [ -73.9614094, 40.7803777 ] ], [ [ -73.9614094, 40.7803777 ], [ -73.9614261, 40.7803606 ], [ -73.9614693, 40.7803144 ], [ -73.9615185, 40.7802621 ] ], [ [ -73.9615185, 40.7802621 ], [ -73.9615537, 40.7802165 ] ], [ [ -73.9615537, 40.7802165 ], [ -73.9616219, 40.7801225 ], [ -73.9619306, 40.7797007 ] ], [ [ -73.9619306, 40.7797007 ], [ -73.9619404, 40.7796874 ], [ -73.9620134, 40.7795878 ] ], [ [ -73.9620134, 40.7795878 ], [ -73.9622509, 40.7792639 ], [ -73.9623957, 40.7790642 ] ] ] } },
{ "type": "Feature", "properties": { "place_name": "Cooper Hewitt Garden", "network_m": 3329.2686075832853, "network_km": 3.3292686075832854 }, "geometry": { "type": "MultiLineString", "coordinates": [ [ [ -73.9623663, 40.8075087 ], [ -73.9619458, 40.8073263 ] ], [ [ -73.9619458, 40.8073263 ], [ -73.9619089, 40.8073103 ] ], [ [ -73.9619089, 40.8073103 ], [ -73.9618444, 40.8072826 ], [ -73.9611833, 40.8070001 ] ], [ [ -73.9611833, 40.8070001 ], [ -73.9611432, 40.806983 ], [ -73.961105, 40.8069672 ] ], [ [ -73.961105, 40.8069672 ], [ -73.9610864, 40.8069592 ], [ -73.9610647, 40.8069499 ], [ -73.9609926, 40.8069192 ], [ -73.9608955, 40.8068778 ], [ -73.9608576, 40.8068614 ] ], [ [ -73.9608576, 40.8068614 ], [ -73.9601995, 40.8065765 ], [ -73.9601562, 40.8065578 ] ], [ [ -73.9601562, 40.8065578 ], [ -73.9601006, 40.8065338 ], [ -73.9593977, 40.8062297 ] ], [ [ -73.9593977, 40.8062297 ], [ -73.9593748, 40.8062197 ], [ -73.9593036, 40.8061917 ], [ -73.9592428, 40.8061676 ], [ -73.9592012, 40.8061481 ] ], [ [ -73.9592012, 40.8061481 ], [ -73.9592594, 40.8060677 ] ], [ [ -73.9592594, 40.8060677 ], [ -73.9593132, 40.8059958 ] ], [ [ -73.9593132, 40.8059958 ], [ -73.9596611, 40.8055139 ], [ -73.9596812, 40.8054781 ], [ -73.9596931, 40.8054476 ], [ -73.9596957, 40.80544 ] ], [ [ -73.9596957, 40.80544 ], [ -73.9597109, 40.805395 ], [ -73.9597301, 40.8053351 ], [ -73.9599314, 40.8047473 ] ], [ [ -73.9599314, 40.8047473 ], [ -73.9599652, 40.8046485 ] ], [ [ -73.9599652, 40.8046485 ], [ -73.9599694, 40.8046373 ] ], [ [ -73.9599694, 40.8046373 ], [ -73.9599714, 40.804632 ], [ -73.9601733, 40.8040429 ] ], [ [ -73.9601733, 40.8040429 ], [ -73.9602112, 40.8039324 ] ], [ [ -73.9602112, 40.8039324 ], [ -73.9602272, 40.8038858 ] ], [ [ -73.9602272, 40.8038858 ], [ -73.9603827, 40.8034337 ] ], [ [ -73.9603827, 40.8034337 ], [ -73.9604489, 40.8032367 ] ], [ [ -73.9604489, 40.8032367 ], [ -73.9606983, 40.8025198 ] ], [ [ -73.9606983, 40.8025198 ], [ -73.9608874, 40.8019725 ], [ -73.9609258, 40.8018493 ] ], [ [ -73.9609258, 40.8018493 ], [ -73.9609356, 40.8018104 ], [ -73.9609469, 40.8017305 ], [ -73.9609554, 40.8016439 ], [ -73.9609801, 40.8015988 ] ], [ [ -73.9609801, 40.8015988 ], [ -73.9610031, 40.8015644 ] ], [ [ -73.9610031, 40.8015644 ], [ -73.9598267, 40.8010925 ] ], [ [ -73.9598267, 40.8010925 ], [ -73.9597935, 40.801079 ], [ -73.95973, 40.8010494 ], [ -73.9596643, 40.8010188 ], [ -73.9596342, 40.8010061 ] ], [ [ -73.9596342, 40.8010061 ], [ -73.958682, 40.8006049 ] ], [ [ -73.958682, 40.8006049 ], [ -73.9586731, 40.8005841 ], [ -73.958653, 40.8005006 ], [ -73.95861, 40.8004216 ], [ -73.9585758, 40.8003859 ], [ -73.9585359, 40.8003638 ], [ -73.9585248, 40.8003577 ] ], [ [ -73.9585248, 40.8003577 ], [ -73.9587155, 40.8000936 ] ], [ [ -73.9587155, 40.8000936 ], [ -73.9587296, 40.8000762 ], [ -73.9587597, 40.8000395 ], [ -73.9587838, 40.800006 ], [ -73.9587957, 40.7999895 ] ], [ [ -73.9587957, 40.7999895 ], [ -73.9591714, 40.7994618 ] ], [ [ -73.9591714, 40.7994618 ], [ -73.9591787, 40.7994508 ], [ -73.959208, 40.7994078 ], [ -73.9592388, 40.7993658 ], [ -73.9592486, 40.7993541 ] ], [ [ -73.9592486, 40.7993541 ], [ -73.9592223, 40.7993401 ], [ -73.9591262, 40.7993018 ], [ -73.9590205, 40.7992596 ], [ -73.9589813, 40.7992425 ] ], [ [ -73.9589813, 40.7992425 ], [ -73.9589632, 40.7992307 ], [ -73.9589122, 40.7991957 ], [ -73.9588532, 40.7991388 ], [ -73.9588131, 40.7991083 ] ], [ [ -73.9588131, 40.7991083 ], [ -73.9587655, 40.7990298 ], [ -73.9587328, 40.7989651 ], [ -73.9587182, 40.7989171 ], [ -73.9586878, 40.7988245 ], [ -73.9586732, 40.7987633 ], [ -73.9586636, 40.7987276 ] ], [ [ -73.9586636, 40.7987276 ], [ -73.9586098, 40.7987449 ], [ -73.9585733, 40.7987536 ], [ -73.9585288, 40.7987644 ] ], [ [ -73.9585288, 40.7987644 ], [ -73.9585211, 40.7987201 ], [ -73.9585094, 40.7986744 ], [ -73.9584987, 40.7986461 ], [ -73.9584824, 40.7986067 ], [ -73.9584637, 40.7985718 ], [ -73.95844, 40.7985323 ], [ -73.9584019, 40.7984867 ], [ -73.9583595, 40.7984454 ], [ -73.9583187, 40.7984124 ], [ -73.9582666, 40.7983742 ], [ -73.9582156, 40.7983455 ], [ -73.9581654, 40.798319 ], [ -73.9581064, 40.7982948 ], [ -73.9580483, 40.7982779 ], [ -73.9579848, 40.7982627 ], [ -73.9575617, 40.7981647 ], [ -73.9574902, 40.7981463 ], [ -73.9574403, 40.7981301 ] ], [ [ -73.9574403, 40.7981301 ], [ -73.9574036, 40.7981166 ], [ -73.9573574, 40.7980919 ], [ -73.9573133, 40.7980618 ], [ -73.9572581, 40.7980225 ], [ -73.9572087, 40.7979825 ], [ -73.9571758, 40.7979508 ], [ -73.9571486, 40.7979186 ], [ -73.9571174, 40.7978776 ], [ -73.9570943, 40.7978418 ], [ -73.9570725, 40.797797 ], [ -73.9570563, 40.7977534 ], [ -73.9570406, 40.7977047 ], [ -73.9570319, 40.7976582 ], [ -73.9570289, 40.7976082 ], [ -73.9570321, 40.7975652 ], [ -73.9570487, 40.7974585 ], [ -73.9570524, 40.7974021 ], [ -73.9570527, 40.7973486 ], [ -73.9570473, 40.7973004 ], [ -73.9570392, 40.7972469 ] ], [ [ -73.9570392, 40.7972469 ], [ -73.957027, 40.7972026 ], [ -73.9570102, 40.7971459 ], [ -73.9569902, 40.79709 ], [ -73.9569592, 40.7970306 ], [ -73.9569253, 40.7969773 ], [ -73.9568922, 40.796922 ], [ -73.9568599, 40.7968651 ], [ -73.9568351, 40.7968056 ], [ -73.9568154, 40.7967427 ], [ -73.9568038, 40.7966806 ], [ -73.9567981, 40.7966204 ], [ -73.9567951, 40.7965634 ], [ -73.9567982, 40.7965162 ] ], [ [ -73.9567982, 40.7965162 ], [ -73.9567354, 40.7965183 ], [ -73.9566562, 40.7965211 ] ], [ [ -73.9566562, 40.7965211 ], [ -73.9566185, 40.7964889 ], [ -73.9565999, 40.7964557 ], [ -73.9565929, 40.7964308 ], [ -73.9565954, 40.7964102 ], [ -73.9566074, 40.7963807 ], [ -73.9566254, 40.7963478 ], [ -73.9566524, 40.7963001 ], [ -73.956675, 40.7962605 ], [ -73.9566922, 40.7962097 ], [ -73.9567049, 40.7961734 ], [ -73.9567117, 40.7961336 ], [ -73.9567177, 40.7960916 ] ], [ [ -73.9567177, 40.7960916 ], [ -73.9567274, 40.7960535 ], [ -73.9567371, 40.796026 ], [ -73.9567507, 40.7960018 ], [ -73.956774, 40.7959712 ], [ -73.9568032, 40.7959428 ], [ -73.956846, 40.7959019 ], [ -73.956872, 40.7958714 ], [ -73.9568903, 40.7958417 ], [ -73.9568955, 40.7958127 ], [ -73.9568963, 40.7957832 ], [ -73.956891, 40.7957457 ], [ -73.9568858, 40.795711 ], [ -73.9568858, 40.7956724 ], [ -73.9568913, 40.7956486 ] ], [ [ -73.9568913, 40.7956486 ], [ -73.9569308, 40.7956224 ], [ -73.956963, 40.7955929 ], [ -73.957002, 40.7955486 ], [ -73.9570268, 40.7955117 ], [ -73.9570445, 40.7954783 ], [ -73.9570546, 40.7954367 ], [ -73.9570651, 40.7953878 ], [ -73.9570696, 40.7953288 ], [ -73.9570595, 40.7952709 ] ], [ [ -73.9570595, 40.7952709 ], [ -73.9570803, 40.7952622 ], [ -73.9571177, 40.7952441 ], [ -73.957174, 40.7952123 ], [ -73.9572237, 40.7951782 ], [ -73.957273, 40.7951504 ], [ -73.9573375, 40.7951158 ], [ -73.9573833, 40.7950908 ], [ -73.9574178, 40.7950743 ], [ -73.957467, 40.7950611 ], [ -73.9575078, 40.7950504 ], [ -73.9575656, 40.7950442 ], [ -73.9576301, 40.7950385 ], [ -73.9576744, 40.7950323 ], [ -73.9577277, 40.7950186 ], [ -73.9577772, 40.7950044 ], [ -73.957817, 40.7949885 ], [ -73.9578522, 40.7949709 ], [ -73.9579213, 40.7949388 ], [ -73.9580023, 40.7948954 ], [ -73.9580916, 40.7948522 ], [ -73.9581629, 40.7948215 ], [ -73.9582139, 40.7947965 ], [ -73.9582439, 40.7947749 ], [ -73.9582664, 40.7947477 ], [ -73.9582754, 40.7947329 ], [ -73.9582799, 40.7947125 ], [ -73.9582791, 40.7946937 ], [ -73.9582752, 40.7946679 ], [ -73.9582651, 40.7946171 ], [ -73.9582615, 40.7945869 ] ], [ [ -73.9582615, 40.7945869 ], [ -73.9582608, 40.7945815 ] ], [ [ -73.9582608, 40.7945815 ], [ -73.9582437, 40.7945714 ] ], [ [ -73.9582437, 40.7945714 ], [ -73.9582171, 40.7945418 ], [ -73.958209, 40.7945301 ], [ -73.9582064, 40.794522 ], [ -73.958206, 40.7945134 ] ], [ [ -73.958206, 40.7945134 ], [ -73.9582087, 40.7945006 ], [ -73.9582087, 40.7944898 ], [ -73.9582087, 40.7944773 ], [ -73.9582087, 40.7944654 ], [ -73.958208, 40.7944541 ], [ -73.958205, 40.7944427 ], [ -73.9581982, 40.7944285 ], [ -73.95819, 40.7944092 ] ], [ [ -73.95819, 40.7944092 ], [ -73.9581659, 40.7944092 ], [ -73.9581472, 40.7944069 ], [ -73.9581269, 40.7944035 ], [ -73.9581104, 40.7944018 ], [ -73.9580788, 40.7943981 ] ], [ [ -73.9580788, 40.7943981 ], [ -73.9580706, 40.7943938 ], [ -73.9580316, 40.7943631 ], [ -73.9579848, 40.7943258 ], [ -73.9579753, 40.7943104 ] ], [ [ -73.9579753, 40.7943104 ], [ -73.9579715, 40.7942694 ], [ -73.9579753, 40.7942393 ], [ -73.9579858, 40.7942149 ], [ -73.9580015, 40.794191 ], [ -73.9580233, 40.7941666 ], [ -73.9580518, 40.7941399 ], [ -73.9580961, 40.7941001 ], [ -73.9581366, 40.7940575 ], [ -73.9581486, 40.7940388 ], [ -73.9581554, 40.7940172 ], [ -73.9581499, 40.7940001 ], [ -73.9581394, 40.7939768 ] ], [ [ -73.9581394, 40.7939768 ], [ -73.9581168, 40.7939406 ], [ -73.9580883, 40.7938997 ], [ -73.958071, 40.7938707 ], [ -73.9580635, 40.7938389 ], [ -73.958055, 40.793817 ], [ -73.9580565, 40.7937859 ], [ -73.9580643, 40.7937583 ], [ -73.9581395, 40.7935746 ], [ -73.9581452, 40.7935622 ], [ -73.9581506, 40.7935532 ], [ -73.9581602, 40.7935455 ], [ -73.9581722, 40.793539 ], [ -73.9582321, 40.7935291 ], [ -73.9582785, 40.7935214 ], [ -73.9583002, 40.7935153 ], [ -73.9583181, 40.7935093 ], [ -73.9583408, 40.7934987 ], [ -73.9583551, 40.7934889 ], [ -73.9583644, 40.7934776 ], [ -73.9583693, 40.7934659 ], [ -73.9583718, 40.79345 ], [ -73.958368, 40.7934328 ], [ -73.9583571, 40.7934123 ], [ -73.9583452, 40.7933954 ], [ -73.9583356, 40.7933761 ], [ -73.9583336, 40.7933604 ], [ -73.9583329, 40.7933465 ], [ -73.9583385, 40.7933285 ], [ -73.9583485, 40.7933134 ] ], [ [ -73.9583485, 40.7933134 ], [ -73.9583819, 40.7932608 ], [ -73.9584198, 40.7931875 ], [ -73.9584643, 40.7930662 ], [ -73.958477, 40.793016 ], [ -73.9584921, 40.7929366 ], [ -73.9584999, 40.7928832 ], [ -73.9585001, 40.7928421 ], [ -73.9584952, 40.792801 ], [ -73.9584817, 40.7927421 ], [ -73.9584582, 40.7926832 ], [ -73.9584342, 40.7926332 ], [ -73.9584027, 40.7925875 ], [ -73.958346, 40.7925283 ], [ -73.9582044, 40.7924199 ], [ -73.958104, 40.7923268 ], [ -73.9580837, 40.7922978 ], [ -73.9580643, 40.7922555 ], [ -73.9580433, 40.7922029 ], [ -73.9580328, 40.7921424 ], [ -73.9580322, 40.7921019 ], [ -73.9580355, 40.7920565 ], [ -73.9580798, 40.7919686 ], [ -73.9581819, 40.791812 ], [ -73.9582334, 40.7917259 ], [ -73.9582598, 40.7916667 ], [ -73.9582742, 40.7916048 ], [ -73.958298, 40.7914359 ] ], [ [ -73.958298, 40.7914359 ], [ -73.9583121, 40.7913453 ], [ -73.9583388, 40.7912481 ], [ -73.9584017, 40.7911357 ], [ -73.9584779, 40.7910005 ], [ -73.9585253, 40.7908818 ], [ -73.9585452, 40.7908224 ], [ -73.9585676, 40.7907251 ], [ -73.9585666, 40.7906699 ], [ -73.9585622, 40.7906312 ], [ -73.9585506, 40.7905924 ], [ -73.9585074, 40.7905215 ], [ -73.9584282, 40.7904399 ] ], [ [ -73.9584282, 40.7904399 ], [ -73.9582329, 40.7903854 ], [ -73.9581104, 40.7903427 ], [ -73.9579382, 40.7902655 ], [ -73.9578693, 40.7902304 ], [ -73.9576829, 40.7901197 ] ], [ [ -73.9576829, 40.7901197 ], [ -73.9576035, 40.7900468 ], [ -73.9575702, 40.7900014 ], [ -73.9575426, 40.7899453 ], [ -73.9575155, 40.7898075 ], [ -73.9575151, 40.7897571 ] ], [ [ -73.9575151, 40.7897571 ], [ -73.9574709, 40.7897499 ] ], [ [ -73.9574709, 40.7897499 ], [ -73.9574095, 40.7897395 ], [ -73.9573402, 40.789722 ] ], [ [ -73.9573402, 40.789722 ], [ -73.9572966, 40.7897117 ], [ -73.9572465, 40.789693 ] ], [ [ -73.9572465, 40.789693 ], [ -73.9572813, 40.7896083 ] ], [ [ -73.9572813, 40.7896083 ], [ -73.9572932, 40.7895687 ], [ -73.9573008, 40.7895193 ], [ -73.9573039, 40.7894229 ], [ -73.9573037, 40.7893995 ], [ -73.9572994, 40.7893811 ], [ -73.9572885, 40.7893436 ], [ -73.9572761, 40.7893156 ], [ -73.9572129, 40.7892461 ], [ -73.957164, 40.7891972 ], [ -73.9571047, 40.7891454 ], [ -73.9570294, 40.78907 ], [ -73.9569373, 40.7889772 ], [ -73.9569018, 40.7889414 ], [ -73.9568686, 40.788904 ], [ -73.9568367, 40.7888654 ], [ -73.9567975, 40.7888129 ], [ -73.9567513, 40.7887521 ], [ -73.9567018, 40.7886813 ], [ -73.9566785, 40.7886161 ], [ -73.956656, 40.7885524 ], [ -73.956641, 40.7884716 ], [ -73.9566375, 40.7884255 ], [ -73.9566388, 40.7883896 ], [ -73.956645, 40.7883459 ], [ -73.9566495, 40.7883154 ], [ -73.9566817, 40.788131 ] ], [ [ -73.9566817, 40.788131 ], [ -73.9564954, 40.7880855 ], [ -73.9563899, 40.7880532 ], [ -73.9563379, 40.7880278 ], [ -73.956297, 40.7879933 ], [ -73.956264, 40.787965 ], [ -73.9562367, 40.7879346 ], [ -73.9562018, 40.7879095 ], [ -73.9561153, 40.7878719 ] ], [ [ -73.9561153, 40.7878719 ], [ -73.9559729, 40.7878099 ] ], [ [ -73.9559729, 40.7878099 ], [ -73.9563443, 40.7873043 ] ], [ [ -73.9563443, 40.7873043 ], [ -73.9564117, 40.7872125 ] ], [ [ -73.9564117, 40.7872125 ], [ -73.9567898, 40.7866978 ] ], [ [ -73.9567898, 40.7866978 ], [ -73.95687, 40.7865886 ] ], [ [ -73.95687, 40.7865886 ], [ -73.9572426, 40.7860813 ] ], [ [ -73.9572426, 40.7860813 ], [ -73.9573315, 40.7859603 ] ], [ [ -73.9573315, 40.7859603 ], [ -73.9577072, 40.7854487 ] ], [ [ -73.9577072, 40.7854487 ], [ -73.9577855, 40.7853421 ] ], [ [ -73.9577855, 40.7853421 ], [ -73.9577513, 40.7853275 ], [ -73.9576729, 40.7852941 ], [ -73.9576088, 40.7852668 ], [ -73.9575794, 40.7852543 ] ], [ [ -73.9575794, 40.7852543 ], [ -73.9579539, 40.7847394 ] ], [ [ -73.9579539, 40.7847394 ], [ -73.9579916, 40.7846929 ] ], [ [ -73.9579916, 40.7846929 ], [ -73.9580421, 40.7846307 ] ] ] } },
{ "type": "Feature", "properties": { "place_name": "Museum of the City of New York", "network_m": 2389.6431018963603, "network_km": 2.3896431018963602 }, "geometry": { "type": "MultiLineString", "coordinates": [ [ [ -73.9623663, 40.8075087 ], [ -73.9619458, 40.8073263 ] ], [ [ -73.9619458, 40.8073263 ], [ -73.9619089, 40.8073103 ] ], [ [ -73.9619089, 40.8073103 ], [ -73.9618444, 40.8072826 ], [ -73.9611833, 40.8070001 ] ], [ [ -73.9611833, 40.8070001 ], [ -73.9611432, 40.806983 ], [ -73.961105, 40.8069672 ] ], [ [ -73.961105, 40.8069672 ], [ -73.9610864, 40.8069592 ], [ -73.9610647, 40.8069499 ], [ -73.9609926, 40.8069192 ], [ -73.9608955, 40.8068778 ], [ -73.9608576, 40.8068614 ] ], [ [ -73.9608576, 40.8068614 ], [ -73.9601995, 40.8065765 ], [ -73.9601562, 40.8065578 ] ], [ [ -73.9601562, 40.8065578 ], [ -73.9601006, 40.8065338 ], [ -73.9593977, 40.8062297 ] ], [ [ -73.9593977, 40.8062297 ], [ -73.9593748, 40.8062197 ], [ -73.9593036, 40.8061917 ], [ -73.9592428, 40.8061676 ], [ -73.9592012, 40.8061481 ] ], [ [ -73.9592012, 40.8061481 ], [ -73.9592594, 40.8060677 ] ], [ [ -73.9592594, 40.8060677 ], [ -73.9592327, 40.8060571 ], [ -73.9591598, 40.8060261 ], [ -73.9592049, 40.8059647 ], [ -73.9593806, 40.8057172 ], [ -73.9593856, 40.8056884 ], [ -73.9593088, 40.8056565 ] ], [ [ -73.9593088, 40.8056565 ], [ -73.9593274, 40.8056301 ], [ -73.9593879, 40.8055439 ] ], [ [ -73.9593879, 40.8055439 ], [ -73.9594614, 40.805425 ], [ -73.9594746, 40.8053662 ], [ -73.9594808, 40.8053099 ], [ -73.9594752, 40.8052278 ], [ -73.9594302, 40.8051215 ] ], [ [ -73.9594302, 40.8051215 ], [ -73.9593977, 40.8049648 ], [ -73.9593468, 40.8048086 ] ], [ [ -73.9593468, 40.8048086 ], [ -73.9591515, 40.8046303 ], [ -73.9589735, 40.8045105 ], [ -73.9587862, 40.8043803 ], [ -73.9586931, 40.8043059 ], [ -73.9586524, 40.8042802 ] ], [ [ -73.9586524, 40.8042802 ], [ -73.9586544, 40.8042679 ], [ -73.9586552, 40.8042577 ], [ -73.9586548, 40.8042476 ], [ -73.9586535, 40.8042427 ], [ -73.9586513, 40.804238 ], [ -73.9586146, 40.8041779 ], [ -73.9585898, 40.8041353 ], [ -73.9585818, 40.8041174 ] ], [ [ -73.9585818, 40.8041174 ], [ -73.9585793, 40.8041036 ], [ -73.9585799, 40.804089 ], [ -73.9585834, 40.8040712 ], [ -73.958587, 40.8040598 ], [ -73.9585909, 40.8040524 ], [ -73.9586017, 40.8040389 ], [ -73.9586292, 40.8040133 ], [ -73.9586618, 40.803984 ], [ -73.9586897, 40.8039595 ], [ -73.958713, 40.8039355 ], [ -73.9587404, 40.8039032 ], [ -73.9587703, 40.8038604 ], [ -73.9587773, 40.80385 ], [ -73.9587829, 40.8038399 ], [ -73.9587874, 40.8038291 ], [ -73.9587914, 40.8038162 ], [ -73.9587938, 40.8038029 ], [ -73.958795, 40.8037866 ], [ -73.9587945, 40.8037714 ], [ -73.9587916, 40.8037555 ], [ -73.958768, 40.803626 ] ], [ [ -73.958768, 40.803626 ], [ -73.9586897, 40.8032926 ] ], [ [ -73.9586897, 40.8032926 ], [ -73.9586924, 40.8031707 ], [ -73.9586959, 40.8031345 ], [ -73.9587004, 40.8031058 ], [ -73.9587132, 40.8030554 ], [ -73.9587303, 40.8030068 ], [ -73.9587447, 40.8029719 ], [ -73.9587624, 40.8029388 ], [ -73.958778, 40.8029118 ], [ -73.9587916, 40.8028906 ], [ -73.9588125, 40.8028618 ], [ -73.95904, 40.802601 ] ], [ [ -73.95904, 40.802601 ], [ -73.9589821, 40.8025694 ], [ -73.9589198, 40.8025366 ], [ -73.9589097, 40.8025326 ], [ -73.9588498, 40.8025031 ], [ -73.9588224, 40.8024896 ] ], [ [ -73.9588224, 40.8024896 ], [ -73.9588363, 40.8024709 ] ], [ [ -73.9588363, 40.8024709 ], [ -73.9587985, 40.8024544 ], [ -73.9587263, 40.8024228 ], [ -73.9586678, 40.8023972 ], [ -73.9586408, 40.8023854 ] ], [ [ -73.9586408, 40.8023854 ], [ -73.9574101, 40.8018631 ] ], [ [ -73.9574101, 40.8018631 ], [ -73.9577646, 40.8013424 ] ], [ [ -73.9577646, 40.8013424 ], [ -73.9577362, 40.801331 ], [ -73.9576489, 40.8012958 ], [ -73.9575705, 40.8012637 ], [ -73.9575427, 40.801252 ] ], [ [ -73.9575427, 40.801252 ], [ -73.9575569, 40.8012324 ], [ -73.957585, 40.8011928 ], [ -73.9576113, 40.8011554 ], [ -73.9576216, 40.8011408 ] ], [ [ -73.9576216, 40.8011408 ], [ -73.9577869, 40.8009215 ] ], [ [ -73.9577869, 40.8009215 ], [ -73.9576584, 40.8008236 ], [ -73.9575911, 40.8007076 ], [ -73.9575823, 40.8006166 ], [ -73.9576063, 40.8005222 ] ], [ [ -73.9576063, 40.8005222 ], [ -73.9558486, 40.7997818 ] ], [ [ -73.9558486, 40.7997818 ], [ -73.9554211, 40.7996013 ] ], [ [ -73.9554211, 40.7996013 ], [ -73.9554371, 40.7995779 ], [ -73.9554788, 40.7995158 ], [ -73.9555137, 40.7994638 ], [ -73.9555392, 40.7994245 ] ], [ [ -73.9555392, 40.7994245 ], [ -73.9554864, 40.7994018 ], [ -73.9554381, 40.7993825 ] ], [ [ -73.9554381, 40.7993825 ], [ -73.9552983, 40.7993266 ] ], [ [ -73.9552983, 40.7993266 ], [ -73.9553275, 40.7992904 ], [ -73.9553416, 40.7992639 ], [ -73.9553534, 40.7992338 ], [ -73.955358, 40.7992064 ], [ -73.9553585, 40.7991806 ], [ -73.9553516, 40.7991428 ], [ -73.9553379, 40.7991072 ], [ -73.9553158, 40.7990694 ], [ -73.955275, 40.7990112 ] ], [ [ -73.955275, 40.7990112 ], [ -73.9551885, 40.7989634 ], [ -73.9551023, 40.7989169 ] ], [ [ -73.9551023, 40.7989169 ], [ -73.955039, 40.7988799 ], [ -73.9550301, 40.7988743 ], [ -73.9549623, 40.7988321 ], [ -73.9548802, 40.7987778 ], [ -73.9548123, 40.7987314 ], [ -73.9546892, 40.7986297 ] ], [ [ -73.9546892, 40.7986297 ], [ -73.9546501, 40.7986006 ], [ -73.9545624, 40.7985249 ], [ -73.9545062, 40.7984751 ], [ -73.9544475, 40.7984182 ], [ -73.954397, 40.7983599 ], [ -73.9543624, 40.7983179 ], [ -73.9543347, 40.798275 ], [ -73.9543097, 40.7982268 ], [ -73.9542978, 40.7981909 ], [ -73.9542907, 40.7981571 ], [ -73.9542867, 40.7981017 ], [ -73.9542879, 40.7980367 ], [ -73.9542931, 40.7979691 ], [ -73.9543045, 40.7979003 ], [ -73.9543428, 40.7977354 ], [ -73.9543551, 40.7976942 ] ], [ [ -73.9543551, 40.7976942 ], [ -73.954288, 40.7976699 ], [ -73.9542751, 40.7976654 ], [ -73.9542622, 40.7976609 ], [ -73.9542447, 40.7976508 ], [ -73.9542151, 40.7976337 ], [ -73.9541837, 40.7976144 ] ], [ [ -73.9541837, 40.7976144 ], [ -73.9542553, 40.7975209 ], [ -73.954297, 40.7974464 ], [ -73.9543325, 40.7973803 ], [ -73.9543653, 40.7972854 ], [ -73.9543837, 40.7971866 ], [ -73.9543824, 40.7971095 ], [ -73.9543656, 40.7970465 ], [ -73.9543425, 40.7969955 ], [ -73.9543269, 40.7969582 ], [ -73.9542958, 40.7969111 ], [ -73.9542696, 40.7968794 ], [ -73.9542313, 40.7968265 ], [ -73.9541947, 40.7967806 ], [ -73.9541629, 40.7967429 ] ], [ [ -73.9541629, 40.7967429 ], [ -73.9541075, 40.7967207 ], [ -73.954078, 40.7967023 ], [ -73.9540485, 40.7966684 ] ], [ [ -73.9540485, 40.7966684 ], [ -73.9540302, 40.79661 ], [ -73.9540412, 40.7965519 ] ], [ [ -73.9540412, 40.7965519 ], [ -73.9539902, 40.7965438 ], [ -73.9539415, 40.7965299 ], [ -73.953911, 40.7965053 ], [ -73.9538805, 40.7964699 ], [ -73.9538398, 40.796453 ], [ -73.9537788, 40.7964407 ], [ -73.9537423, 40.7964345 ], [ -73.9536914, 40.7964176 ], [ -73.9536487, 40.7963991 ], [ -73.9536183, 40.7963776 ], [ -73.9536026, 40.7963568 ] ], [ [ -73.9536026, 40.7963568 ], [ -73.9535879, 40.7963625 ], [ -73.9535603, 40.7963811 ], [ -73.9535196, 40.7963977 ], [ -73.9534739, 40.7964051 ], [ -73.9534409, 40.7964085 ], [ -73.9533971, 40.7964084 ], [ -73.9533568, 40.7964137 ], [ -73.9533193, 40.796421 ], [ -73.9532758, 40.7964347 ], [ -73.9532387, 40.7964464 ], [ -73.953206, 40.7964501 ], [ -73.9531803, 40.7964487 ] ], [ [ -73.9531803, 40.7964487 ], [ -73.9531476, 40.7964348 ], [ -73.9531322, 40.7964155 ] ], [ [ -73.9531322, 40.7964155 ], [ -73.9531062, 40.7963618 ] ], [ [ -73.9531062, 40.7963618 ], [ -73.953118, 40.7962691 ], [ -73.9531465, 40.7961631 ], [ -73.953174, 40.7960825 ], [ -73.9531817, 40.7960237 ], [ -73.9531812, 40.7959618 ], [ -73.9531725, 40.7959133 ], [ -73.9531549, 40.7958709 ], [ -73.9531308, 40.7958258 ], [ -73.953112, 40.7957883 ], [ -73.9531018, 40.795762 ], [ -73.9530933, 40.795723 ], [ -73.9530865, 40.7956872 ], [ -73.9530856, 40.7956468 ], [ -73.9530873, 40.795587 ], [ -73.9530972, 40.7955325 ], [ -73.9531006, 40.7955006 ] ], [ [ -73.9531006, 40.7955006 ], [ -73.9530555, 40.7954935 ], [ -73.9530113, 40.7954929 ] ], [ [ -73.9530113, 40.7954929 ], [ -73.952982, 40.7954676 ], [ -73.9529558, 40.7954357 ], [ -73.9529273, 40.7953905 ], [ -73.9529078, 40.7953565 ], [ -73.9528853, 40.7953 ] ], [ [ -73.9528853, 40.7953 ], [ -73.9528581, 40.7952549 ], [ -73.9528254, 40.795212 ], [ -73.9527812, 40.7951695 ], [ -73.9527335, 40.7951322 ], [ -73.95266, 40.7950878 ], [ -73.952562, 40.7950262 ], [ -73.9525169, 40.79499 ], [ -73.9524542, 40.794925 ], [ -73.9524039, 40.7948592 ], [ -73.9522793, 40.7946861 ] ], [ [ -73.9522793, 40.7946861 ], [ -73.9522649, 40.7946646 ] ], [ [ -73.9522649, 40.7946646 ], [ -73.9521938, 40.794629 ], [ -73.9521387, 40.7946057 ], [ -73.9520723, 40.7945928 ], [ -73.9519574, 40.79458 ] ], [ [ -73.9519574, 40.79458 ], [ -73.9517545, 40.7945356 ] ], [ [ -73.9517545, 40.7945356 ], [ -73.9516944, 40.7945225 ] ], [ [ -73.9516944, 40.7945225 ], [ -73.9516635, 40.7945145 ] ], [ [ -73.9516635, 40.7945145 ], [ -73.9516085, 40.7944453 ], [ -73.9515696, 40.7943824 ], [ -73.9515495, 40.7943072 ], [ -73.9515476, 40.7942294 ] ], [ [ -73.9515476, 40.7942294 ], [ -73.9516167, 40.794128 ] ], [ [ -73.9516167, 40.794128 ], [ -73.9518702, 40.7938096 ] ], [ [ -73.9518702, 40.7938096 ], [ -73.9519212, 40.7937369 ] ], [ [ -73.9519212, 40.7937369 ], [ -73.9520062, 40.7936239 ] ], [ [ -73.9520062, 40.7936239 ], [ -73.9519381, 40.7935954 ], [ -73.9519024, 40.7935806 ], [ -73.9518694, 40.7935668 ], [ -73.9517994, 40.7935345 ] ], [ [ -73.9517994, 40.7935345 ], [ -73.9521235, 40.7930886 ] ], [ [ -73.9521235, 40.7930886 ], [ -73.9522052, 40.7929762 ] ], [ [ -73.9522052, 40.7929762 ], [ -73.9520965, 40.79293 ], [ -73.9519968, 40.7928874 ] ], [ [ -73.9519968, 40.7928874 ], [ -73.9521892, 40.7926265 ] ], [ [ -73.9521892, 40.7926265 ], [ -73.952147, 40.7926099 ], [ -73.9520899, 40.7925876 ], [ -73.9520315, 40.7925629 ] ], [ [ -73.9520315, 40.7925629 ], [ -73.9520211, 40.7925591 ] ], [ [ -73.9520211, 40.7925591 ], [ -73.9520117, 40.7925552 ] ] ] } }
]
}
