{
"type": "FeatureCollection",
"name": "bryant_park_dot_pause_candidates_15min",
"crs": { "type": "name", "properties": { "name": "urn:ogc:def:crs:OGC:1.3:CRS84" } },
"features": [
{ "type": "Feature", "properties": { "candidate_id": "DOT_SEAT.1900.0020", "candidate_type": "Bench", "candidate_name": "617 2 Avenue", "access_note": "NYC DOT public seating asset", "seating_type": "BACKED 1.0", "radial_distance_m": 1162.4560600597542, "approx_minutes_radial": 14.530700750746927, "sample_id": "SEG_00549_P006", "segment_id": "SEG_00549", "street_name": "2 AVE", "sample_link_distance_m": 12.530811609577404, "tree_distance_m": 13.003568236643906, "building_distance_m": 15.252992860399534, "tree_class": "Tree Near", "building_class": "Building Far", "visual_condition": "Vegetated Buffer", "orientation_group": "North–South / Avenue-like", "screening_potential": true }, "geometry": { "type": "Point", "coordinates": [ -73.97617592, 40.74459759 ] } },
{ "type": "Feature", "properties": { "candidate_id": "DOT_SEAT.1900.0030", "candidate_type": "Leaning Bar", "candidate_name": "61 E 34 Street", "access_note": "NYC DOT public seating asset", "seating_type": "LEANING BAR", "radial_distance_m": 711.4044860591672, "approx_minutes_radial": 8.8925560757395896, "sample_id": "SEG_00135_P013", "segment_id": "SEG_00135", "street_name": "E 34 ST", "sample_link_distance_m": 9.1283789549233951, "tree_distance_m": 33.123936554849493, "building_distance_m": 15.333314859501883, "tree_class": "Tree Far", "building_class": "Building Far", "visual_condition": "Open Field", "orientation_group": "East–West / Cross-street-like", "screening_potential": false }, "geometry": { "type": "Point", "coordinates": [ -73.981637, 40.747305 ] } },
{ "type": "Feature", "properties": { "candidate_id": "DOT_SEAT.2013.0197", "candidate_type": "Bench", "candidate_name": "191 Madison Ave", "access_note": "NYC DOT public seating asset", "seating_type": "BACKLESS 2.0", "radial_distance_m": 619.82048545893008, "approx_minutes_radial": 7.747756068236626, "sample_id": "SEG_00136_P004", "segment_id": "SEG_00136", "street_name": "MADISON AVE", "sample_link_distance_m": 9.216916113931962, "tree_distance_m": 9.8005890642327245, "building_distance_m": 11.689696033782932, "tree_class": "Tree Near", "building_class": "Building Far", "visual_condition": "Vegetated Buffer", "orientation_group": "North–South / Avenue-like", "screening_potential": true }, "geometry": { "type": "Point", "coordinates": [ -73.98265025, 40.74803416 ] } },
{ "type": "Feature", "properties": { "candidate_id": "DOT_SEAT.2013.0198", "candidate_type": "Bench", "candidate_name": "199 Madison Avenue", "access_note": "NYC DOT public seating asset", "seating_type": "BACKLESS 1.0", "radial_distance_m": 597.05238721288003, "approx_minutes_radial": 7.4631548401610006, "sample_id": "SEG_00136_P007", "segment_id": "SEG_00136", "street_name": "MADISON AVE", "sample_link_distance_m": 8.8071990749564844, "tree_distance_m": 24.859068549749843, "building_distance_m": 11.605131137019104, "tree_class": "Tree Far", "building_class": "Building Far", "visual_condition": "Open Field", "orientation_group": "North–South / Avenue-like", "screening_potential": false }, "geometry": { "type": "Point", "coordinates": [ -73.98249195, 40.74825054 ] } },
{ "type": "Feature", "properties": { "candidate_id": "DOT_SEAT.2013.0199", "candidate_type": "Bench", "candidate_name": "165 Madison Avenue", "access_note": "NYC DOT public seating asset", "seating_type": "BACKLESS 2.0", "radial_distance_m": 742.69801414781398, "approx_minutes_radial": 9.2837251768476747, "sample_id": "SEG_00131_P006", "segment_id": "SEG_00131", "street_name": "MADISON AVE", "sample_link_distance_m": 9.8333602306342893, "tree_distance_m": 6.6207132996383207, "building_distance_m": 13.072270551708849, "tree_class": "Tree Near", "building_class": "Building Far", "visual_condition": "Vegetated Buffer", "orientation_group": "North–South / Avenue-like", "screening_potential": true }, "geometry": { "type": "Point", "coordinates": [ -73.98346642, 40.74691503 ] } },
{ "type": "Feature", "properties": { "candidate_id": "DOT_SEAT.2013.0447", "candidate_type": "Bench", "candidate_name": "529 3 Avenue", "access_note": "NYC DOT public seating asset", "seating_type": "BACKED 1.0", "radial_distance_m": 928.17326871588421, "approx_minutes_radial": 11.602165858948553, "sample_id": "SEG_00583_P002", "segment_id": "SEG_00583", "street_name": "3 AVE", "sample_link_distance_m": 13.132381576306631, "tree_distance_m": 10.342831935652463, "building_distance_m": 14.924203422255545, "tree_class": "Tree Near", "building_class": "Building Far", "visual_condition": "Vegetated Buffer", "orientation_group": "North–South / Avenue-like", "screening_potential": true }, "geometry": { "type": "Point", "coordinates": [ -73.977398, 40.74650132 ] } },
{ "type": "Feature", "properties": { "candidate_id": "DOT_SEAT.2016.0181", "candidate_type": "Leaning Bar", "candidate_name": "4 E 34th Street", "access_note": "NYC DOT public seating asset", "seating_type": "LEANING BAR", "radial_distance_m": 602.82225674767858, "approx_minutes_radial": 7.5352782093459822, "sample_id": "SEG_00137_P004", "segment_id": "SEG_00137", "street_name": "E 34 ST", "sample_link_distance_m": 8.0673231622553043, "tree_distance_m": 19.924520307946288, "building_distance_m": 15.652333686227458, "tree_class": "Tree Near", "building_class": "Building Far", "visual_condition": "Vegetated Buffer", "orientation_group": "East–West / Cross-street-like", "screening_potential": true }, "geometry": { "type": "Point", "coordinates": [ -73.98424254, 40.74822976 ] } },
{ "type": "Feature", "properties": { "candidate_id": "DOT_SEAT.2016.0185", "candidate_type": "Leaning Bar", "candidate_name": "360 W 34 Street", "access_note": "NYC DOT public seating asset", "seating_type": "LEANING BAR", "radial_distance_m": 1074.1026329442591, "approx_minutes_radial": 13.426282911803238, "sample_id": "SEG_00082_P024", "segment_id": "SEG_00082", "street_name": "W 34 ST", "sample_link_distance_m": 10.33166320075809, "tree_distance_m": 12.146542623373994, "building_distance_m": 15.178922336002795, "tree_class": "Tree Near", "building_class": "Building Far", "visual_condition": "Vegetated Buffer", "orientation_group": "East–West / Cross-street-like", "screening_potential": true }, "geometry": { "type": "Point", "coordinates": [ -73.99590428, 40.75313252 ] } },
{ "type": "Feature", "properties": { "candidate_id": "DOT_SEAT.2016.0186", "candidate_type": "Leaning Bar", "candidate_name": "245 E 34 Street", "access_note": "NYC DOT public seating asset", "seating_type": "LEANING BAR", "radial_distance_m": 1129.3442830250062, "approx_minutes_radial": 14.116803537812578, "sample_id": "SEG_00548_P012", "segment_id": "SEG_00548", "street_name": "E 34 ST", "sample_link_distance_m": 8.6725815936478483, "tree_distance_m": 13.120991446693081, "building_distance_m": 15.011847608502912, "tree_class": "Tree Near", "building_class": "Building Far", "visual_condition": "Vegetated Buffer", "orientation_group": "East–West / Cross-street-like", "screening_potential": true }, "geometry": { "type": "Point", "coordinates": [ -73.97611499, 40.744974879999987 ] } },
{ "type": "Feature", "properties": { "candidate_id": "DOT_SEAT.2022.0073", "candidate_type": "Bench", "candidate_name": "4 Park Avenue", "access_note": "NYC DOT public seating asset", "seating_type": "BACKED 2.0", "radial_distance_m": 751.61105705127147, "approx_minutes_radial": 9.3951382131408927, "sample_id": "SEG_00600_P006", "segment_id": "SEG_00600", "street_name": "PARK AVE", "sample_link_distance_m": 5.9491192617490336, "tree_distance_m": 24.311329621699134, "building_distance_m": 12.208820020521665, "tree_class": "Tree Far", "building_class": "Building Far", "visual_condition": "Open Field", "orientation_group": "North–South / Avenue-like", "screening_potential": false }, "geometry": { "type": "Point", "coordinates": [ -73.981651, 40.746935 ] } },
{ "type": "Feature", "properties": { "candidate_id": "DOT_SEAT.2023.0528", "candidate_type": "Bench", "candidate_name": "675 3 Avenue", "access_note": "NYC DOT public seating asset", "seating_type": "BACKLESS 2.0", "radial_distance_m": 815.91677597647754, "approx_minutes_radial": 10.19895969970597, "sample_id": "SEG_00712_P005", "segment_id": "SEG_00712", "street_name": "3 AVE", "sample_link_distance_m": 7.5492871559201422, "tree_distance_m": 14.893039023441451, "building_distance_m": 15.066298718897794, "tree_class": "Tree Near", "building_class": "Building Far", "visual_condition": "Vegetated Buffer", "orientation_group": "North–South / Avenue-like", "screening_potential": true }, "geometry": { "type": "Point", "coordinates": [ -73.974122, 40.751085 ] } },
{ "type": "Feature", "properties": { "candidate_id": "DOT_SEAT.2023.0624", "candidate_type": "Bench", "candidate_name": "219 W 34 Street", "access_note": "NYC DOT public seating asset", "seating_type": "BACKLESS 2.0", "radial_distance_m": 710.63289965295189, "approx_minutes_radial": 8.8829112456618979, "sample_id": "SEG_00185_P005", "segment_id": "SEG_00185", "street_name": "W 34 ST", "sample_link_distance_m": 7.9476454490002162, "tree_distance_m": 11.287864173338734, "building_distance_m": 15.051039129107977, "tree_class": "Tree Near", "building_class": "Building Far", "visual_condition": "Vegetated Buffer", "orientation_group": "East–West / Cross-street-like", "screening_potential": true }, "geometry": { "type": "Point", "coordinates": [ -73.991027, 40.75125 ] } },
{ "type": "Feature", "properties": { "candidate_id": "DOT_SEAT.2024.0284", "candidate_type": "Leaning Bar", "candidate_name": "675 2 Avenue", "access_note": "NYC DOT public seating asset", "seating_type": "LEANING BAR", "radial_distance_m": 1071.6800189125788, "approx_minutes_radial": 13.396000236407236, "sample_id": "SEG_00571_P002", "segment_id": "SEG_00571", "street_name": "2 AVE", "sample_link_distance_m": 11.273960372870445, "tree_distance_m": 14.979116509894553, "building_distance_m": 23.961904713550439, "tree_class": "Tree Near", "building_class": "Building Far", "visual_condition": "Vegetated Buffer", "orientation_group": "North–South / Avenue-like", "screening_potential": true }, "geometry": { "type": "Point", "coordinates": [ -73.974972, 40.746253 ] } },
{ "type": "Feature", "properties": { "candidate_id": "DOT_SEAT.2024.0287", "candidate_type": "Bench", "candidate_name": "1010 6 Avenue", "access_note": "NYC DOT public seating asset", "seating_type": "BACKLESS 2.0", "radial_distance_m": 285.86754938215267, "approx_minutes_radial": 3.5733443672769085, "sample_id": "SEG_00196_P006", "segment_id": "SEG_00196", "street_name": "AVE OF THE AMERICAS", "sample_link_distance_m": 11.921106367203055, "tree_distance_m": 69.941506448585571, "building_distance_m": 15.212787162079234, "tree_class": "Tree Far", "building_class": "Building Far", "visual_condition": "Open Field", "orientation_group": "North–South / Avenue-like", "screening_potential": false }, "geometry": { "type": "Point", "coordinates": [ -73.985952, 40.752101 ] } },
{ "type": "Feature", "properties": { "candidate_id": "DOT_SEAT.2024.0471", "candidate_type": "Bench", "candidate_name": "966 6 Avenue", "access_note": "NYC DOT public seating asset", "seating_type": "BACKLESS 2.0", "radial_distance_m": 455.39880371702907, "approx_minutes_radial": 5.6924850464628634, "sample_id": "SEG_00180_P004", "segment_id": "SEG_00180", "street_name": "AVE OF THE AMERICAS", "sample_link_distance_m": 11.650034593458827, "tree_distance_m": 54.066287183324164, "building_distance_m": 15.2065934529559, "tree_class": "Tree Far", "building_class": "Building Far", "visual_condition": "Open Field", "orientation_group": "North–South / Avenue-like", "screening_potential": false }, "geometry": { "type": "Point", "coordinates": [ -73.986985, 40.750679 ] } },
{ "type": "Feature", "properties": { "candidate_id": "DOT_SEAT.2024.0474", "candidate_type": "Leaning Bar", "candidate_name": "990 6 Avenue", "access_note": "NYC DOT public seating asset", "seating_type": "LEANING BAR", "radial_distance_m": 353.70282367181863, "approx_minutes_radial": 4.4212852958977331, "sample_id": "SEG_00193_P007", "segment_id": "SEG_00193", "street_name": "AVE OF THE AMERICAS", "sample_link_distance_m": 13.794705447172898, "tree_distance_m": 31.155720255767495, "building_distance_m": 15.30759604507063, "tree_class": "Tree Far", "building_class": "Building Far", "visual_condition": "Open Field", "orientation_group": "North–South / Avenue-like", "screening_potential": false }, "geometry": { "type": "Point", "coordinates": [ -73.986364, 40.751513 ] } },
{ "type": "Feature", "properties": { "candidate_id": "DOT_SEAT.2024.0478", "candidate_type": "Bench", "candidate_name": "320 5 Avenue", "access_note": "NYC DOT public seating asset", "seating_type": "BACKLESS 2.0", "radial_distance_m": 724.29422897267841, "approx_minutes_radial": 9.0536778621584801, "sample_id": "SEG_00141_P002", "segment_id": "SEG_00141", "street_name": "5 AVE", "sample_link_distance_m": 9.9366245576897327, "tree_distance_m": 19.02251205675336, "building_distance_m": 15.425459268883801, "tree_class": "Tree Near", "building_class": "Building Far", "visual_condition": "Vegetated Buffer", "orientation_group": "North–South / Avenue-like", "screening_potential": true }, "geometry": { "type": "Point", "coordinates": [ -73.985516, 40.74732 ] } },
{ "type": "Feature", "properties": { "candidate_id": "DOT_SEAT.2024.0483", "candidate_type": "Bench", "candidate_name": "1060 6 Avenue", "access_note": "NYC DOT public seating asset", "seating_type": "BACKLESS 2.0", "radial_distance_m": 108.50662450916872, "approx_minutes_radial": 1.356332806364609, "sample_id": "SEG_00206_P026", "segment_id": "SEG_00206", "street_name": "W 42 ST", "sample_link_distance_m": 11.133595486897081, "tree_distance_m": 14.837277000985463, "building_distance_m": 15.277248158198327, "tree_class": "Tree Near", "building_class": "Building Far", "visual_condition": "Vegetated Buffer", "orientation_group": "East–West / Cross-street-like", "screening_potential": true }, "geometry": { "type": "Point", "coordinates": [ -73.983614, 40.754525 ] } },
{ "type": "Feature", "properties": { "candidate_id": "DOT_SEAT.2024.0484", "candidate_type": "Bench", "candidate_name": "605 3 Avenue", "access_note": "NYC DOT public seating asset", "seating_type": "BACKLESS 2.0", "radial_distance_m": 820.56426511976349, "approx_minutes_radial": 10.257053313997044, "sample_id": "SEG_00653_P004", "segment_id": "SEG_00653", "street_name": "3 AVE", "sample_link_distance_m": 14.240722350980437, "tree_distance_m": 12.656506898241668, "building_distance_m": 14.397734202325426, "tree_class": "Tree Near", "building_class": "Building Far", "visual_condition": "Vegetated Buffer", "orientation_group": "North–South / Avenue-like", "screening_potential": true }, "geometry": { "type": "Point", "coordinates": [ -73.975481, 40.749112 ] } },
{ "type": "Feature", "properties": { "candidate_id": "DOT_SEAT.2024.0485", "candidate_type": "Bench", "candidate_name": "443 3 Avenue", "access_note": "NYC DOT public seating asset", "seating_type": "BACKLESS 2.0", "radial_distance_m": 1152.9336796589548, "approx_minutes_radial": 14.411670995736936, "sample_id": "SEG_00538_P006", "segment_id": "SEG_00538", "street_name": "3 AVE", "sample_link_distance_m": 13.25856278374949, "tree_distance_m": 10.623207471967106, "building_distance_m": 14.300945474856372, "tree_class": "Tree Near", "building_class": "Building Far", "visual_condition": "Vegetated Buffer", "orientation_group": "North–South / Avenue-like", "screening_potential": true }, "geometry": { "type": "Point", "coordinates": [ -73.979497, 40.743607 ] } },
{ "type": "Feature", "properties": { "candidate_id": "DOT_SEAT.2024.0492", "candidate_type": "Bench", "candidate_name": "151 W 34 Street", "access_note": "NYC DOT public seating asset", "seating_type": "BACKLESS 2.0", "radial_distance_m": 581.0317590374076, "approx_minutes_radial": 7.2628969879675953, "sample_id": "SEG_00160_P005", "segment_id": "SEG_00160", "street_name": "W 34 ST", "sample_link_distance_m": 11.098183742577888, "tree_distance_m": 100.57687607612327, "building_distance_m": 14.713874059675106, "tree_class": "Tree Far", "building_class": "Building Far", "visual_condition": "Open Field", "orientation_group": "East–West / Cross-street-like", "screening_potential": false }, "geometry": { "type": "Point", "coordinates": [ -73.988383, 40.750159 ] } },
{ "type": "Feature", "properties": { "candidate_id": "DOT_SEAT.2024.0493", "candidate_type": "Bench", "candidate_name": "562 5 Avenue", "access_note": "NYC DOT public seating asset", "seating_type": "BACKLESS 2.0", "radial_distance_m": 455.14947892002471, "approx_minutes_radial": 5.6893684865003085, "sample_id": "SEG_00880_P002", "segment_id": "SEG_00880", "street_name": "5 AVE", "sample_link_distance_m": 10.226655208163285, "tree_distance_m": 9.9906718516672885, "building_distance_m": 15.286358707750264, "tree_class": "Tree Near", "building_class": "Building Far", "visual_condition": "Vegetated Buffer", "orientation_group": "North–South / Avenue-like", "screening_potential": true }, "geometry": { "type": "Point", "coordinates": [ -73.979041, 40.756207 ] } },
{ "type": "Feature", "properties": { "candidate_id": "DOT_SEAT.2024.0496", "candidate_type": "Leaning Bar", "candidate_name": "509 Madison Avenue", "access_note": "NYC DOT public seating asset", "seating_type": "LEANING BAR", "radial_distance_m": 1007.807754292265, "approx_minutes_radial": 12.597596928653314, "sample_id": "SEG_00921_P007", "segment_id": "SEG_00921", "street_name": "MADISON AVE", "sample_link_distance_m": 10.955580071964247, "tree_distance_m": 25.589185345924136, "building_distance_m": 11.75745084001356, "tree_class": "Tree Far", "building_class": "Building Far", "visual_condition": "Open Field", "orientation_group": "North–South / Avenue-like", "screening_potential": false }, "geometry": { "type": "Point", "coordinates": [ -73.97421, 40.759569 ] } },
{ "type": "Feature", "properties": { "candidate_id": "DOT_SEAT.2024.0497", "candidate_type": "Bench", "candidate_name": "386 5 Avenue", "access_note": "NYC DOT public seating asset", "seating_type": "BACKLESS 2.0", "radial_distance_m": 451.17201693347926, "approx_minutes_radial": 5.6396502116684903, "sample_id": "SEG_00164_P006", "segment_id": "SEG_00164", "street_name": "5 AVE", "sample_link_distance_m": 11.159011107719961, "tree_distance_m": 11.235112217896837, "building_distance_m": 15.276908085026879, "tree_class": "Tree Near", "building_class": "Building Far", "visual_condition": "Vegetated Buffer", "orientation_group": "North–South / Avenue-like", "screening_potential": true }, "geometry": { "type": "Point", "coordinates": [ -73.983888, 40.749571 ] } },
{ "type": "Feature", "properties": { "candidate_id": "DOT_SEAT.2024.0591", "candidate_type": "Bench", "candidate_name": "12 E 42 Street", "access_note": "NYC DOT public seating asset", "seating_type": "BACKLESS 2.0", "radial_distance_m": 239.2482798331738, "approx_minutes_radial": 2.9906034979146723, "sample_id": "SEG_00853_P006", "segment_id": "SEG_00853", "street_name": "E 42 ST", "sample_link_distance_m": 11.286413366469054, "tree_distance_m": 28.28633109197478, "building_distance_m": 15.603056135834745, "tree_class": "Tree Far", "building_class": "Building Far", "visual_condition": "Open Field", "orientation_group": "East–West / Cross-street-like", "screening_potential": false }, "geometry": { "type": "Point", "coordinates": [ -73.980421, 40.753181 ] } },
{ "type": "Feature", "properties": { "candidate_id": "DOT_SEAT.2024.0694", "candidate_type": "Bench", "candidate_name": "547 9 Avenue", "access_note": "NYC DOT public seating asset", "seating_type": "BACKED 2.0", "radial_distance_m": 969.46234428614582, "approx_minutes_radial": 12.118279303576823, "sample_id": "SEG_00425_P001", "segment_id": "SEG_00425", "street_name": "PORT AUTHORITY BUS TERMINAL RAMP", "sample_link_distance_m": 4.8137601580880114, "tree_distance_m": 11.46718246566704, "building_distance_m": 8.9276494954616226, "tree_class": "Tree Near", "building_class": "Building Near", "visual_condition": "Screened Edge", "orientation_group": "North–South / Avenue-like", "screening_potential": true }, "geometry": { "type": "Point", "coordinates": [ -73.993494, 40.757465 ] } },
{ "type": "Feature", "properties": { "candidate_id": "DOT_SEAT.2024.0703", "candidate_type": "Bench", "candidate_name": "443 Park Avenue South", "access_note": "NYC DOT public seating asset", "seating_type": "BACKED 2.0", "radial_distance_m": 994.88339806594888, "approx_minutes_radial": 12.436042475824362, "sample_id": "SEG_00034_P002", "segment_id": "SEG_00034", "street_name": "PARK AVE S", "sample_link_distance_m": 6.6051856391653576, "tree_distance_m": 31.388976620520232, "building_distance_m": 7.3676545029990468, "tree_class": "Tree Far", "building_class": "Building Near", "visual_condition": "Exposed Edge", "orientation_group": "North–South / Avenue-like", "screening_potential": false }, "geometry": { "type": "Point", "coordinates": [ -73.982952, 40.744643 ] } },
{ "type": "Feature", "properties": { "candidate_id": "DOT_SEAT.2025.0014", "candidate_type": "Bench", "candidate_name": "52 Park Avenue", "access_note": "NYC DOT public seating asset", "seating_type": "BACKED 2.0", "radial_distance_m": 554.00992224563288, "approx_minutes_radial": 6.9251240280704112, "sample_id": "SEG_00648_P003", "segment_id": "SEG_00648", "street_name": "PARK AVE", "sample_link_distance_m": 6.591045775460243, "tree_distance_m": 6.8451942388429154, "building_distance_m": 12.593574525476608, "tree_class": "Tree Near", "building_class": "Building Far", "visual_condition": "Vegetated Buffer", "orientation_group": "North–South / Avenue-like", "screening_potential": true }, "geometry": { "type": "Point", "coordinates": [ -73.979974, 40.749256 ] } },
{ "type": "Feature", "properties": { "candidate_id": "DOT_SEAT.2025.0102", "candidate_type": "Bench", "candidate_name": "820 2 Avenue", "access_note": "NYC DOT public seating asset", "seating_type": "BACKED 2.0", "radial_distance_m": 1051.6386329256104, "approx_minutes_radial": 13.145482911570131, "sample_id": "SEG_00756_P006", "segment_id": "SEG_00756", "street_name": "2 AVE", "sample_link_distance_m": 12.662199045605266, "tree_distance_m": 12.830052431062843, "building_distance_m": 14.58075638417383, "tree_class": "Tree Near", "building_class": "Building Far", "visual_condition": "Vegetated Buffer", "orientation_group": "North–South / Avenue-like", "screening_potential": true }, "geometry": { "type": "Point", "coordinates": [ -73.971271, 40.750882 ] } },
{ "type": "Feature", "properties": { "candidate_id": "DOT_SEAT.2025.0624", "candidate_type": "Leaning Bar", "candidate_name": "810 7 Avenue", "access_note": "NYC DOT public seating asset", "seating_type": "LEANING BAR", "radial_distance_m": 997.8103983181345, "approx_minutes_radial": 12.472629978976681, "sample_id": "SEG_00508_P003", "segment_id": "SEG_00508", "street_name": "7 AVE", "sample_link_distance_m": 11.977040890293283, "tree_distance_m": 43.756070189047463, "building_distance_m": 15.443823381891402, "tree_class": "Tree Far", "building_class": "Building Far", "visual_condition": "Open Field", "orientation_group": "North–South / Avenue-like", "screening_potential": false }, "geometry": { "type": "Point", "coordinates": [ -73.982349, 40.762562 ] } },
{ "type": "Feature", "properties": { "candidate_id": "DOT_SEAT.2025.0625", "candidate_type": "Leaning Bar", "candidate_name": "750 7 Avenue", "access_note": "NYC DOT public seating asset", "seating_type": "LEANING BAR", "radial_distance_m": 789.61712943433895, "approx_minutes_radial": 9.8702141179292369, "sample_id": "SEG_00404_P003", "segment_id": "SEG_00404", "street_name": "7 AVE", "sample_link_distance_m": 11.123880020932663, "tree_distance_m": 26.393819593089397, "building_distance_m": 15.060571005750916, "tree_class": "Tree Far", "building_class": "Building Far", "visual_condition": "Open Field", "orientation_group": "North–South / Avenue-like", "screening_potential": false }, "geometry": { "type": "Point", "coordinates": [ -73.983709, 40.7607 ] } },
{ "type": "Feature", "properties": { "candidate_id": "DOT_SEAT.2025.0628", "candidate_type": "Bench", "candidate_name": "492 7 Avenue", "access_note": "NYC DOT public seating asset", "seating_type": "BACKLESS 2.0", "radial_distance_m": 549.34677123474967, "approx_minutes_radial": 6.8668346404343712, "sample_id": "SEG_00190_P004", "segment_id": "SEG_00190", "street_name": "7 AVE", "sample_link_distance_m": 11.462421540007153, "tree_distance_m": 111.61942977298949, "building_distance_m": 14.624687204771133, "tree_class": "Tree Far", "building_class": "Building Far", "visual_condition": "Open Field", "orientation_group": "North–South / Avenue-like", "screening_potential": false }, "geometry": { "type": "Point", "coordinates": [ -73.989582, 40.752642 ] } },
{ "type": "Feature", "properties": { "candidate_id": "DOT_SEAT.2025.0634", "candidate_type": "Bench", "candidate_name": "776 6 Avenue", "access_note": "NYC DOT public seating asset", "seating_type": "BACKLESS 2.0", "radial_distance_m": 1135.5982919605285, "approx_minutes_radial": 14.194978649506606, "sample_id": "SEG_00043_P007", "segment_id": "SEG_00043", "street_name": "AVE OF THE AMERICAS", "sample_link_distance_m": 12.66798067656255, "tree_distance_m": 13.110839418618756, "building_distance_m": 14.560016077319004, "tree_class": "Tree Near", "building_class": "Building Far", "visual_condition": "Vegetated Buffer", "orientation_group": "North–South / Avenue-like", "screening_potential": true }, "geometry": { "type": "Point", "coordinates": [ -73.990944, 40.74524 ] } },
{ "type": "Feature", "properties": { "candidate_id": "DOT_SEAT.2025.0637", "candidate_type": "Leaning Bar", "candidate_name": "6 Avenue", "access_note": "NYC DOT public seating asset", "seating_type": "LEANING BAR", "radial_distance_m": 124.61659417850582, "approx_minutes_radial": 1.5577074272313227, "sample_id": "SEG_00205_P005", "segment_id": "SEG_00205", "street_name": "AVE OF THE AMERICAS", "sample_link_distance_m": 14.17686863181258, "tree_distance_m": 129.81421555708746, "building_distance_m": 15.178323124793476, "tree_class": "Tree Far", "building_class": "Building Far", "visual_condition": "Open Field", "orientation_group": "North–South / Avenue-like", "screening_potential": false }, "geometry": { "type": "Point", "coordinates": [ -73.984629, 40.75388 ] } },
{ "type": "Feature", "properties": { "candidate_id": "DOT_SEAT.2025.0638", "candidate_type": "Leaning Bar", "candidate_name": "1212 6 Avenue", "access_note": "NYC DOT public seating asset", "seating_type": "LEANING BAR", "radial_distance_m": 532.67445480990989, "approx_minutes_radial": 6.6584306851238733, "sample_id": "SEG_00897_P004", "segment_id": "SEG_00897", "street_name": "AVE OF THE AMERICAS", "sample_link_distance_m": 13.975691582849954, "tree_distance_m": 52.531201332249118, "building_distance_m": 16.002375194275192, "tree_class": "Tree Far", "building_class": "Building Far", "visual_condition": "Open Field", "orientation_group": "North–South / Avenue-like", "screening_potential": false }, "geometry": { "type": "Point", "coordinates": [ -73.98148, 40.758215 ] } },
{ "type": "Feature", "properties": { "candidate_id": "DOT_SEAT.2025.0639", "candidate_type": "Bench", "candidate_name": "1290 6 Avenue", "access_note": "NYC DOT public seating asset", "seating_type": "BACKLESS 2.0", "radial_distance_m": 836.42150002845062, "approx_minutes_radial": 10.455268750355632, "sample_id": "SEG_00942_P003", "segment_id": "SEG_00942", "street_name": "AVE OF THE AMERICAS", "sample_link_distance_m": 12.257255155561786, "tree_distance_m": 31.041783888690759, "building_distance_m": 16.251259603970585, "tree_class": "Tree Far", "building_class": "Building Far", "visual_condition": "Open Field", "orientation_group": "North–South / Avenue-like", "screening_potential": false }, "geometry": { "type": "Point", "coordinates": [ -73.979724, 40.760653 ] } },
{ "type": "Feature", "properties": { "candidate_id": "DOT_SEAT.2025.0672", "candidate_type": "Bench", "candidate_name": "661 9 Avenue", "access_note": "NYC DOT public seating asset", "seating_type": "BACKLESS 2.0", "radial_distance_m": 1042.4781411838883, "approx_minutes_radial": 13.030976764798604, "sample_id": "SEG_00398_P006", "segment_id": "SEG_00398", "street_name": "9 AVE", "sample_link_distance_m": 11.609666764967384, "tree_distance_m": 11.184254898299166, "building_distance_m": 14.714236560576062, "tree_class": "Tree Near", "building_class": "Building Far", "visual_condition": "Vegetated Buffer", "orientation_group": "North–South / Avenue-like", "screening_potential": true }, "geometry": { "type": "Point", "coordinates": [ -73.991004, 40.760874 ] } },
{ "type": "Feature", "properties": { "candidate_id": "DOT_SEAT.2025.0673", "candidate_type": "Bench", "candidate_name": "623 9 Avenue", "access_note": "NYC DOT public seating asset", "seating_type": "BACKLESS 2.0", "radial_distance_m": 1010.0135302787015, "approx_minutes_radial": 12.625169128483769, "sample_id": "SEG_00396_P002", "segment_id": "SEG_00396", "street_name": "W 44 ST", "sample_link_distance_m": 11.250967021241621, "tree_distance_m": 9.6959413233460836, "building_distance_m": 9.1649388919317563, "tree_class": "Tree Near", "building_class": "Building Near", "visual_condition": "Screened Edge", "orientation_group": "East–West / Cross-street-like", "screening_potential": true }, "geometry": { "type": "Point", "coordinates": [ -73.991823, 40.759903 ] } },
{ "type": "Feature", "properties": { "candidate_id": "DOT_SEAT.2026.0706", "candidate_type": "Bench", "candidate_name": "777 3 Avenue", "access_note": "NYC DOT public seating asset", "seating_type": "BACKLESS 2.0", "radial_distance_m": 909.59012634822682, "approx_minutes_radial": 11.369876579352836, "sample_id": "SEG_00791_P007", "segment_id": "SEG_00791", "street_name": "LEXINGTON AVE", "sample_link_distance_m": 8.631246011338968, "tree_distance_m": 25.737469761900872, "building_distance_m": 10.961773520332255, "tree_class": "Tree Far", "building_class": "Building Far", "visual_condition": "Open Field", "orientation_group": "North–South / Avenue-like", "screening_potential": false }, "geometry": { "type": "Point", "coordinates": [ -73.972805, 40.755746 ] } },
{ "type": "Feature", "properties": { "candidate_id": "DOT_SEAT.2026.0710", "candidate_type": "Bench", "candidate_name": "950 6 Avenue", "access_note": "NYC DOT public seating asset", "seating_type": "BACKLESS 2.0", "radial_distance_m": 503.02499992332326, "approx_minutes_radial": 6.2878124990415412, "sample_id": "SEG_00175_P007", "segment_id": "SEG_00175", "street_name": "AVE OF THE AMERICAS", "sample_link_distance_m": 10.504331269128022, "tree_distance_m": 70.019846138281267, "building_distance_m": 13.946018148132977, "tree_class": "Tree Far", "building_class": "Building Far", "visual_condition": "Open Field", "orientation_group": "North–South / Avenue-like", "screening_potential": false }, "geometry": { "type": "Point", "coordinates": [ -73.987279, 40.750299 ] } },
{ "type": "Feature", "properties": { "candidate_id": "DOT_SEAT.2026.0725", "candidate_type": "Bench", "candidate_name": "220 5 Avenue", "access_note": "NYC DOT public seating asset", "seating_type": "BACKLESS 2.0", "radial_distance_m": 1184.4132475103322, "approx_minutes_radial": 14.805165593879153, "sample_id": "SEG_00023_P002", "segment_id": "SEG_00023", "street_name": "5 AVE", "sample_link_distance_m": 9.6835388931286417, "tree_distance_m": 36.157807959494264, "building_distance_m": 15.393491849038361, "tree_class": "Tree Far", "building_class": "Building Far", "visual_condition": "Open Field", "orientation_group": "North–South / Avenue-like", "screening_potential": false }, "geometry": { "type": "Point", "coordinates": [ -73.988196, 40.743634 ] } },
{ "type": "Feature", "properties": { "candidate_id": "DOT_SEAT.2026.0727", "candidate_type": "Bench", "candidate_name": "135 Madison Avenue", "access_note": "NYC DOT public seating asset", "seating_type": "BACKLESS 2.0", "radial_distance_m": 844.36311795987706, "approx_minutes_radial": 10.554538974498463, "sample_id": "SEG_00067_P003", "segment_id": "SEG_00067", "street_name": "MADISON AVE", "sample_link_distance_m": 7.8486306292120336, "tree_distance_m": 7.1670442568358048, "building_distance_m": 12.946843929851745, "tree_class": "Tree Near", "building_class": "Building Far", "visual_condition": "Vegetated Buffer", "orientation_group": "North–South / Avenue-like", "screening_potential": true }, "geometry": { "type": "Point", "coordinates": [ -73.984124, 40.746029 ] } },
{ "type": "Feature", "properties": { "candidate_id": "DOT_SEAT.2026.0728", "candidate_type": "Bench", "candidate_name": "519 Madison Avenue", "access_note": "NYC DOT public seating asset", "seating_type": "BACKLESS 2.0", "radial_distance_m": 1049.0891043272275, "approx_minutes_radial": 13.113613804090344, "sample_id": "SEG_00923_P003", "segment_id": "SEG_00923", "street_name": "MADISON AVE", "sample_link_distance_m": 9.3151773906272197, "tree_distance_m": 12.924022212104672, "building_distance_m": 12.8247743917875, "tree_class": "Tree Near", "building_class": "Building Far", "visual_condition": "Vegetated Buffer", "orientation_group": "North–South / Avenue-like", "screening_potential": true }, "geometry": { "type": "Point", "coordinates": [ -73.973973, 40.759926 ] } },
{ "type": "Feature", "properties": { "candidate_id": "DOT_SEAT.2026.0742", "candidate_type": "Bench", "candidate_name": "22 Madison Avenue", "access_note": "NYC DOT public seating asset", "seating_type": "BACKLESS 2.0", "radial_distance_m": 395.23930165101285, "approx_minutes_radial": 4.9404912706376605, "sample_id": "SEG_00835_P003", "segment_id": "SEG_00835", "street_name": "MADISON AVE", "sample_link_distance_m": 10.148733686285766, "tree_distance_m": 8.2548614279198134, "building_distance_m": 12.304600620778366, "tree_class": "Tree Near", "building_class": "Building Far", "visual_condition": "Vegetated Buffer", "orientation_group": "North–South / Avenue-like", "screening_potential": true }, "geometry": { "type": "Point", "coordinates": [ -73.978521, 40.753684 ] } },
{ "type": "Feature", "properties": { "candidate_id": "DOT_SEAT.2026.0743", "candidate_type": "Leaning Bar", "candidate_name": "477 Madison Avenue", "access_note": "NYC DOT public seating asset", "seating_type": "LEANING BAR", "radial_distance_m": 908.98036721619633, "approx_minutes_radial": 11.362254590202454, "sample_id": "SEG_00919_P004", "segment_id": "SEG_00919", "street_name": "MADISON AVE", "sample_link_distance_m": 9.3900790588650871, "tree_distance_m": 38.822630260867314, "building_distance_m": 12.005533471761723, "tree_class": "Tree Far", "building_class": "Building Far", "visual_condition": "Open Field", "orientation_group": "North–South / Avenue-like", "screening_potential": false }, "geometry": { "type": "Point", "coordinates": [ -73.974829, 40.758746 ] } },
{ "type": "Feature", "properties": { "candidate_id": "DOT_SEAT.2026.0746", "candidate_type": "Bench", "candidate_name": "209 Madison Avenue", "access_note": "NYC DOT public seating asset", "seating_type": "BACKLESS 2.0", "radial_distance_m": 557.39652307554172, "approx_minutes_radial": 6.9674565384442717, "sample_id": "SEG_00139_P003", "segment_id": "SEG_00139", "street_name": "MADISON AVE", "sample_link_distance_m": 8.4172322257535619, "tree_distance_m": 8.6604481260095536, "building_distance_m": 11.796538919660241, "tree_class": "Tree Near", "building_class": "Building Far", "visual_condition": "Vegetated Buffer", "orientation_group": "North–South / Avenue-like", "screening_potential": true }, "geometry": { "type": "Point", "coordinates": [ -73.982231, 40.748635 ] } },
{ "type": "Feature", "properties": { "candidate_id": "DOT_SEAT.2026.0748", "candidate_type": "Leaning Bar", "candidate_name": "455 Madison Avenue", "access_note": "NYC DOT public seating asset", "seating_type": "LEANING BAR", "radial_distance_m": 852.99608035095514, "approx_minutes_radial": 10.66245100438694, "sample_id": "SEG_00917_P006", "segment_id": "SEG_00917", "street_name": "MADISON AVE", "sample_link_distance_m": 9.1254649319382715, "tree_distance_m": 75.757409099831847, "building_distance_m": 12.100406598455729, "tree_class": "Tree Far", "building_class": "Building Far", "visual_condition": "Open Field", "orientation_group": "North–South / Avenue-like", "screening_potential": false }, "geometry": { "type": "Point", "coordinates": [ -73.975178, 40.758268 ] } }
]
}
