{"type":"FeatureCollection","features":[{"type":"Feature","properties":{"marker-color":"rgba(78, 75, 234, 1)","Narrative":"School"},"geometry":{"type":"Point","coordinates":[-73.960955,40.808277]}},{"type":"Feature","properties":{"marker-color":"rgba(255, 0, 0, 1)","Narrative":"Restaurant"},"geometry":{"type":"Point","coordinates":[-73.957657,40.816044]}},{"type":"Feature","properties":{"Narrative":"Play"},"geometry":{"type":"Point","coordinates":[-73.977695,40.761544]}},{"type":"Feature","properties":{"Narrative":"Play"},"geometry":{"type":"Point","coordinates":[-73.985994,40.757161]}},{"type":"Feature","properties":{"marker-color":"#ff0000","Narrative":"Restaurant"},"geometry":{"type":"Point","coordinates":[-73.983444,40.762946]}},{"type":"Feature","properties":{"marker-color":"#312E81","Narrative":"Play"},"geometry":{"type":"Point","coordinates":[-73.980038,40.759195]}},{"type":"Feature","properties":{"Narrative":"Play"},"geometry":{"type":"Point","coordinates":[-73.986682,40.75604]}},{"type":"Feature","properties":{"marker-color":"#312E81","Narrative":"Play"},"geometry":{"type":"Point","coordinates":[-73.976214,40.760398]}},{"type":"Feature","properties":{"Narrative":"Play"},"geometry":{"type":"Point","coordinates":[-73.978018,40.757748]}},{"type":"Feature","properties":{"marker-color":"rgba(255, 0, 0, 1)","Narrative":"Restaurant"},"geometry":{"type":"Point","coordinates":[-73.982845,40.760766]}},{"type":"Feature","properties":{"Narrative":"Play"},"geometry":{"type":"Point","coordinates":[-73.963434,40.77945]}},{"type":"Feature","properties":{"Narrative":"Subway ","marker-color":"rgba(247, 255, 0, 1)"},"geometry":{"type":"Point","coordinates":[-73.952043,40.809641]}},{"type":"Feature","properties":{"stroke":"rgba(0, 6, 255, 1)","stroke-opacity":1,"stroke-width":3},"geometry":{"type":"LineString","coordinates":[[-73.95176,40.809457],[-73.993411,40.752247]]}},{"type":"Feature","properties":{"marker-color":"rgba(255, 255, 0, 1)","Narrative":"Subway "},"geometry":{"type":"Point","coordinates":[-73.981871,40.768173]}},{"type":"Feature","properties":{"marker-color":"rgba(254, 250, 0, 1)","Narrative":"Subway "},"geometry":{"type":"Point","coordinates":[-73.98991,40.757306]}},{"type":"Feature","properties":{"marker-color":"rgba(242, 255, 0, 1)","Narrative":"Subway "},"geometry":{"type":"Point","coordinates":[-73.993599,40.752239]}}]}